Cluster,Placename,State,Lat,Long
347,Pinnagadi,Andhra Pradesh,17.805369,83.173324
645,Khindubadi,Andhra Pradesh,18.358826999999998,83.003644
38,Padi,Andhra Pradesh,17.654989999999998,82.21783
22,Pedda Maravadi,Andhra Pradesh,15.765929000000002,77.583329
4,Jaladi,Andhra Pradesh,16.13029,80.24601
3,Mandadi,Andhra Pradesh,16.43798,79.40677
248,Bangavadi,Karnataka,13.27309,78.55100999999999
784,Chinna Madi,Odisha,18.919444,83.907964
650,Pedda Madi,Andhra Pradesh,18.711863,83.899553
419,Malpadi,Andhra Pradesh,18.029872,82.774684
418,Onadi,Andhra Pradesh,18.18998,82.526422
16,Cilli Adi,Assam,27.687559999999998,94.81782
10,Akadi,Assam,26.29555,91.49752
12,Angradi,Assam,26.27226,91.35396
13,Bamun Baradi,Assam,26.33965,91.02631
14,Barfaladi,Assam,26.369940000000003,91.21970999999999
11,Boginadi,Assam,27.754620000000003,95.11287
15,Borajan Adi,Assam,27.47525,94.56184
18,Bordoibam Bagan No.1/10 Myadi,Assam,27.435640000000003,94.30738000000001
7,Chinanadi,Assam,25.93329,92.70123000000001
17,Lilabari No.1 Mayadi,Assam,27.411440000000002,94.19393000000001
1,Jongsherhadi,Assam,25.17878,93.01120999999999
6,Sonairupai Nadi,Assam,26.892182000000002,92.567701
431,Murhadi,Bihar,26.444059999999997,86.25981999999999
666,Bela Parsadi,Bihar,25.60579,87.12361999999999
485,Thora Nadi,Bihar,25.467029,84.016982
659,Ratua Nadi,Bihar,26.180249,87.696815
678,Sonhar Nadi,Bihar,25.430112,86.844862
479,Kataha Nadi,Bihar,27.240052000000002,84.476865
653,Fariani Nadi,Bihar,25.999414,87.244271
776,Gandaki Nadi,Bihar,25.764477,85.026371
873,Baragai Nadi,Bihar,25.157604,85.694923
1074,Chilka Nadi,Jharkhand,24.588127,86.317148
1183,Sarsuti Nadi,Jharkhand,23.765978,83.73395699999999
692,Patabahar Nadi,Chhattisgarh,20.108795999999998,82.298918
731,Pagar Nadi,Chhattisgarh,20.662518,82.062795
858,Deodha Nadi,Chhattisgarh,20.027541,80.741815
689,Atekonhadi,Chhattisgarh,20.09158,81.59273
896,Jhura Nadi,Chhattisgarh,21.152094,80.82164399999999
824,Bagnadi,Chhattisgarh,21.079320000000003,80.47104
763,Bargadi,Chhattisgarh,22.014429999999997,82.67884000000001
266,Bawadi,Chhattisgarh,19.587410000000002,81.66149
823,Bendadi,Chhattisgarh,21.00529,80.62838
941,Mohadi,Chhattisgarh,21.540979999999998,81.6978
716,Khaira Nadi,Chhattisgarh,20.734026999999998,82.266481
819,Jajel Nadi,Chhattisgarh,18.492423000000002,81.803085
707,Basikhai Nadi,Chhattisgarh,20.502784,81.250075
888,Kandadi,Chhattisgarh,20.517979999999998,80.7486
687,Hatkul Nadi,Chhattisgarh,20.285708,81.523031
234,Gadadi,Chhattisgarh,19.54415,81.03453
685,Gawadi,Chhattisgarh,20.09788,81.15743
690,Bandankuram Nadi,Chhattisgarh,20.03501,81.419568
686,Bhanpur Nadi,Chhattisgarh,20.869922,81.46019
783,Hathibadi,Chhattisgarh,22.3754,82.32484000000001
903,Manpur Pahadi,Chhattisgarh,21.6429,81.06089
987,Jolen Nadi,Chhattisgarh,21.7584,83.246332
909,Seojharan Nadi,Chhattisgarh,20.711561,80.615534
825,Kokadi,Chhattisgarh,21.991120000000002,82.26807
779,Tortori Nadi,Chhattisgarh,21.168594,82.25338199999999
778,Kokadi,Chhattisgarh,21.6566,82.16093000000001
677,Puladi,Chhattisgarh,18.9054,81.07699000000001
894,Gudguda Nadi,Chhattisgarh,20.950682,80.779387
271,Balsotha Nadi,Chhattisgarh,23.789022,83.118358
259,Makadi,Chhattisgarh,19.784589999999998,81.90621
697,Patharri Nadi,Chhattisgarh,20.489518,81.610454
960,Murmuri Nadi,Odisha,21.146541,82.951328
989,Tibhuchua Nadi,Chhattisgarh,21.424951,83.180008
1007,Kanhaia Nadi,Chhattisgarh,22.287609,81.699158
897,Kharra Nadi,Chhattisgarh,21.775334,81.888316
304,Angadi,Karnataka,14.89431,74.12583000000001
1148,Khatkankhadi,Gujarat,21.64487,73.56203000000001
1157,Miyawadi,Gujarat,21.22469,73.25665
664,Tarsadi,Gujarat,20.97276,73.01533
1164,Kunvar Khadi,Gujarat,21.59685,73.79894
604,Sardarkhantni Muvadi,Gujarat,23.3384,73.52588
31,Karkadi,Gujarat,21.16311,70.82045
583,Intwadi,Gujarat,22.51568,73.5176
588,Patangadi,Gujarat,22.878220000000002,73.88916
201,Umed Ni Muvadi,Gujarat,23.36063,72.99053
30,Sagvadi,Gujarat,21.692529999999998,71.96035
24,Chunadi,Gujarat,23.06232,69.54201
202,Sipaini Muvadi,Gujarat,22.9866,72.96629
27,Morvadi,Gujarat,22.19681,70.26379
159,Shahvadi,Gujarat,22.960810000000002,72.55919
805,Gheswadi,Gujarat,21.974320000000002,73.90798000000001
33,Piparadi,Gujarat,22.30389,71.59359
488,Chitrakhadi,Gujarat,21.96436,73.62826
603,Koliyani Muvadi,Gujarat,23.13355,73.57852
52,Ramodadi,Gujarat,22.45459,72.69068
151,Suker Nadi,Rajasthan,24.440735,72.718009
5,Bhetkadi,Gujarat,21.9182,69.5508
597,Godha Ni Muvadi,Gujarat,23.26011,73.84518
1081,Hiravadi,Gujarat,21.088829999999998,73.60387
126,Jadi,Gujarat,24.5806,72.07243000000001
552,Tamachhadi,Gujarat,20.417170000000002,73.29444000000001
32,Gujarvadi,Gujarat,22.83447,71.49943
36,Dhenkwadi,Gujarat,23.99548,71.58308000000001
663,Dhoran Paradi,Gujarat,21.32331,72.98397
1156,Kolkhadi,Gujarat,21.3982,73.35328
1180,Varoli Nadi,Gujarat,21.499373000000002,74.090104
132,Vanjarvadi,Gujarat,23.984942,73.060162
29,Loma Kotadi,Gujarat,22.37112,71.03399
589,Suron Nadi,Gujarat,23.531169000000002,73.55794300000001
611,Umaradi,Gujarat,20.512242,72.897759
619,Moti Tambadi,Gujarat,20.31955,73.02076
21,Sukh Nadi,Rajasthan,28.146198,75.909263
155,Bhayadi,Himachal Pradesh,32.72141,76.66879
100,Luhasan Siharadi,Himachal Pradesh,30.918309999999998,77.09129
53,Dahsoli Nadi,Himachal Pradesh,31.328596,76.81607
83,Kotigar Nadi,Himachal Pradesh,31.270463,77.528612
164,Miadi,Himachal Pradesh,32.55537,76.1249
49,Batawal Nadi,Jammu and Kashmir,32.666667,74.833333
97,Gagarwas Nadi,Jammu and Kashmir,33.760086,74.79159200000001
122,Salladi,Jammu And Kashmir,32.57637359,75.57007093
1160,Khuntadi,Jharkhand,23.49371,86.18842
1086,Sadiadi,Jharkhand,23.86632,86.41153
869,Roladi,Jharkhand,22.61886,86.19060999999999
534,Lakhiadi,Jharkhand,24.08736,87.16149
1153,Bhera Nadi,Jharkhand,23.632852,85.711333
958,Balari Nadi,Jharkhand,23.161142,85.058876
1085,Durlabhadi,Jharkhand,23.79828,86.72303000000001
1089,Bagjobra Nadi,Jharkhand,24.562185999999997,85.936709
1108,Gadi,Jharkhand,24.34551,85.92695
1043,Gadi,Jharkhand,24.37981,86.32226999999999
1129,Gadi,Jharkhand,24.17742,86.1435
1165,Batuka Nadi,Jharkhand,23.685855,85.23530600000001
781,Silphi Nadi,Jharkhand,22.9968,84.36574300000001
1110,Dhirabor Nadi,Jharkhand,24.186214,86.331604
911,Sonhua Nadi,Jharkhand,22.733367,85.76501800000001
1154,Nawadi,Jharkhand,23.44349,86.26096
1117,Jinjoi Nadi,Jharkhand,24.1097,84.07986700000001
1166,Pararu Nadi,Jharkhand,23.640310999999997,85.449888
701,Belpahadi,Odisha,22.29434,86.21645
118,Kirla Nadi,Jharkhand,24.671917,87.68414200000001
1122,Baghi Nadi,Jharkhand,24.246106,83.855188
346,18 Manampadi,Karnataka,13.09477,74.8056
351,Jumadi,Karnataka,12.874051,74.880043
327,Hurugalavadi,Karnataka,12.69852,76.9688
319,Huradi,Karnataka,13.034441000000001,75.693552
1381,Bhutevadi,Karnataka,15.63009,74.465447
1327,Bhimapurwadi,Karnataka,16.48011,74.45551999999999
290,Muchadi,Karnataka,14.500322,75.284149
43,Bagevadi,Karnataka,16.572776,75.97251700000001
270,Golavadi,Karnataka,12.740675999999999,76.25627800000001
291,Hadadi,Karnataka,14.36266,75.89243
254,Dod Valagmadi,Karnataka,12.947924,78.224749
345,Alawadi,Karnataka,11.812619999999999,76.68674
350,Arulavadi,Tamil Nadu,11.78335,76.9309
331,Amachawadi,Karnataka,12.30906,76.65303
115,Baghwadi,Karnataka,17.190339,77.03723000000001
369,Kuthpadi,Karnataka,13.31543,74.72849000000001
1368,Channewadi,Karnataka,15.56078,74.58208
324,Mudavadi,Karnataka,12.621602000000001,77.37483
1241,Dharajwadi,Karnataka,18.03841,77.24469
364,Kainthadi,Karnataka,12.770296,75.266888
297,Ananthawadi,Karnataka,14.27899,74.44691
313,Arlikatti Hadi,Karnataka,12.086969999999999,76.32749
314,Kasapadi,Karnataka,14.133161,75.129498
375,Athradi,Karnataka,13.350129999999998,74.82759
587,Dodamangadi,Karnataka,15.93571,75.30165
652,Paded Maradi,Karnataka,15.527714999999999,74.876919
300,Hole Hanasavadi,Karnataka,13.9673,75.62473
1395,Peeranwadi,Karnataka,15.801620000000002,74.47856
338,Koravadi,Karnataka,13.422846,75.331436
299,Malarbanvadi,Karnataka,13.073580999999999,77.379508
247,Bhangawadi,Karnataka,13.262367999999999,78.156348
320,Hosa Kannambadi,Karnataka,12.459541999999999,76.575029
1242,Basawan Wadi,Karnataka,17.96446,77.11908000000001
250,Chikdodvadi,Karnataka,13.368526000000001,77.26452900000001
397,Vakwadi,Karnataka,13.567929999999999,74.71385
336,Thondavadi,Karnataka,11.97146,76.6855
323,Chikka Gangavadi,Karnataka,12.801444,77.18741
332,Belavadi,Karnataka,12.424719999999999,76.68379
41,Belavadi,Karnataka,13.55055,76.64809
651,Belawadi,Karnataka,15.8175,74.85263
342,Bhandigadi,Karnataka,13.53553,75.36591999999999
67,Halekalyadi,Karnataka,13.24054,76.15301
337,Govindavadi,Karnataka,11.959810000000001,76.83015999999999
329,Bendaravadi,Karnataka,12.3821,77.06133
1315,Hubbarwadi,Karnataka,16.49267,74.77493
398,Billadi,Karnataka,13.436420000000002,74.74428
317,Chikka Gangavadi,Karnataka,12.666488000000001,76.734034
302,Gotgadi,Karnataka,14.760473999999999,75.037177
1240,Hallikhed Wadi,Karnataka,17.84715,77.26424
353,Chandakavadi,Karnataka,11.92925,77.00624
355,Totutadi,Karnataka,13.014982,75.414532
312,Chilandvadi,Karnataka,12.364216,77.37513299999999
318,Doddamalalavadi,Karnataka,13.105939999999999,77.00809
339,Dod Maralvadi,Karnataka,12.61042,77.52542199999999
348,Kavudavadi,Karnataka,12.06113,76.98586999999999
1439,Chowki Wadi,Karnataka,17.86682,76.94765
615,Degalmadi,Karnataka,17.49324,77.40809
1291,Doparwadi,Karnataka,18.336858,77.30269
311,Katte Malalawadi,Karnataka,12.353305,76.289714
349,Erasavadi,Karnataka,11.9224,76.93936
976,Gundewadi,Karnataka,16.81816,75.09595
352,Gangavadi,Karnataka,12.00026,77.06653
361,Bareyarutadi,Karnataka,13.040824,75.19380100000001
726,Guddewadi,Karnataka,17.12831,76.44868000000001
298,Mugvekanvadi,Karnataka,14.51709,74.42192
305,Gujamagadi,Karnataka,15.557307999999999,75.67185699999999
333,Suraglkadi,Karnataka,13.319204000000001,75.18950500000001
396,Kundabarandadi,Karnataka,13.70659,74.70924000000001
403,Yedyadi-Mathyadi,Karnataka,13.56649,74.79229000000001
328,Haniyambadi,Karnataka,12.48558,76.90594
470,Kil Nadi,Karnataka,15.61275,75.090175
404,Hattiangadi,Karnataka,13.65045,74.73819
277,Hunasvadi,Karnataka,12.372169,76.034835
251,Sunnavadi,Karnataka,13.61001,77.29245999999999
274,Naladi,Karnataka,12.424000000000001,75.73172
386,Kappadi,Karnataka,13.793485999999998,74.744374
1394,Janewadi,Karnataka,15.796320000000001,74.41695
303,Mundgejadi,Karnataka,14.918771,74.75314
315,Arendur Nadi,Karnataka,14.291407999999999,74.89598000000001
44,Kadlappan Nadi,Karnataka,16.151483,76.213026
278,Kavadi,Karnataka,12.233130000000001,75.83091
1551,Salamwadi,Karnataka,16.067510000000002,74.40434
1438,Dasarwadi,Karnataka,17.755741,76.946306
356,Kulawadi,Karnataka,13.99363,74.55086999999999
359,Nekkiladi,Karnataka,12.74067,75.49798
1445,Mugliwadi,Karnataka,17.890276,76.765795
343,Salgadi,Karnataka,13.64145,75.32966
621,Mustariwadi,Karnataka,17.643076,77.267291
1328,Nanadi,Karnataka,16.51235,74.59125
988,Kallappawadi,Maharashtra,17.404621,76.234362
358,Valpadi,Karnataka,13.112910000000001,75.08091999999999
1344,Sukarwadi,Karnataka,17.60059,76.62668000000001
269,Sulluvadi,Karnataka,11.983996000000001,77.479562
1331,Payappachiwadi,Maharashtra,16.89247,74.79944
264,Lukkadi,Kerala,10.756235,76.436911
45,Padappadi,Kerala,9.561574,76.81156899999999
261,Chappanangadi,Kerala,10.999047000000001,76.05772900000001
284,Karyambadi,Kerala,11.6765376,76.1350387
287,Kullippadi,Kerala,11.645807000000001,76.332177
273,Moodadi,Kerala,11.51432,75.62066
272,Puthuppadi,Kerala,11.40986,75.93603
698,Telar Nadi,Madhya Pradesh,22.079985,74.941769
723,Golwadi,Madhya Pradesh,21.7996,75.29265
1096,Ogai Nadi,Madhya Pradesh,21.413522,75.206864
648,Rojadi,Madhya Pradesh,22.72325,75.69121
570,Chhoch Nadi,Madhya Pradesh,24.931282999999997,77.606938
399,Badgadi,Madhya Pradesh,24.370179999999998,80.55723
821,Basadi,Madhya Pradesh,23.826829999999998,80.61929
826,Sohar Nadi,Madhya Pradesh,23.62888,80.026677
1040,Ambadi,Madhya Pradesh,21.6155,78.86865
585,Burhiyanadi,Madhya Pradesh,26.466766999999997,78.835736
1102,Chiriyapani Nadi,Madhya Pradesh,21.462552,76.37736
956,Singanwadi,Madhya Pradesh,21.86818,77.92213000000001
955,Mahendrawadi,Madhya Pradesh,22.10131,78.02944000000001
948,Bodri Nadi,Madhya Pradesh,22.016658,78.944765
836,Bhimpur Nadi,Madhya Pradesh,21.914958,77.542221
1003,Gomathi Nadi,Madhya Pradesh,22.182778,75.824169
935,Badi,Madhya Pradesh,21.69884,75.55813
747,Chamarsil Nadi,Madhya Pradesh,23.111643,77.969325
699,Baghnadi,Madhya Pradesh,21.50236,80.53827
605,Sudi Badi,Madhya Pradesh,22.51024,74.67813000000001
455,Kuriya Nadi,Madhya Pradesh,24.182319,81.241577
938,Bhainsahi Nadi,Madhya Pradesh,22.017391,78.246105
292,Kharawadi,Madhya Pradesh,23.78712,75.38221
586,Suhagadi,Madhya Pradesh,23.796020000000002,75.80751
458,Shaba Nadi,Madhya Pradesh,24.505567000000003,81.309955
614,Barahi Nadi,Madhya Pradesh,25.539533,77.841764
561,Kalapani Nadi,Madhya Pradesh,24.452417,77.688479
822,Buriana Nadi,Madhya Pradesh,23.91091,79.992552
265,Kumharwadi,Madhya Pradesh,23.394289999999998,75.31311
576,Bayadi,Madhya Pradesh,23.29513,74.8805
293,Battisadi,Madhya Pradesh,24.43986,75.25384
640,Ninawad Nadi,Madhya Pradesh,23.372524,76.212906
641,Baleti Nadi,Madhya Pradesh,23.294234,76.66606800000001
607,Bawadi,Madhya Pradesh,22.99706,74.37576999999999
606,Haribai Ki Bawadi,Madhya Pradesh,22.75764,74.59593000000001
569,Uchawadi,Rajasthan,24.358970000000003,76.53954
639,Kabadi,Madhya Pradesh,23.1376,76.0213
733,Sawasadi,Madhya Pradesh,22.529410000000002,76.94753
537,Ajnal Nadi,Madhya Pradesh,23.19555,76.89409599999999
954,Kavte Nadi,Madhya Pradesh,21.800829,75.930892
926,Khapar Nadi,Madhya Pradesh,22.010215,78.456743
563,Myapur Alias Dhanwadi,Madhya Pradesh,24.64643,77.3109
368,Daropadi Nadi,Madhya Pradesh,25.000047,80.39257099999999
584,Vaisali Nadi,Madhya Pradesh,26.429445,78.499724
957,Bija Nadi,Madhya Pradesh,22.378281,78.462461
618,Tapka Nadi,Uttar Pradesh,25.169493,79.312797
1041,Othipend Nadi,Madhya Pradesh,21.599092000000002,78.711476
717,Chikalkuwa Badi,Madhya Pradesh,21.83778,74.76164
672,Tekadi,Madhya Pradesh,21.94274,79.99065
565,Chilawadi,Madhya Pradesh,24.078039999999998,76.37236
596,Bagaru Nadi,Madhya Pradesh,23.937348999999998,78.266362
459,Mahan Nadi,Madhya Pradesh,24.276212,81.464405
497,Dadi,Madhya Pradesh,24.76701,81.79205999999999
451,Narhai Nadi,Madhya Pradesh,24.452182999999998,81.845326
718,Kot Kiradi,Madhya Pradesh,21.599870000000003,75.29092
296,Nal Khadi,Rajasthan,24.39715,75.81042
379,Dobra Nadi,Madhya Pradesh,25.799246,76.71386600000001
590,Fata Badi,Madhya Pradesh,22.49169,74.35433
953,Limwadi,Madhya Pradesh,21.74965,75.7781
928,Jaharkol Nadi,Madhya Pradesh,22.390501999999998,78.987796
712,Khamra Nadi,Madhya Pradesh,22.103113,79.392989
679,Tekadi,Madhya Pradesh,21.82731,79.87953
1011,Jakhawadi,Madhya Pradesh,21.80394,79.00605999999999
906,Baldi Nadi,Madhya Pradesh,21.908701,76.539137
959,Harambadi,Madhya Pradesh,22.52195,76.20257
968,Sukhi Nadi,Madhya Pradesh,22.274514,77.888499
902,Abna Nadi,Madhya Pradesh,21.722972,76.178675
737,Sip Nadi,Madhya Pradesh,22.579392000000002,77.183725
746,Guwadi,Madhya Pradesh,22.63583,77.47518000000001
967,Guwadi,Madhya Pradesh,22.46249,75.82132
635,Kakli Nadi,Madhya Pradesh,24.026528,79.730078
766,Itawadi,Madhya Pradesh,22.23048,75.57845999999999
572,Kulhadi,Madhya Pradesh,25.07441,77.59515
983,Bayphalya Nadi,Madhya Pradesh,22.222127,76.247586
513,Hariya Nadi,Madhya Pradesh,24.158572,82.296325
1010,Kaparbel Nadi,Madhya Pradesh,22.422674,76.007705
839,Rajakachhara Nadi,Madhya Pradesh,22.790967000000002,80.283085
591,Nagda Nadi,Madhya Pradesh,25.117637,78.247579
719,Bara Nadi,Madhya Pradesh,23.357967000000002,79.104862
936,Ambapani Nadi,Madhya Pradesh,22.720991,76.235218
711,Gadheri Nadi,Madhya Pradesh,23.792016,79.144038
538,Khadi,Madhya Pradesh,23.01339,76.7241
982,Goraghat Nadi,Madhya Pradesh,22.43855,76.462735
834,Mohadi,Madhya Pradesh,21.62267,80.07137
816,Kholadi,Madhya Pradesh,23.0005,81.76663
729,Ajnal Nadi,Madhya Pradesh,22.383628,76.832932
754,Dhamni Nadi,Madhya Pradesh,22.996543,78.837086
753,Bagla Nadi,Madhya Pradesh,23.042603,78.732126
927,Mainawadi,Madhya Pradesh,22.244970000000002,78.77042
765,Thawariya Nadi,Madhya Pradesh,21.722655,78.314299
722,Jamniavadi,Madhya Pradesh,21.866868,75.120591
947,Damchari Nadi,Madhya Pradesh,22.119498,79.138328
757,Dhoria Nadi,Madhya Pradesh,21.609548,79.73066700000001
1000,Bakur Nadi,Madhya Pradesh,22.162739000000002,76.050241
915,Ashamati Nadi,Madhya Pradesh,22.806179,76.04996700000001
738,Begam Nadi,Madhya Pradesh,23.13683,78.404794
558,Patyar Nadi,Madhya Pradesh,26.353309999999997,77.999875
694,Pahadi,Madhya Pradesh,22.584220000000002,79.61586
574,Rajghat Nadi,Rajasthan,25.277263,77.343701
638,Utawali Nadi,Madhya Pradesh,23.519902,76.435482
449,Mandha Nadi,Madhya Pradesh,25.037816,81.624434
564,Dudhi Nadi,Madhya Pradesh,23.656064999999998,78.35006
793,Belha Nadi,Madhya Pradesh,23.337034,80.808867
624,Dabri Nadi,Madhya Pradesh,25.630470000000003,78.258409
732,Sue Nadi,Madhya Pradesh,23.550117999999998,77.915323
937,Sendla Nadi,Madhya Pradesh,22.859116,76.34046500000001
736,Gunjari Nadi,Madhya Pradesh,22.768660999999998,77.713262
571,Suri Nadi,Madhya Pradesh,25.718251000000002,77.52131
739,Jugia Nadi,Madhya Pradesh,23.054174,79.424778
567,Gaumukh Nadi,Madhya Pradesh,24.294891,77.116523
592,Lakhoria Nadi,Madhya Pradesh,24.938966,78.255338
1567,Yeradwadi,Maharashtra,17.34052,73.98929
1363,Abhalwadi,Maharashtra,19.27796,74.2039
1464,Kamatwadi,Maharashtra,18.16617,74.16793
1220,Borgaonwadi,Maharashtra,20.3536,75.50024
1321,Mundhekarwadi,Maharashtra,18.54877,74.62550999999999
1317,Bolewadi,Maharashtra,17.02713,73.42057
1014,Bandwadi,Maharashtra,18.04188,73.15144000000001
1509,Dungalwadi,Maharashtra,18.708026999999998,77.33864
1461,Rudrawadi,Maharashtra,18.56772,76.98755
1343,Adsulwadi,Maharashtra,18.60078,75.92644
1261,Bhatwadi,Maharashtra,19.83892,73.99409
1257,Shigawanwadi,Maharashtra,17.40425,73.31466
1482,Bajarwadi,Maharashtra,16.63413,73.38528000000001
1222,Kankarwadi,Maharashtra,19.92115,76.75555
1357,Kanharwadi,Maharashtra,17.514329999999998,74.63251
1326,Burange Wadi,Maharashtra,17.36961,75.19654
1583,Agudewadi,Maharashtra,17.6578,74.02514000000001
1350,Morwadi,Maharashtra,19.36346,73.96685
1233,Ainapurwadi,Maharashtra,18.23706,75.53434
1517,Ainwadi,Maharashtra,16.887420000000002,73.89617
1377,Posewadi,Maharashtra,17.25365,74.69336
1585,Maskarwadi,Maharashtra,17.14211,74.02467
1398,Bahirwadi,Maharashtra,18.93178,73.87885
693,Vakadi,Maharashtra,18.99821,73.12315
1296,Hajipurwadi,Maharashtra,20.05351,74.90811
882,Kadatvadi,Maharashtra,20.921262,77.016841
762,Osarwadi,Maharashtra,19.90341,72.71755
1469,Alhanwadi,Maharashtra,19.17694,75.17458
1308,Rojagiribawachiwadi,Maharashtra,17.839442000000002,76.27561800000001
842,Desmukhvadi,Maharashtra,20.510697,74.831089
828,Amadi,Maharashtra,20.2346,79.01274000000001
1479,Amalewadi,Maharashtra,17.64563,74.30346999999999
1520,Godambewadi,Maharashtra,18.56108,73.68125
950,Ambadi,Maharashtra,21.12795,79.67443
852,Ambadi,Maharashtra,20.84321,79.76106
916,Dhoriaporia Nadi,Maharashtra,21.063965,79.305555
1268,Dhamandari Nadi,Maharashtra,19.685725,78.161916
1225,Borgalwadi,Maharashtra,19.72638,76.60231
1471,Ambarwadi,Maharashtra,18.0398,74.01529000000001
1277,Indalkarwadi,Maharashtra,19.84802,75.89395
1466,Kasewadi,Maharashtra,18.85199,75.24365
1499,Janyachiwadi,Maharashtra,18.96195,75.45052
1265,Ambewadi,Maharashtra,20.116020000000002,75.94126999999999
1507,Rajaputwadi,Maharashtra,16.73459,74.19118
1307,Ambewadi,Maharashtra,19.69736,73.63433
1314,Vitthalwadi,Maharashtra,18.120520000000003,76.18091
1015,Jadhavwadi,Maharashtra,18.38338,73.13071
1582,Mankarwadi,Maharashtra,17.05505,74.07764
1388,Pujarwadi,Maharashtra,17.43536,74.96766
1541,Limachiwadi,Maharashtra,17.52186,74.11324
1543,Jangal Wadi,Maharashtra,17.50018,73.97421999999999
1239,Rajobawadi,Maharashtra,17.127370000000003,75.44664
1299,Amdariwadi,Maharashtra,19.25982,77.6212
1058,Untwadi,Maharashtra,17.01979,75.26801
1440,Shindewadi,Maharashtra,19.05633,76.20640999999999
1079,Morshevadi,Maharashtra,20.81954,74.6978
1412,Jalkewadi,Maharashtra,18.5406,75.11417
929,Nagarwadi,Maharashtra,21.357210000000002,77.76411999999999
1418,Anandwadi,Maharashtra,19.167839999999998,75.5436
1429,Chakurwadi,Maharashtra,18.771710000000002,75.80621
1431,Jotwadi,Maharashtra,18.12975,76.74882
1475,Limbalwadi,Maharashtra,18.427210000000002,76.81185
1415,Anandwadi,Maharashtra,18.18854,76.87509
1378,Lalbajiwadi,Maharashtra,18.281609,76.977238
1448,Birobachiwadi,Maharashtra,18.54985,75.5005
1346,Sakharewadi,Maharashtra,19.19267,76.60399
1528,Anandwadi,Maharashtra,18.7578,76.73736
1522,Anandwadi,Maharashtra,18.94464,76.8717
1027,Ranawadi,Maharashtra,21.084183,78.20089200000001
1270,Gaulawadi,Maharashtra,19.854945999999998,77.827777
1481,Madanapurwadi,Maharashtra,17.80452,74.19999
1135,Henkalwadi,Maharashtra,21.03983,74.8775
1300,Kotgyalwadi,Maharashtra,18.49221,77.45929
1419,Andhale Wadi,Maharashtra,18.808120000000002,75.16609
1451,Nafarwadi,Maharashtra,18.77521,75.49781999999999
1263,Bukanwadi,Maharashtra,19.72169,77.15177
1576,Andharwadi,Maharashtra,17.38609,74.0798
1573,Duduskarwadi,Maharashtra,17.793210000000002,73.94001
1056,Palkarwadi,Maharashtra,16.20216,73.49409
1262,Gangalwadi,Maharashtra,19.5303,77.03372
1495,Anjanwadi,Maharashtra,19.01069,76.99475
1545,Sidhanathwadi,Maharashtra,17.948320000000002,73.88085
1487,Anpatwadi,Maharashtra,17.80004,74.27465
1574,Ghadgewadi,Maharashtra,17.90745,74.0956
1282,Danavalewadi,Maharashtra,17.81465,74.62974
1386,Anugdewadi,Maharashtra,17.05144,74.46202
1390,Aoutewadi,Maharashtra,17.39475,74.98794000000001
1578,Kholvadi,Maharashtra,17.82641,74.04365
1521,Shikarwadi,Maharashtra,18.949042000000002,76.72968399999999
1523,Donwadi,Maharashtra,16.61713,74.06965
1370,Kadamwadi,Maharashtra,17.15079,74.97447
1557,Delewadi,Maharashtra,17.29381,74.05691999999999
1575,Sabalewadi,Maharashtra,17.71535,73.93415
1594,Kandewadi,Maharashtra,16.03205,74.30851
1397,Kohinkarwadi,Maharashtra,18.88711,73.8782
925,Javi Nadi,Maharashtra,20.381753,75.782101
1095,Dhanvadi,Maharashtra,21.197845,75.316186
1245,Lokhandewadi,Maharashtra,20.20375,73.89272
1485,Gujar Nimbalkarwadi,Maharashtra,18.4233,73.87725
1531,Karnavadi,Maharashtra,18.303739999999998,73.75751
1288,Jatalwadi,Maharashtra,19.75542,77.30694
1457,Ramwadi,Maharashtra,18.58867,76.74715
1553,Asvalwadi,Maharashtra,16.98014,74.04973000000001
1524,Walavekarwadi,Maharashtra,16.744320000000002,74.02404
1231,Chapalgaonwadi,Maharashtra,17.607020000000002,76.17661
1216,Tandulwadi,Maharashtra,19.65113,75.22553
1428,Autewadi,Maharashtra,18.3682,74.8662
1351,Bahirwadi,Maharashtra,19.20593,74.85878000000001
1364,Ganganathwadi,Maharashtra,19.09913,75.87099
1248,Babhulwadi,Maharashtra,20.29635,74.72407
1478,Sherewadi,Maharashtra,19.05988,75.35316
1516,Vekhandwadi,Maharashtra,16.82649,74.08474
1579,Badewadi,Maharashtra,17.7493,74.12767
1324,Jadhavwadi,Maharashtra,18.79403,73.74056
1536,Bahirewadi,Maharashtra,16.27582,74.31201
1339,Bagadwadi,Maharashtra,19.32174,73.81378000000001
1444,Wadachiwadi,Maharashtra,18.58221,75.57228
1359,Mokashawadi,Maharashtra,17.22472,75.15423
1353,Haldahivadi,Maharashtra,17.565279999999998,75.1839
1496,Musalmanwadi,Maharashtra,16.70315,73.64907
1338,Bijvadi,Maharashtra,17.88995,75.00419000000001
1168,Palkarwadi,Maharashtra,15.929620000000002,73.6787
977,Bagwadi,Maharashtra,20.289360000000002,77.81688
1387,Farnewadi,Maharashtra,16.9058,74.35309000000001
1266,Renwadi,Maharashtra,19.159000000000002,74.39163
1421,Netakewadi,Maharashtra,18.55043,75.00908000000001
1232,Bairagwadi,Maharashtra,17.9254,75.37340999999999
1472,Kurnewadi,Maharashtra,18.1045,74.45781
1271,Jogeshwarwadi,Maharashtra,19.6452,75.658
1534,Balakavadi,Maharashtra,17.950779999999998,73.70734
1546,Dhavadi,Maharashtra,18.02753,73.85438
1273,Pangarwadi,Maharashtra,19.763051,77.63117199999999
1423,Dhangarwadi,Maharashtra,18.94024,74.9423
1376,Dhavadwadi,Maharashtra,17.31768,74.78142
1463,Rajewadi,Maharashtra,18.62511,75.25801
1303,Balpeerwadi,Maharashtra,18.1853,76.04073000000001
1465,Karadwadi,Maharashtra,18.08809,74.14593
1332,Balvadi,Maharashtra,18.230710000000002,73.62335
1391,Chopadi,Maharashtra,17.349429999999998,75.01518
1136,Singadi,Maharashtra,21.132375,76.001072
1305,Balwantwadi,Maharashtra,19.69511,73.56215
1591,Padekarwadi,Maharashtra,17.207279999999997,74.0077
1561,Pachupatewadi,Maharashtra,17.23208,74.06023
1405,Mankarwadi,Maharashtra,18.084020000000002,74.72919
1306,Bambalewadi,Maharashtra,19.69337,73.76416
1532,Gudalwadi,Maharashtra,16.451810000000002,74.04099000000001
1572,Bandakerwadi,Maharashtra,17.18919,74.07783
1348,Gosaviwadi,Maharashtra,18.19275,74.83686999999999
1526,Wagajwadi,Maharashtra,18.241989999999998,73.96833000000001
1453,Jamdarwadi,Maharashtra,16.50909,73.79982
475,Bangadi,Maharashtra,19.41402,80.59101
1312,Dudhalwadi,Maharashtra,18.40328,75.85089
1355,Gulewadi,Maharashtra,17.46465,74.71954000000001
1223,Bhaliwadi,Maharashtra,18.97178,73.39707
1571,Jyotibachiwadi,Maharashtra,17.36761,73.84739
1433,Pimpalwadi,Maharashtra,18.49711,74.88282
761,Dhundalwadi,Maharashtra,20.06179,72.90043
1341,Sundarwadi,Maharashtra,17.829539999999998,76.46468
1494,Baragwadi,Maharashtra,18.96912,75.54115999999999
1313,Thodsarwadi,Maharashtra,18.360039999999998,76.10805
1335,Baravwadi,Maharashtra,19.48573,73.83691999999999
1425,Paingalgira Nadi,Maharashtra,19.146359,77.00712800000001
750,Nalvadi,Maharashtra,20.75741,78.622152
812,Nand Nadi,Maharashtra,20.730339999999998,78.95329699999999
1548,Khaparewadi,Maharashtra,16.3146,74.14220999999999
1361,Bassappawadi,Maharashtra,17.01013,74.89398
1310,Sardawadi,Maharashtra,17.924671,76.111687
1473,Batewadi,Maharashtra,18.72552,75.33039000000001
857,Begadi,Maharashtra,20.268179999999997,80.30588
1329,Dhangarwadi,Maharashtra,19.3573,74.80396
1515,Sadgirwadi,Maharashtra,18.82903,76.87071999999999
1279,Londhewadi,Maharashtra,20.02456,75.68753000000001
1559,Bendwadi,Maharashtra,17.58833,73.93767
1434,Kangudwadi,Maharashtra,18.45758,74.97663
1476,Doblewadi,Maharashtra,18.266737,76.79804399999999
1403,Dimakhwadi,Maharashtra,19.161939999999998,75.67248000000001
1565,Khoratwadi,Maharashtra,16.16515,74.27216999999999
1514,Indapwadi,Maharashtra,18.84695,76.50429
1414,Chirewadi,Maharashtra,17.96865,76.65311
1519,Khadakwadi,Maharashtra,18.41755,73.73521
1542,Bhagatwadi,Maharashtra,17.46244,74.01677
1422,Pomalvadi,Maharashtra,18.282905,74.93158100000001
1236,Galandawadi,Maharashtra,17.9539,75.60327
1274,Gotewadi,Maharashtra,17.11355,74.63221
1540,Bobadewadi,Maharashtra,17.69043,74.14135999999999
1529,Bhalekarwadi,Maharashtra,16.196270000000002,74.04858
949,Bahram ka Sand Nadi,Maharashtra,21.250582,77.54822800000001
1435,Gosaviwadi,Maharashtra,18.43652,75.34467
1309,Kacharewadi,Maharashtra,17.50619,75.43996
681,Pimpalwadi,Maharashtra,20.37339,77.01926
1283,Kol Nadi,Maharashtra,20.247885999999998,75.025213
1235,Bhambewadi,Maharashtra,17.81931,75.70979
1508,Patharwadi,Maharashtra,18.59852,76.62243000000001
1053,Nakhatewadi,Maharashtra,19.36579,77.98629
1437,Khurdwadi,Maharashtra,18.25883,76.67692
1065,Pandharewadi,Maharashtra,18.84202,74.66635
1221,Bharadi,Maharashtra,20.84368,75.66019
1417,Bharajwadi,Maharashtra,19.16255,75.43575
1592,Bharewadi,Maharashtra,17.16755,73.96198000000001
1380,Ghorpadwadi,Maharashtra,18.03671,74.87044
1554,Chinchewadi,Maharashtra,17.10473,73.9583
1362,Navalewadi,Maharashtra,19.21349,74.0832
1401,Naykalwadi,Maharashtra,17.04825,74.22235
1340,Dokewadi,Maharashtra,18.65259,74.78898000000001
744,Garadwadi,Maharashtra,19.911479999999997,73.17716999999999
1290,Lahanyachiwadi,Maharashtra,20.13683,75.45508000000001
1264,Narutwadi,Maharashtra,18.15287,75.01341
1420,Bhawarwadi,Maharashtra,18.89869,75.15481
1258,Bhelsai Budhawadi,Maharashtra,17.61058,73.53093
1588,Sabalewadi,Maharashtra,17.27,73.97336999999999
1066,Galmari Nadi,Maharashtra,20.941468,76.311226
1459,Tekavadi,Maharashtra,18.34703,74.03541
1436,Wharkarwadi,Maharashtra,18.91827,76.18079
1336,Ghodsarwadi,Maharashtra,19.511689999999998,73.90204
1454,Kolhewadi,Maharashtra,18.9805,75.07503
1556,Bhojuchiwadi,Maharashtra,18.87332,77.18649
1455,Chandgude Wadi,Maharashtra,18.32265,74.35961999999999
1385,Gadewadi,Maharashtra,18.971429999999998,73.98581
1334,Delvadi,Maharashtra,18.555329999999998,74.32478
1004,Tamaswadi,Maharashtra,21.2922,79.14013
1287,Bhurkyachiwadi,Maharashtra,19.504070000000002,77.39253000000001
1230,Bhusakvadi,Maharashtra,19.613310000000002,76.68433
1017,Bihadi,Maharashtra,21.20128,78.43105
1212,Salugalu Nadi,Maharashtra,20.859687,75.479229
1358,Kadachiwadi,Maharashtra,18.746920000000003,73.88018000000001
1468,Birangalwadi,Maharashtra,19.0871,75.14626
1322,Birdevwadi,Maharashtra,16.77639,74.37408
1275,Kanasewadi,Maharashtra,19.45267,74.43771
1252,Kamble Tarf Birwadi,Maharashtra,18.11453,73.48177
703,Pingalwadi,Maharashtra,19.56022,73.48250999999999
1411,Bitkewadi,Maharashtra,18.644470000000002,74.89453
1443,Gaurwadi,Maharashtra,18.826710000000002,75.97098000000001
1500,Bodhewadi,Maharashtra,17.86101,74.22457
1566,Bolakewadi,Maharashtra,16.11495,74.22801
1360,Bomalewadi,Maharashtra,16.46131,73.5246
961,Bondewadi,Maharashtra,20.99302,77.61909
1022,Damayanti Nadi,Maharashtra,21.340132,78.020099
1558,Boragewadi,Maharashtra,17.43873,73.90198000000001
1460,Mirwadi,Maharashtra,18.576539999999998,74.19632
1272,Borgadi,Maharashtra,19.878610000000002,77.57555
804,Dahalewadi,Maharashtra,19.89685,73.45506999999999
646,Vitthalwadi,Maharashtra,18.78686,73.0148
1442,Nirmalwadi,Maharashtra,18.93706,75.86036999999999
1467,Pirewadi,Maharashtra,19.07761,75.18432
1409,Silwantwadi,Maharashtra,17.968213000000002,76.851676
809,Rani Nadi,Maharashtra,20.974857,80.244553
1286,Jafarabadvadi,Maharashtra,20.032318,75.291359
1325,Brahman Wadi,Maharashtra,18.74521,73.62155
1229,Mandwawadi,Maharashtra,19.639098999999998,76.792069
1550,Nawandhyachiwadi,Maharashtra,18.81128,77.2703
1513,Paradhwadi,Maharashtra,18.89291,76.60384
1224,Chafewadi,Maharashtra,19.095029999999998,73.47221
830,Pakluk Nadi,Maharashtra,19.664009,79.627161
1295,Chambharwadi,Maharashtra,20.03347,75.10082
1396,Sherechiwadi,Maharashtra,17.95425,74.19
1215,Pimpalwadi,Maharashtra,19.521060000000002,75.37616
1512,Nawabwadi,Maharashtra,18.70825,76.54028000000001
846,Sonwadi,Maharashtra,21.1157,76.82403000000001
1416,Rajewadi,Maharashtra,18.08379,76.87665
917,Nag Nadi,Maharashtra,21.094112,79.464713
1228,Naigaonwadi,Maharashtra,18.84112,77.52808
1477,Magarwadi,Maharashtra,18.13531,74.28305999999999
1452,Chaudharwadi,Maharashtra,16.61656,73.90155
1367,Chaudharwadi,Maharashtra,18.884120000000003,74.02161
1289,Muftabadvadi,Maharashtra,20.03903,75.391373
1337,Chaundeshwarwadi,Maharashtra,17.88032,75.02614
1301,Chavanwadi,Maharashtra,18.38736,77.45351
1503,Krushnawadi,Maharashtra,18.56032,77.33078
1318,Ghodnadi,Maharashtra,18.827605,74.374746
1570,Chawaliwadi,Maharashtra,17.35081,73.87853
996,Nagshewadi,Maharashtra,20.51776,73.69298
1590,Manyachiwadi,Maharashtra,17.23493,73.99741
1402,Jambhalewadi,Maharashtra,16.95392,74.17317
1510,Chinchalwadi,Maharashtra,18.6235,77.4195
837,Chirchadi,Maharashtra,20.621570000000002,80.20931999999999
1194,Cholkewadi,Maharashtra,19.695420000000002,74.53997
1441,Chopanwadi,Maharashtra,19.16038,76.20772
1349,Mothewadi,Maharashtra,19.20284,76.31975
1584,Pogarwadi,Maharashtra,17.64315,73.95196999999999
1284,Jamkhora Nadi,Maharashtra,20.20496,75.229433
772,Dhardar Nadi,Maharashtra,20.541653,74.460629
1243,Bopalpend Nadi,Maharashtra,20.123062,77.384687
1501,Gandhanwadi,Maharashtra,18.96423,75.28399999999999
1084,Malevadi,Maharashtra,21.24614,75.602333
1304,Dagadwadi,Maharashtra,19.66365,73.88721
1427,Joharwadi,Maharashtra,19.1748,75.00161
1285,Newarwadi,Maharashtra,19.49871,77.65544
1246,Pimparwadi,Maharashtra,19.835539999999998,74.26948
1369,Lokarewadi,Maharashtra,17.119239999999998,74.82413000000001
1505,Zadakbaichiwadi,Maharashtra,17.89471,74.354
1356,Manetupewadi,Maharashtra,17.53967,74.52438000000001
1410,Sawantwadi,Maharashtra,18.21213,74.56585
1544,Shindewadi,Maharashtra,17.91396,73.79539
1488,Morewadi,Maharashtra,18.7186,76.37013
1371,Gundalwadi,Maharashtra,18.98959,73.78631
1547,Vinayakwadi,Maharashtra,16.11174,74.13588
1489,Shepwadi,Maharashtra,18.73749,76.42005
1016,Jolwadi,Maharashtra,21.35179,78.46375
1483,Harichiwadi,Maharashtra,16.56775,73.48210999999999
725,Delanwadi,Maharashtra,20.29195,79.66029
930,Delanwadi,Maharashtra,20.46804,79.98518
1012,Delwadi,Maharashtra,21.2933,78.56729
1021,Dilwadi,Maharashtra,21.245485000000002,78.09253100000001
867,Jogi Nadi,Maharashtra,20.004329000000002,80.454165
1255,Gavhadi,Maharashtra,17.95664,73.40445
1297,Dhanyachi Wadi,Maharashtra,19.36214,77.5241
1400,Hanmantwadi,Maharashtra,18.00481,74.6607
978,Dolambawadi,Maharashtra,20.05969,77.88202
940,Murmadi,Maharashtra,21.07125,79.82154
951,Bodalkasa Nadi,Maharashtra,21.357872,79.80117800000001
1001,Jam Nadi,Maharashtra,21.331927,78.20642600000001
1470,Dhaitadakwadi,Maharashtra,19.17565,75.21946
1502,Dhakanwadi,Maharashtra,18.99636,75.31326999999999
1446,Hippargawadi,Maharashtra,17.796074,76.76321999999999
1249,Ambilvadi,Maharashtra,20.171351,74.430701
1577,Hanumantwadi,Maharashtra,17.39266,74.10486
1197,Tandulwadi,Maharashtra,19.925079999999998,76.17063
1484,Rokadewadi,Maharashtra,19.04124,76.85826
1352,Shenawadi,Maharashtra,17.43925,74.41071
881,Karatwadi,Maharashtra,21.05155,77.09174
1379,Dhangarwadi,Maharashtra,18.267039999999998,76.90833
680,Dharamvadi,Maharashtra,20.375331,77.126209
748,Jallu Nadi,Maharashtra,20.685755,77.787319
1511,Pale Nadi,Maharashtra,15.794342000000002,74.271793
1596,Gaulwadi,Maharashtra,15.92389,74.33194
1330,Jambhulwadi,Maharashtra,19.595670000000002,74.19426999999999
1316,Musalmanwadi,Maharashtra,16.909879999999998,73.31871
1393,Dhorewadi,Maharashtra,18.834,73.90576
1518,Dhuilwadi,Maharashtra,17.45068,73.82942
1599,Tambulvadi,Maharashtra,15.928424,74.29339399999999
1254,Diwalewadi,Maharashtra,17.71584,73.35897
1480,Kharadewadi,Maharashtra,18.04492,74.32082
1333,Dombalwadi,Maharashtra,17.81399,74.94315999999999
1527,Mendwadi,Maharashtra,18.765435999999998,76.575632
1450,Dubbathadi,Maharashtra,19.296784,76.12736899999999
1552,Dugunwadi,Maharashtra,16.12296,74.40326999999999
849,Pimparadwadi,Maharashtra,19.807000000000002,78.88958000000001
1568,Nalavadewadi,Maharashtra,17.498639999999998,74.14612
1373,Echakewadi,Maharashtra,18.91005,74.15135
1486,Kansewadi,Maharashtra,17.75601,74.32025
1506,Jadhavwadi,Maharashtra,17.97237,74.43348
1432,Fattewadi,Maharashtra,17.96581,76.75629
1260,Fulemalwadi,Maharashtra,20.51425,74.19575999999999
1251,Thokalvadi,Maharashtra,20.102779,74.19608199999999
1374,Mudhewadi,Maharashtra,17.456329999999998,74.85113
1214,Pimpalwadi,Maharashtra,19.7728,75.09661
1491,Ganeshwadi,Maharashtra,17.51752,74.32309000000001
1104,Murzadi,Maharashtra,20.22007,78.2252
1399,Gangawadi,Maharashtra,19.34173,75.66545
1311,Jalkotwadi,Maharashtra,17.86859,75.9115
1490,Malavadi,Maharashtra,17.76016,74.44868000000001
1389,Garavadi,Maharashtra,17.562520000000003,74.42919
1413,Kaprewadi,Maharashtra,18.88488,76.30319
1234,Tawadi,Maharashtra,18.2335,75.69436
1237,Wadachiwadi,Maharashtra,18.0715,75.46516
1383,Pinglewadi Landewadi,Maharashtra,19.01559,73.88464
835,Shinganvadi,Maharashtra,20.875697,77.366297
1250,Dukharakhedevadi,Maharashtra,20.303157000000002,74.542872
1535,Fakindarawadi,Maharashtra,18.792842,77.216741
1504,Vangantarvadi,Maharashtra,15.754101,74.050459
1533,Wagdarwadi,Maharashtra,18.87298,77.05935
1595,Ghullewadi,Maharashtra,15.97964,74.3544
1323,Satephalwadi,Maharashtra,18.636207000000002,76.027913
610,Gondmohadi,Maharashtra,20.497629999999997,79.3763
1298,Patharwadi,Maharashtra,19.14914,77.50349
1320,Gopalwadi,Maharashtra,18.433510000000002,74.56369000000001
1424,Gorewadi,Maharashtra,18.407420000000002,75.19788
1426,Rajewadi,Maharashtra,18.14793,76.61373
1406,Govindwadi,Maharashtra,19.25981,75.74494
1408,Jaykowadi,Maharashtra,19.27995,76.19256
1430,Gudalewadi,Maharashtra,18.70561,76.93838000000001
1569,Gujarwadi,Maharashtra,17.53143,74.18008
1562,Kocharewadi,Maharashtra,17.399620000000002,73.94539
1492,Guravwadi,Maharashtra,16.70204,73.5558
1447,Khandeshwar Wadi,Maharashtra,18.50504,75.44391
1281,Calati Nadi,Maharashtra,20.664193,75.276157
1280,Gadadgad Nadi,Maharashtra,20.48989,75.175438
1404,Hinganewadi,Maharashtra,18.09555,74.68946
735,Nagalwadi,Maharashtra,20.64629,77.62206
709,Rampur Thadi,Maharashtra,18.65062,77.70706
1269,Bhutkapar Nadi,Maharashtra,19.954777,77.42188900000001
1498,Pimpalgaonwadi,Maharashtra,19.032519,77.180267
1600,Humbarwadi,Maharashtra,15.9684,74.31711
1345,Kailaswadi,Maharashtra,19.13567,76.7391
1256,Rajderwadi,Maharashtra,20.38093,74.2087
1354,Tambewadi,Maharashtra,19.11495,74.14502
1456,Wanjarwadi,Maharashtra,18.980970000000003,75.62579000000001
1458,Kolawadi,Maharashtra,18.50347,74.02048
1586,Jadhavwadi,Maharashtra,17.211029999999997,73.94055
877,Jagarwadi,Maharashtra,20.97588,77.20844
673,Jambhrunwadi,Maharashtra,20.19789,77.04673000000001
1342,Markadwadi,Maharashtra,17.9237,74.85163
1097,Kamatwadi,Maharashtra,20.83265,75.13383
1580,Kanadi,Maharashtra,15.9861,74.21446
1462,Kaneriwadi,Maharashtra,16.622970000000002,74.28845
1244,Gaulivadi,Maharashtra,20.381101,74.01573
1292,Tandulwadi,Maharashtra,19.47612,76.65311
749,Punsoda Nadi,Maharashtra,20.636933,78.472965
1549,Kumbharwadi,Maharashtra,16.2366,74.10762
1392,Karadwadi,Maharashtra,17.356370000000002,75.0734
1593,Maskarwadi,Maharashtra,17.15802,73.93456
708,Karewadi,Maharashtra,17.0445,75.64445
1449,Kaudgaon Thadi,Maharashtra,19.27523,76.05339000000001
850,Kawadi,Maharashtra,20.10517,79.11301
1589,Kenchewadi,Maharashtra,15.986379999999999,74.25834
1525,Muslewadi,Maharashtra,18.64153,76.67578
1493,Khalchiwadi,Maharashtra,16.76426,73.49978
1199,Kolwadi,Maharashtra,19.83321,76.28938000000001
843,Khirsadi,Maharashtra,21.39508,79.31719
1259,Kolthivadi,Maharashtra,20.464072,74.215657
893,Kitadi,Maharashtra,20.856189999999998,79.54009
1530,Kurungvadi,Maharashtra,18.27844,73.82758000000001
1375,Koldara Gonawadi,Maharashtra,19.084210000000002,73.8699
1365,Sonewadi,Maharashtra,19.08813,74.85915
1598,Konevadi,Maharashtra,15.921485999999998,74.24073
1005,Pioli Nadi,Maharashtra,21.178238,79.143564
1319,Kalyan Nadi,Maharashtra,19.681851,76.152647
1031,Kukadi,Maharashtra,21.469079999999998,78.52944000000001
1407,Vanjarwadi,Maharashtra,19.20022,75.75798
931,Kathal Nadi,Maharashtra,20.211371,79.993065
742,Kurzadi,Maharashtra,20.77321,78.38716
1581,Madalawadi,Maharashtra,17.04466,74.04544
1347,Mhasobachiwadi,Maharashtra,18.21623,74.70039
1597,Lakudwadi,Maharashtra,15.968210000000001,74.29586
1267,Gondwadsa Nadi,Maharashtra,19.854341,78.078554
1372,Zodagewadi,Maharashtra,18.83343,74.06065
1205,Navidabhadi,Maharashtra,20.855447,75.901054
1247,Unarsi Nadi,Maharashtra,20.002368,74.370363
1474,Malewadi,Maharashtra,18.78141,76.28076
1497,Pahiliwadi,Maharashtra,16.68935,73.62258
1128,Tandalwadi,Maharashtra,21.10825,75.95215
912,Dolar Nadi,Maharashtra,21.448033,76.99161099999999
1384,Menubarwadi,Maharashtra,19.00496,73.94583
668,Paradi,Maharashtra,20.33921,76.59702
1278,Bavla Nadi,Maharashtra,20.63622,75.45886899999999
1587,Pawarwadi,Maharashtra,17.21602,73.96083
1253,Musalwadi,Maharashtra,19.45666,74.68298
1560,Baindevadi,Maharashtra,15.869242000000002,74.20823100000001
832,Bheokund Nadi,Maharashtra,20.121135,79.703547
865,Sebri Nadi,Maharashtra,20.887901,79.224575
806,Nagalwadi,Maharashtra,21.11415,78.96095
1120,Chondhi Nadi,Maharashtra,21.480632,74.95653100000001
773,Valwadi,Maharashtra,20.72036,74.43236999999999
634,Teliya Nadi,Maharashtra,21.664384,79.496423
1207,Mokli Thadi,Maharashtra,18.839476,77.812413
810,Sanpan Nadi,Maharashtra,21.203616,73.98622399999999
1217,Rahere Tarf Wakadi,Maharashtra,20.724220000000003,75.83523000000001
1293,Digraswadi,Maharashtra,19.47515,76.46455300000001
1147,Pan Nadi,Maharashtra,21.146299,74.644859
1179,Dhodi Nadi,Gujarat,21.545542,74.286575
767,Yaranvadi,Maharashtra,20.541504,78.731553
1028,Shindvadi,Maharashtra,20.964608,78.132044
1564,Shindewadi,Maharashtra,15.86079,74.16506
1555,Talyachiwadi,Maharashtra,18.837320000000002,77.16676
1302,Ramnaikwadi,Maharashtra,18.217075,76.43509399999999
1226,Sunasvadi,Maharashtra,20.573007,75.620261
1151,Jamjhira Nadi,Maharashtra,21.37283,74.74249
1137,Hore Nadi,Maharashtra,21.147060999999997,76.073836
1098,Kaneri Nadi,Maharashtra,20.786039000000002,75.04999699999999
1025,Kesar Nadi,Maharashtra,21.383229999999998,78.865363
962,Bondevadi,Maharashtra,20.932095,77.626278
1100,Adabadi,Odisha,19.56227,83.30319
923,Jam Nadi,Odisha,18.584488,82.246818
1113,Gochabadi,Odisha,19.94709,84.74375
974,Ambuabadi,Odisha,19.56164,84.62487
1187,Badaalubadi,Odisha,19.25048,83.45695
1106,Andharbadi,Odisha,20.39988,84.5865
1064,Majiagunda Nadi,Odisha,20.312062,84.459023
789,Kuliari Nadi,Odisha,21.003006,83.411679
799,Anganadi,Odisha,21.026020000000003,83.81035
991,Jor Nadi,Odisha,21.582278,83.52350899999999
1032,Atabadi,Odisha,20.02072,83.67441
1055,Atakabadi,Odisha,19.493779999999997,83.67211999999999
267,Sahadagadi,Odisha,21.74594,86.63974
1173,Atinbadi,Odisha,19.84311,84.04195
1141,B.Kotibadi,Odisha,19.77216,84.39707
1131,Khilladi,Odisha,20.17318,84.74956
1171,Pedda Irukubadi,Odisha,19.064985999999998,83.37258
268,Badakhaladi,Odisha,21.51635,86.52805
946,Haridabadi,Odisha,19.20284,84.59535
263,Badakolipadi,Odisha,20.96019,86.36614
971,Kendubadi,Odisha,19.76677,84.77215
1083,Ringabadi,Odisha,19.141270000000002,83.5891
578,Suktelnadi,Odisha,20.73252,83.67520999999999
1139,Baladi,Odisha,19.93733,84.57937
260,Balaramgadi,Odisha,21.46657,87.0445
1175,Balkigradi,Odisha,20.28655,84.14995
1174,Bambadi,Odisha,20.223979999999997,84.14493
499,Halagadi,Odisha,19.448729999999998,84.22815
1049,Bandangpadi,Odisha,20.45457,83.94949
262,Barapadi,Odisha,21.17287,86.32522
892,Karoda Badi,Odisha,19.60797,85.08247
257,Kharikabadi,Odisha,21.63569,87.36834
1112,Barapadi,Odisha,20.19965,83.91098000000001
1188,Bhramarabadi,Odisha,19.90772,84.12271
667,Jhinkpahadi,Odisha,22.148020000000002,86.57699000000001
1080,Gandagudi Nadi,Odisha,19.326613000000002,83.780649
1132,Gunduribadi,Odisha,20.38387,85.01143
1087,Kainphulia Nadi,Odisha,20.060957000000002,85.162642
1138,Maskabadi,Odisha,20.101023,84.563351
764,Babai Nadi,Jharkhand,22.425667999999998,84.530469
1061,Kachimjuri Nadi,Odisha,21.650157999999998,85.889476
1070,Bodogoria Nadi,Odisha,21.805101999999998,85.499574
879,Bhitarbadi,Odisha,19.04551,82.67591999999999
1092,Dangabasa Nadi,Odisha,20.18911,84.962864
256,Dihamugubadi,Odisha,20.55813,86.39601
1163,Biribadi,Odisha,19.17322,83.4122
688,Amanala Nadi,Odisha,20.796236999999998,82.43933299999999
54,Mahanadi,Odisha,20.47092,85.90706
1050,Joram Nadi,Odisha,21.886737,84.850967
1170,Brundabadi,Odisha,19.50766,83.50561
1063,Sakadi,Odisha,20.48235,84.24185
922,Ambo Nadi,Odisha,21.060431,84.679597
855,Khaladi,Odisha,21.96932,86.07508
934,Bulat Nadi,Odisha,19.939069,83.140253
252,Karadi,Odisha,19.88881,85.81777
1190,Mariketta Nadi,Odisha,20.062586,84.14745699999999
1191,Dakarabadi,Odisha,19.99205,84.08204
1181,Dalabadi,Odisha,19.91204,84.03475
1111,Garaibali Nadi,Odisha,20.154242,84.015479
1078,Jambadi,Odisha,18.93522,83.25751
886,Dandabadi,Odisha,18.69029,82.4896
448,Dangsurpipadi,Odisha,20.3103,83.53315
1042,Jhiki Nadi,Odisha,19.796307000000002,83.458616
1189,Guhibadi,Odisha,19.81973,84.06894
1150,Kankubadi,Odisha,19.45897,83.4507
1177,Deulabadi,Odisha,19.39299,83.30859
1115,Khuntabadi,Odisha,19.38128,83.52611999999999
1039,Dimiribadi,Odisha,20.02665,85.33429
1034,Gogra Nadi,Odisha,21.505203,85.486474
887,Jubbakonnadi,Odisha,18.791831,82.526585
258,Jireigadi,Odisha,21.13018,86.7432
1140,Gindabadi,Odisha,19.85044,84.31201
1045,Ghodagadi,Odisha,20.881429999999998,84.35557
975,Hatibadi,Odisha,19.58292,84.75905999999999
1105,Jarakibadi,Odisha,20.40535,84.63669
1172,Gurusubadi,Odisha,19.052670000000003,83.41982
376,Katijodi Nadi,Chhattisgarh,19.284368,82.000012
1114,Khuntabadi,Odisha,19.409010000000002,83.62807
876,Jambokonnadi,Odisha,18.962057,82.355388
1182,Jhimabadi,Odisha,19.91137,84.0052
1116,Narangabadi,Odisha,19.25658,83.64211
1186,Nolabari Nadi,Odisha,19.286228,83.42213000000001
1146,Kumbharakhadi,Odisha,19.97748,84.27027
1033,Kambadi,Odisha,19.92595,83.60083
1169,Karapadi,Odisha,19.51652,83.50565999999999
695,Mandlipokar Nadi,Odisha,20.1534,82.610529
1126,Patagad Nadi,Odisha,19.130536,83.24431700000001
696,Penkhal Nadi,Odisha,20.434247,82.59798599999999
878,Tethiligad Nadi,Odisha,18.936946,82.780956
875,Malimundagar Nadi,Odisha,18.534341,82.700057
255,Telaghadi,Odisha,20.06215,86.25916
1176,Kisubadi,Odisha,19.890060000000002,84.15224
1026,Gaigira Nadi,Odisha,21.153505,85.223453
970,Sampani Nadi,Odisha,21.301492,84.033687
1167,Lellibadi,Odisha,19.20564,83.27107
1109,Madijori Nadi,Odisha,20.139559,84.35993
1076,Kuaria Nadi,Odisha,20.333370000000002,85.184437
992,Kukur Bhuta Nadi,Odisha,21.629578,83.687795
1054,Bisirang Nadi,Odisha,19.55912,83.79939399999999
1077,Kondasilavadi,Odisha,18.892026,83.37061700000001
827,Jharia Nadi,Odisha,21.712134,84.309152
771,Dongridara Nadi,Odisha,19.281482999999998,83.026712
1178,Tala Uchalwadi,Odisha,19.284654,83.28529499999999
870,Terlo Nadi,Jharkhand,22.452126999999997,85.964492
357,Vadapuram Kilpadi,Tamil Nadu,11.865689999999999,79.75707
95,Jalalia Nadi,Punjab,32.316559999999996,75.419154
580,Kalisot Nadi,Rajasthan,25.044777,76.760063
383,Bansda Nadi,Rajasthan,26.29113,76.26608
92,Ujar Nadi,Rajasthan,25.067038,76.174914
60,Kerli Nadi,Rajasthan,26.11522,71.73718000000001
380,Karisil Nadi,Rajasthan,26.245919,76.605903
58,Kitnor Nadi,Rajasthan,25.23864,71.13445
71,Sabi Nadi,Rajasthan,28.002671999999997,76.666168
55,Guhiya Nadi,Rajasthan,25.904759,72.939387
79,Dewas Nadi,Rajasthan,24.508432,73.498361
9,Chadi,Rajasthan,27.023529999999997,72.9647
59,Khari Nadi,Rajasthan,26.08752,72.31393
56,Chipri Nadi,Rajasthan,25.56874,71.92666
133,Bagri Nadi,Rajasthan,25.964991,73.735731
63,Deri Nadi,Rajasthan,25.73558848,71.47410544
64,Mama Nadi,Rajasthan,25.37735,71.72014
69,Pamadi,Rajasthan,27.01287,76.56898000000001
61,Sagi Nadi,Rajasthan,25.0,71.7
144,Krishnaoti Nadi,Rajasthan,24.99896,72.730068
70,Sukhri Nadi,Rajasthan,27.448940000000004,76.734486
382,Gudla Nadi,Rajasthan,26.17748,76.2566
249,Tewar Nadi,Rajasthan,26.484121000000002,77.230937
39,Pachpadi,Rajasthan,27.255090000000003,76.16396999999999
145,Kankar Nadi,Rajasthan,26.09344,74.50283
62,Kerli Nadi,Rajasthan,25.20589,71.43854
195,Beras Nadi,Rajasthan,24.000479000000002,74.128338
600,Mandali Badi,Rajasthan,23.26689,74.34517
129,Kherwa Nadi,Rajasthan,25.66552,73.404023
26,Shadi,Rajasthan,25.05283,74.60744
93,Balandi Nadi,Rajasthan,25.535985999999998,75.549634
194,Godi Nadi,Rajasthan,24.353912,73.996277
427,Aarikilapadi,Tamil Nadu,13.024460000000001,79.68242
464,Achalvadi,Tamil Nadu,11.99188,78.48881
335,Solappadi,Tamil Nadu,12.153473,78.03955400000001
405,Vilakkappadi,Tamil Nadu,11.456313,79.46980500000001
468,Periyavadavadi,Tamil Nadu,11.57768,79.31208000000001
469,Poolambadi,Tamil Nadu,11.49262,79.14198
406,Karappadi,Tamil Nadu,11.421716,79.70709599999999
463,Kilchengampadi,Tamil Nadu,12.09858,78.6405
306,Pungambadi,Tamil Nadu,10.81323,77.94353000000001
391,Alambadi,Tamil Nadu,10.90109,79.00009
447,Alampadi,Tamil Nadu,12.00501,79.29523
413,Panangadi,Tamil Nadu,10.63215,79.71985
236,Anuppanadi,Tamil Nadu,9.903958,78.143261
493,Melravandavadi,Tamil Nadu,12.20598,78.70432
373,Karappadi,Tamil Nadu,11.323845,79.123979
527,Eravadi,Tamil Nadu,12.51213,79.460424
525,Arulambadi,Tamil Nadu,12.00409,78.97518000000001
454,Arumbalavadi,Tamil Nadu,11.73329,79.20658
548,Attipadi,Tamil Nadu,12.034842999999999,78.772142
526,Murukkambadi,Tamil Nadu,12.05381,79.07611999999999
410,Attavanaikottampadi,Tamil Nadu,11.626742,78.540693
245,Avadi,Tamil Nadu,13.1254758,80.09409000000001
417,Olaippadi,Tamil Nadu,10.984380999999999,79.322567
437,Sankarambadi,Tamil Nadu,12.859325,79.558814
444,Karumandappadi,Tamil Nadu,12.384639,78.54541400000001
275,Bodikamanvadi,Tamil Nadu,10.26372,77.83189
402,Tillaiyadi,Tamil Nadu,11.039143,79.811367
421,Sinnalampadi,Tamil Nadu,12.682004,79.844133
424,Chinnamanjavadi,Tamil Nadu,11.820269999999999,78.35587
371,Chinna Sekkadi,Tamil Nadu,11.436246,78.352216
400,Chinnasiragapadi,Tamil Nadu,11.579839999999999,78.07464
494,Chinnatallapadi,Tamil Nadu,12.271398,78.590971
308,Myvadi,Tamil Nadu,10.59762,77.31578
393,Chintalpadi,Tamil Nadu,12.07697,78.35793000000001
294,Chinthalavadi,Tamil Nadu,10.95084,78.32359
436,Chinnavailambadi,Tamil Nadu,13.080969999999999,79.529045
330,Chitravadi,Tamil Nadu,12.46365,79.91615
438,Chittamalli Kilpadi,Tamil Nadu,10.78088,79.392375
244,Arasadi,Tamil Nadu,9.665097,78.728162
372,Govindapadi,Tamil Nadu,11.899125,77.82718299999999
309,Perumpadi,Tamil Nadu,10.782703999999999,76.929389
547,Devandavadi,Tamil Nadu,12.440430000000001,79.38625
409,Edappadi,Tamil Nadu,11.58441,77.83829
429,Pattippadi,Tamil Nadu,11.811150999999999,78.196389
466,Elavadi,Tamil Nadu,11.635639999999999,78.87635999999999
316,Kaniyambadi,Tamil Nadu,12.86536,79.13091
243,Sattiyadi,Tamil Nadu,9.950289999999999,79.02346
411,Kattumavadi,Tamil Nadu,10.88009,79.77928
233,Ervadi,Tamil Nadu,9.21108,78.71302
551,Ganalapadi,Tamil Nadu,12.256310000000001,79.2267
503,Tenvannakkambadi,Tamil Nadu,12.421669999999999,79.551101
321,Periakattupadi,Tamil Nadu,12.882356,78.928476
420,Maruttuvambadi,Tamil Nadu,12.650559,79.773668
425,Manjanavadi,Tamil Nadu,10.685369999999999,79.51867800000001
554,Kalasthambadi,Tamil Nadu,12.30612,79.11556999999999
553,Periyakalambadi,Tamil Nadu,12.385855000000001,79.03389
381,Kalpadi,Tamil Nadu,11.20594,78.88016999999999
276,Tamaraippadi,Tamil Nadu,10.407200999999999,78.044438
289,Kaveripak Nadi,Tamil Nadu,13.168571,79.825363
446,Kandamanadi,Tamil Nadu,11.9031,79.4664
546,Kappalambadi,Tamil Nadu,12.37255,79.27280999999999
408,T.Konagapadi,Tamil Nadu,11.68181,78.01035
555,Mallavadi,Tamil Nadu,12.3275,79.07396999999999
385,Kil Valappadi,Tamil Nadu,11.790944999999999,78.73886999999999
512,Punnappadi,Tamil Nadu,12.833730000000001,79.34261
301,Kavandapadi,Tamil Nadu,11.426789999999999,77.55694
453,Konakkalavadi,Tamil Nadu,11.862045,79.10204300000001
307,Kolinivadi,Tamil Nadu,10.742064,77.53954
462,Laddivadi,Tamil Nadu,11.43649,78.76718000000001
310,Tokkavadi,Tamil Nadu,11.370181,77.841247
334,Pallivadi,Tamil Nadu,10.903080000000001,78.733356
48,Vembadi,Tamil Nadu,8.283369,77.430236
445,Mallapadi,Tamil Nadu,12.513630000000001,78.3742
279,Vanivambadi,Tamil Nadu,12.679059,78.615636
401,Sathiyavadi,Tamil Nadu,12.35852,79.62945
472,Pappambadi,Tamil Nadu,12.21593,79.47435
47,Mazhiladi,Tamil Nadu,8.48984,77.65949
529,Sanikkavadi,Tamil Nadu,12.481155000000001,79.145452
549,Olagalappadi,Tamil Nadu,12.134634,78.898798
326,Chimpalatiradi,Tamil Nadu,12.69825,78.054682
340,Vandalavadi,Tamil Nadu,12.683344,77.85961400000001
322,Palapadi,Tamil Nadu,12.79589,78.87486
439,Sittadi,Tamil Nadu,10.892125,79.500426
533,Pulavanpadi,Tamil Nadu,12.61707,79.25214
428,Sarkar Valappadi,Tamil Nadu,11.657401,78.401625
550,Tanipadi,Tamil Nadu,12.107836,78.833976
374,Kurinjippadi,Tamil Nadu,11.168174,79.069811
532,Velappadi,Tamil Nadu,12.649869,79.315115
283,Anaiyappadi,Tamil Nadu,11.255509,77.381976
138,Boppajiwadi,Telangana,18.41195,78.18415
128,Kelojiwadi,Telangana,18.34385,78.30235
34,Bodewadi,Telangana,17.390278,78.401306
633,Narsapur Nadi,Telangana,19.234437,79.376304
139,Kammajiwadi,Telangana,18.43884,78.24086
76,Baia Nadi,Uttar Pradesh,28.770465,78.14760600000001
423,Majhoi Nadi,Uttar Pradesh,26.124009,82.907767
412,Morwa Nadi,Uttar Pradesh,25.393218,82.626999
325,Sarayan Nadi,Uttar Pradesh,27.199965999999996,80.789107
523,Bargadi,Uttar Pradesh,27.15786,82.84669
113,Damkadi,Uttar Pradesh,30.0301,77.50842
515,Churhat Nadi,Uttar Pradesh,27.142462,83.130723
433,Khub Nadi,Uttar Pradesh,26.0353,82.35077700000001
170,Bichhiya Wadi,Uttar Pradesh,26.05799,81.32623000000001
387,Arasi Nadi,Uttar Pradesh,25.596972,82.49829100000001
415,Asi Nadi,Uttar Pradesh,25.283007,83.009845
416,Sadi Bhadi,Uttar Pradesh,25.536526000000002,83.178077
124,Pangaili Nadi,Uttar Pradesh,28.395384000000004,79.656614
504,Jokla Nadi,Uttar Pradesh,26.699618,83.311453
75,Maihti Nadi,Uttar Pradesh,29.108390999999997,78.143795
389,Kinara Nadi,Uttar Pradesh,25.666829999999997,83.41762
501,Mahlan Nadi,Uttar Pradesh,26.427777000000003,84.025548
426,Reth Nadi,Uttar Pradesh,26.778404,81.211616
514,Narkutwa Nadi,Uttar Pradesh,27.431659000000003,81.957431
507,Ghagra Nadi,Uttar Pradesh,26.582724,81.652192
80,Nagla Shadi,Uttar Pradesh,28.109675,78.385121
40,Garhi Jadi,Uttar Pradesh,27.260265000000004,78.25094
491,Pakui Nadi,Uttar Pradesh,26.442691999999997,83.581579
98,Barahi Nadi,Uttar Pradesh,27.993027,79.9396
394,Rewadi,Uttar Pradesh,25.300520000000002,81.24856
442,Bahuwa Nadi,Uttar Pradesh,27.416744,82.533174
500,Ghagra Nadi,Uttar Pradesh,26.845298,82.017351
434,Rajwadi,Uttar Pradesh,25.9658,81.91579
519,Pura Parshadi,Uttar Pradesh,27.259932,81.550751
87,Rampurshadi,Uttar Pradesh,26.987190000000002,79.77497
160,Barer Nadi,Uttar Pradesh,26.598641999999998,80.889459
575,Sukru Nadi,Uttar Pradesh,24.497524,78.68302299999999
465,Jaiti Nadi,Uttar Pradesh,26.750433,83.807006
171,Ghumni Nadi,Uttar Pradesh,26.13117,80.873338
127,Abul Hasanpur Urf Ghisarpadi,Uttarakhand,29.83837,77.8889
65,Airadi,Uttarakhand,29.878909999999998,79.68213
74,Niwadi,Uttarakhand,30.28935,79.27478
219,Raina Badi,Uttarakhand,29.97635,78.41736
142,Kimgadi,Uttarakhand,30.22225,78.77774000000001
230,Bebadi,Uttarakhand,29.917759999999998,78.70955
229,Jamargadi,Uttarakhand,29.763903999999997,78.584244
228,Kalwadi,Uttarakhand,29.771620000000002,78.87033000000001
211,Kuladi,Uttarakhand,29.965999999999998,78.85336
189,Ninglar Nadi,Uttarakhand,29.451805,79.478613
239,Dabka Nadi,Uttarakhand,29.089818,79.181286
107,Kuvav Nadi,Uttarakhand,30.623154,77.813986
37,Saraswati Nadi,West Bengal,22.983060000000002,88.400954
1094,Petadi,West Bengal,23.2772,86.39546
1119,Bhurkuradi,West Bengal,23.54085,86.67125
23,Chak Khanjadi,West Bengal,22.39718,87.51963
1159,Dhumadi,West Bengal,23.41602,86.14483
1155,Patmadi,West Bengal,23.3619,86.01594
1118,Beryadi,West Bengal,23.54984,86.46831999999999
1142,Nayadi,West Bengal,23.29526,85.86851
232,Bhan Ganadi,West Bengal,22.449720000000003,86.99701
1093,Poradi,West Bengal,23.1205,86.65613
981,Harmadi,West Bengal,23.61107,86.80179
2,Daudkhawa Nadi,Assam,26.382514,89.831948
1238,Malapwadi,Karnataka,17.512508,76.827325
1382,Udak Nadi,Karnataka,15.648210999999998,74.293913
1366,Bambarkivadi,Karnataka,15.508401000000001,74.339209
354,Mudradi,Karnataka,13.416235999999998,75.017022
362,Kuriadi,Karnataka,13.113907999999999,75.20432
363,Bettampadi,Karnataka,12.660897,75.186836
365,Chinappadi,Kerala,12.547628999999999,75.21558
360,Majalpumbadi,Karnataka,12.579129,75.527422
282,Gonigadde Hadi,Karnataka,12.038033,76.066786
253,Neyveli Tenpadi,Tamil Nadu,10.425292,79.145645
8,Jodheri Nadi,Rajasthan,27.319776,71.505814
161,Goklen Nadi,Rajasthan,24.759304,73.009342
378,Ghorol Nadi,Rajasthan,23.947454999999998,73.721615
196,Karmai Nadi,Rajasthan,24.072692,74.437648
162,Jaeta Nadi,Rajasthan,24.949673999999998,73.170449
147,Naiwala Nadi,Rajasthan,26.236821999999997,74.305932
141,Sukrl Nadi,Rajasthan,26.020944,74.063418
148,Shamru Nadi,Rajasthan,26.390346,74.318473
130,Sura Nadi,Rajasthan,26.18132,74.661172
295,Rawa Nadi,Rajasthan,24.535347,76.040401
579,Bethli Nadi,Rajasthan,24.731049,76.90813100000001
573,Rempi Nadi,Madhya Pradesh,25.326684,77.205444
50,Kawar Nadi,Rajasthan,26.955734000000003,77.744436
608,Patol Nadi,Rajasthan,23.155521,74.269293
807,Domkhadi,Maharashtra,21.921560999999997,74.173035
815,Khudri Nadi,Chhattisgarh,22.833818,81.863087
905,Kolhua Nadi,Madhya Pradesh,22.938624,81.48592099999999
904,Birchand Nadi,Madhya Pradesh,22.928423000000002,81.616613
986,Turar Nadi,Madhya Pradesh,22.745132,81.531926
880,Jhinjri Nadi,Madhya Pradesh,22.94171,81.141999
599,Narain Nadi,Uttar Pradesh,24.450513,78.267512
581,Kekai Nadi,Madhya Pradesh,24.840779,78.075733
601,Nahargarh Nadi,Madhya Pradesh,24.344997,77.94769699999999
817,Minkor Nadi,Madhya Pradesh,22.184835,80.60074300000001
862,Burhan Nadi,Madhya Pradesh,21.727930999999998,80.677763
760,Sanghar Nadi,Madhya Pradesh,21.794307999999997,80.557973
966,Sakrali Nadi,Madhya Pradesh,21.658322000000002,74.72034599999999
939,Tawa Nadi,Madhya Pradesh,22.148383,78.337509
994,Kabra Nadi,Madhya Pradesh,22.4393,78.260766
995,Nonpani Nadi,Madhya Pradesh,22.428331,78.102747
795,Ganjal Nadi,Madhya Pradesh,21.74588,77.220687
1018,Patia Nadi,Madhya Pradesh,21.476266,77.958323
582,Mirga Nadi,Uttar Pradesh,26.175188000000002,79.019289
1101,Nimb Nadi,Madhya Pradesh,21.381492,76.31575699999999
1088,Garthal Nadi,Madhya Pradesh,21.37262,76.053877
1099,Khadki Nadi,Madhya Pradesh,21.266178,76.227259
594,Chhoti Nadi,Madhya Pradesh,25.253141,80.133584
616,Achhawala Nadi,Madhya Pradesh,24.863204999999997,79.82345
626,Bagha Nadi,Uttar Pradesh,25.149817000000002,79.738647
557,Sukku Nadi,Madhya Pradesh,24.478652,79.200503
751,Kiraha Nadi,Madhya Pradesh,23.410785999999998,79.301624
756,Dhobia Nadi,Madhya Pradesh,23.286958,79.33748
734,Gahra Nadi,Madhya Pradesh,23.629834,79.451613
636,Amghat Nadi,Madhya Pradesh,24.216457000000002,79.638657
632,Bateha Nadi,Madhya Pradesh,24.369945,79.912384
625,Kunta Nadi,Madhya Pradesh,25.593010999999997,78.43985699999999
623,Non Nadi,Madhya Pradesh,25.832363,78.364561
622,Teliyakhoh Nadi,Madhya Pradesh,26.049325,78.60628
1009,Shukli Nadi,Madhya Pradesh,22.461129,76.11366
801,Chhipni Nadi,Madhya Pradesh,22.575842,81.19753100000001
796,Kanai Nadi,Madhya Pradesh,23.056515,80.837802
800,Lilari Nadi,Madhya Pradesh,22.512631,81.003
797,Banari Nadi,Madhya Pradesh,22.975931,80.574639
568,Kala Patha Nadi,Madhya Pradesh,24.085657,77.244935
559,Sank Nadi,Madhya Pradesh,26.063316,77.869789
743,Sukhri Nadi,Madhya Pradesh,22.858062,78.285809
984,Kahuapani Nadi,Madhya Pradesh,22.453387,78.003106
727,Maru Nadi,Madhya Pradesh,22.787167,78.102137
745,Baganjhora Nadi,Madhya Pradesh,22.57285,77.34838
721,Chandni Nadi,Madhya Pradesh,22.499446,77.550365
840,Jhamul Nadi,Madhya Pradesh,23.131005,80.19612
854,Labhera Nadi,Madhya Pradesh,23.383539000000003,80.309467
860,Pariat Nadi,Madhya Pradesh,23.367026,79.872996
863,Kairha Nadi,Madhya Pradesh,22.976370000000003,79.879897
844,Dhenki Nadi,Madhya Pradesh,22.726426,79.842051
861,Matoria Nadi,Madhya Pradesh,23.410051,79.759095
853,Bhagela Nadi,Madhya Pradesh,23.436219,80.11799599999999
820,Katni Nadi,Madhya Pradesh,23.781581,80.276604
907,Kalamachak Nadi,Madhya Pradesh,22.104914,76.80184200000001
714,Hatni Nadi,Madhya Pradesh,21.971368,75.418126
818,Burburi Nadi,Madhya Pradesh,22.321993,80.465275
794,Bhimori Nadi,Madhya Pradesh,22.302296,81.053787
848,Halon Nadi,Madhya Pradesh,22.541709,80.035881
838,Teri Nadi,Madhya Pradesh,22.650726000000002,80.315147
864,Newari Nadi,Madhya Pradesh,22.933429999999998,79.99059399999999
560,Sukhdini Nadi,Madhya Pradesh,26.323722999999998,77.730092
724,Barurewa Nadi,Madhya Pradesh,23.007096,79.112095
755,Kohadol Nadi,Madhya Pradesh,23.204919,79.294772
741,Sukha Nadi,Madhya Pradesh,22.839247,78.915998
758,Bindar Nadi,Madhya Pradesh,23.094573999999998,78.141653
759,Sukar Nadi,Madhya Pradesh,23.168453,78.254473
441,Nakta Nadi,Madhya Pradesh,24.687448,81.121157
484,Gobardaha Nadi,Madhya Pradesh,24.821841,81.97906400000001
450,Jirond Nadi,Madhya Pradesh,24.915113,81.327872
577,Masamya Nadi,Madhya Pradesh,23.827701,78.424873
556,Silat Nadi,Madhya Pradesh,24.283949,78.91943
595,Karadunr Nadi,Uttar Pradesh,24.331104,78.423808
414,Lagna Nadi,Madhya Pradesh,24.735989,80.861109
845,Bhasora Nadi,Madhya Pradesh,22.382369,79.821945
856,Jhinghrai Nadi,Madhya Pradesh,22.760583,79.99924200000001
1537,Pendravadi,Maharashtra,15.833873,74.08188100000001
1538,Dhangarvadi,Maharashtra,15.946564000000002,74.06084
1539,Desaivadi,Maharashtra,15.991176999999999,74.136595
1563,Khalnekarvadi,Maharashtra,15.895798999999998,74.152557
566,Lunsdara Nadi,Madhya Pradesh,25.533462,77.008624
440,Kapeli Nadi,Madhya Pradesh,25.979846,77.295672
456,Goria Nadi,Bihar,25.374594000000002,83.776886
620,Paniharighat Nadi,Madhya Pradesh,25.59604,78.034339
452,Basahara Nadi,Madhya Pradesh,24.108912,81.91024399999999
495,Jogiya Nadi,Uttar Pradesh,24.098513,82.70455600000001
516,Silhor Nadi,Madhya Pradesh,24.238242,82.569439
540,Mohangarai Nadi,Madhya Pradesh,24.403271,82.625535
535,Jhariya Nadi,Madhya Pradesh,24.284801,82.696455
539,Kulkurahwa Nadi,Uttar Pradesh,24.426993,82.73876700000001
473,Lonmati Nadi,Uttar Pradesh,24.800864999999998,82.342395
562,Kharrao Nadi,Madhya Pradesh,24.967499,78.666064
612,Barwa Nadi,Uttar Pradesh,25.368505,78.75178100000001
602,Chakra Nadi,Madhya Pradesh,23.971739000000003,78.036108
84,Choa Nadi,Punjab,30.447007,76.802859
85,Mansali Nadi,Punjab,31.022605,76.537514
933,Hagaria Nadi,Chhattisgarh,22.191489,81.417435
920,Datila Nadi,Chhattisgarh,22.354969,81.255604
944,Jamunha Nadi,Chhattisgarh,22.028655,81.198932
943,Bijajhori Nadi,Chhattisgarh,22.015282,81.341647
868,Guniri Nadi,Chhattisgarh,21.812652,81.318609
866,Kosta Nadi,Maharashtra,20.135602,80.456726
833,Kondal Nadi,Chhattisgarh,20.300117999999998,80.697092
895,Pateshri Nadi,Chhattisgarh,21.09565,80.926529
918,Baiha Nadi,Chhattisgarh,21.303631,81.08504
883,Chitawar Nadi,Chhattisgarh,21.034247,81.235939
889,Muska Nadi,Chhattisgarh,21.412793,80.980773
919,Chicha Nadi,Chhattisgarh,21.404405,81.22029
787,Tundri Nadi,Chhattisgarh,21.705998,82.6604
790,Ama Nadi,Chhattisgarh,21.356593,82.657758
813,Mirwa Nadi,Chhattisgarh,21.577925,82.46856899999999
811,Bagbura Nadi,Chhattisgarh,21.571257,82.386451
814,Gudru Nadi,Chhattisgarh,21.521689000000002,82.490983
798,Makhmala Nadi,Chhattisgarh,21.3748,82.207865
932,Tartaria Nadi,Chhattisgarh,21.831252,81.60649699999999
802,Sati Nadi,Chhattisgarh,21.209449,82.011139
942,Ghuri Nadi,Chhattisgarh,21.434212,81.56911
728,Sapdhara Nadi,Chhattisgarh,20.660164,82.155355
713,Ghunghuti Nadi,Chhattisgarh,20.868357,82.165141
702,Jatmai Nadi,Chhattisgarh,20.787044,82.04418199999999
715,Aunrajhori Nadi,Chhattisgarh,20.397842999999998,82.086241
720,Chachingi Nadi,Chhattisgarh,20.531778,82.226099
730,Basikhai Nadi,Chhattisgarh,20.563118,82.018541
710,Lilanj Nadi,Chhattisgarh,20.308648,82.080338
803,Sukha Nadi,Chhattisgarh,21.081623,81.99114399999999
700,Ghordagi Nadi,Chhattisgarh,20.628624,81.68590999999999
684,Kukri Nadi,Chhattisgarh,20.272294,81.792806
859,Kandra Nadi,Chhattisgarh,20.265242999999998,80.822811
924,Bhimsen Nadi,Chhattisgarh,18.629622,81.89428000000001
676,Dankani Nadi,Chhattisgarh,18.93207,81.300208
367,Duyalmadgu Nadi,Maharashtra,19.255614,80.347589
792,Dawari Nadi,Chhattisgarh,22.770699,84.08721800000001
791,Kothri Nadi,Jharkhand,22.654344000000002,84.292709
769,Mangalchaora Nadi,Chhattisgarh,22.976701000000002,84.074973
706,Katai Nadi,Chhattisgarh,22.930923999999997,82.37356700000001
704,Bhainspar Nadi,Chhattisgarh,22.459364,82.500058
705,Bandi Nadi,Chhattisgarh,22.700287,82.318572
990,Khundi Nadi,Chhattisgarh,21.715067,83.111756
914,Usar Nadi,Chhattisgarh,21.980133,82.93426600000001
786,Dhawari Nadi,Chhattisgarh,21.866874,82.54902
740,Ranidarha Nadi,Chhattisgarh,21.953438000000002,83.485455
972,Tura Ama Nadi,Chhattisgarh,22.494032999999998,81.89824899999999
945,Dunga Nadi,Chhattisgarh,22.449161,82.027916
1029,Amanara Nadi,Chhattisgarh,22.489117,81.59820699999999
1036,Handikundi Nadi,Chhattisgarh,22.436567,81.55148
1019,Palmi Nadi,Chhattisgarh,22.451416000000002,81.750077
1035,Ghariba Nadi,Chhattisgarh,22.418508,81.58273299999999
1006,Dhawaia Nadi,Chhattisgarh,22.187761,81.855522
999,Rahan Nadi,Chhattisgarh,22.02073,81.950692
770,Chipra Nadi,Chhattisgarh,20.677617,81.073064
1044,Kursa Nadi,Chhattisgarh,23.941659,83.540244
1020,Pangan Nadi,Uttar Pradesh,24.117765,83.29633000000001
1184,Koelkudar Nadi,Chhattisgarh,23.587339,83.76527
1202,Chhapardag Nadi,Jharkhand,23.603537,84.066725
752,Baitri Nadi,Jharkhand,24.46184,83.491906
1209,Saphi Nadi,Jharkhand,23.796698000000003,84.016178
1206,Kulhi Nadi,Jharkhand,23.673606,83.95916
1193,Daldalia Nadi,Jharkhand,23.954681,83.865787
1200,Dandaha Nadi,Jharkhand,23.922507999999997,84.146766
1208,Bhityani Nadi,Jharkhand,23.871161999999998,84.077872
1037,Belhara Nadi,Jharkhand,24.393955,84.56487
1024,Dulki Nadi,Jharkhand,24.269203,84.50404499999999
998,Golai Nadi,Jharkhand,24.391151999999998,84.81485
885,Basni Nadi,Jharkhand,24.297825,85.084035
884,Noni Nadi,Jharkhand,24.308317000000002,85.37773100000001
898,Kamaldaha Nadi,Jharkhand,24.133979,85.165601
1013,Alha Nadi,Jharkhand,24.215062,84.57862800000001
899,Lora Nadi,Jharkhand,24.067895999999998,85.135626
1145,Barki Nadi,Jharkhand,23.810107000000002,85.043852
973,Godhea Nadi,Jharkhand,24.009113,85.591892
1144,Mur Nadi,Jharkhand,23.613209,85.07729599999999
1103,Bokaro Nadi,Jharkhand,23.780749,85.875139
1090,Kathka Nadi,Jharkhand,24.681612,85.793084
1123,Usri Nadi,Jharkhand,24.059551000000003,86.373641
1130,Irga Nadi,Jharkhand,24.185509,86.08008199999999
1075,Kadhara Nadi,Bihar,24.492664,86.491436
675,Biharjori Nadi,Bihar,24.856704999999998,87.122556
117,Kandaha Nadi,Jharkhand,24.503113,87.694288
116,Tirchana Nadi,Jharkhand,24.318191,87.71285999999999
963,Chhopi Nadi,Jharkhand,22.953634,85.080475
1158,Potpoto Nadi,Jharkhand,23.435381,85.369152
1133,Kocha Nadi,Jharkhand,23.267413,85.626248
1143,Anrla Nadi,Jharkhand,23.173848,85.671894
910,Rurungikir Nadi,Jharkhand,22.983181,85.560632
1203,Buchidari Nadi,Jharkhand,23.704549,84.077853
1210,Bagdhuiwa Nadi,Jharkhand,23.758985,84.224898
1218,Bardhkatwa Nadi,Jharkhand,23.809043,84.218967
1219,Jawa Nadi,Jharkhand,23.819246,84.25304399999999
1201,Halhad Nadi,Jharkhand,23.659151,84.15853100000001
1204,Khuila Nadi,Jharkhand,23.795304,84.127637
1213,Pachnadia Nadi,Jharkhand,23.863802,84.24815500000001
1211,Karambathwa Nadi,Jharkhand,23.786437,84.276976
1195,Phatariya Nadi,Jharkhand,23.870667,84.45389300000001
1196,Dhardhari Nadi,Jharkhand,23.735971,84.454424
1073,Saphi Nadi,Jharkhand,23.681172,84.86089399999999
1198,Dhardhari Nadi,Jharkhand,23.603994,84.312352
1192,Barki Nadi,Jharkhand,23.543494,84.49368100000001
1072,Sankh Nadi,Jharkhand,23.446784,84.717803
1149,Narma Nadi,Jharkhand,23.428519,84.321264
1107,Paras Nadi,Jharkhand,23.166521,84.658682
1071,Burnipat Nadi,Jharkhand,23.200437,84.824462
1125,Marda Nadi,Jharkhand,22.954244,84.730999
1124,Koili Nadi,Jharkhand,22.829847,84.875886
780,Kusmajor Nadi,Jharkhand,22.806345,84.537724
782,Saphi Nadi,Jharkhand,23.133562,84.202499
785,Kasjor Nadi,Jharkhand,22.671056,84.413951
1082,Solbo Nadi,Jharkhand,22.647141,84.88238100000001
965,Banki Nadi,Jharkhand,22.680243,85.040217
997,Parba Nadi,Jharkhand,22.422822,84.909345
964,Paprasereng Nadi,Jharkhand,22.835411999999998,85.178187
952,Hamsada Nadi,Jharkhand,22.334279000000002,85.303438
1048,Nawagaon Nadi,Jharkhand,22.085756,85.000589
1002,Sima Nadi,Jharkhand,22.964769,85.999082
73,Pandon Nadi,Himachal Pradesh,32.310728000000005,76.828366
72,Laluni Nadi,Himachal Pradesh,32.37092,76.833101
68,Bhadal Nadi,Himachal Pradesh,32.365094,76.945068
173,Patench Nadi,Himachal Pradesh,32.144883,76.593064
172,Nair Nadi,Himachal Pradesh,32.184866,76.558791
125,Gard Nadi,Himachal Pradesh,32.262796,75.922481
163,Bajhotu Nadi,Himachal Pradesh,32.428585,76.391632
146,Raskundi Nadi,Himachal Pradesh,32.582172,76.503926
186,Pindi Nadi,Himachal Pradesh,32.840209,76.27899599999999
179,Kamli Nadi,Himachal Pradesh,32.751618,76.288531
187,Choned Nadi,Himachal Pradesh,32.903977000000005,76.24951999999999
209,Bedwan Nadi,Himachal Pradesh,33.143398,76.443151
220,Badlan Nadi,Himachal Pradesh,33.082901,76.454521
216,Uthru Nadi,Himachal Pradesh,32.909453000000006,76.464833
224,Baniun Nadi,Himachal Pradesh,33.010309,76.431306
217,Sansari Nadi,Jammu and Kashmir,33.126903000000006,76.314103
225,Kaotu Nadi,Himachal Pradesh,33.068554999999996,76.405774
221,Sidhani Nadi,Himachal Pradesh,32.960512,76.563799
222,Hilu Nadi,Himachal Pradesh,33.018946,76.607096
152,Bugar Nadi,Himachal Pradesh,32.813776000000004,76.737095
154,Rah Pani Nadi,Himachal Pradesh,32.757148,76.58731999999999
101,Balad Nadi,Haryana,30.913718,76.797561
111,Katali Nadi,Himachal Pradesh,30.838442999999998,77.596074
112,Kunkun Nadi,Himachal Pradesh,30.975443,77.56630600000001
94,Tarapur ki Nadi,Himachal Pradesh,30.598296,77.194024
108,Bin Nadi,Uttarakhand,30.514222999999998,77.87347
99,Ghulaita Nadi,Uttarakhand,30.342722,77.953061
197,Kathiyari Nadi,Uttarakhand,29.737357,78.243592
215,Ramganga Nadi,Uttarakhand,29.750315000000004,79.24411500000001
204,Thonga Nadi,Uttarakhand,29.173485,80.179097
203,Kamin Nadi,Uttarakhand,28.953090000000003,79.85068100000001
190,Balia Nadi,Uttarakhand,29.338803000000002,79.513902
212,Bamni Nadi,Uttarakhand,29.452627000000003,79.276476
226,Mandal Nadi,Uttarakhand,29.601843,78.99959799999999
227,Saja Nadi,Uttarakhand,29.712360999999998,78.969297
237,Bhanga Nadi,Uttarakhand,29.003032,79.432191
238,Dhori Nadi,Uttar Pradesh,28.764444,79.366978
240,Jabran Nadi,Uttarakhand,29.202384000000002,79.21520699999999
235,Pathri Nadi,Uttarakhand,29.201936,79.03197
207,Phandi Nadi,Uttar Pradesh,29.303378000000002,78.695369
66,Budhi Nadi,Uttar Pradesh,29.738739000000002,77.138948
51,Nagan Nadi,Uttar Pradesh,29.163121000000004,77.755809
223,Nakta Nadi,Uttar Pradesh,29.514769,78.527245
208,Kurka Nadi,Uttar Pradesh,29.054583,78.733248
241,Dhori Nadi,Uttar Pradesh,28.989110999999998,79.218533
242,Nahal Nadi,Uttar Pradesh,28.914552,79.141366
231,Bast Nadi,Uttar Pradesh,28.445045,79.31255999999999
88,Khara Nadi,Uttar Pradesh,27.314484999999998,79.14232700000001
96,Kamra Nadi,Uttar Pradesh,27.939469,78.936079
91,Aril Nadi,Uttar Pradesh,27.668342,79.460497
544,Babai Nadi,Uttar Pradesh,27.733614000000003,81.29717600000001
498,Soti Nadi,Uttar Pradesh,27.904602,81.04655600000001
86,Gambhiri Nadi,Uttar Pradesh,27.189115,79.91211899999999
613,Birma Nadi,Uttar Pradesh,25.881766,79.901837
617,Sukhnai Nadi,Uttar Pradesh,25.385639,79.147226
598,Dhobia Nadi,Uttar Pradesh,24.595898000000002,78.399321
627,Ouno ka Nadi,Uttar Pradesh,25.269412,79.782126
593,Hinhau Nadi,Uttar Pradesh,25.441330999999998,79.898724
630,Barhori Nadi,Uttar Pradesh,25.415363,79.667797
628,Barori Nadi,Uttar Pradesh,25.293861,79.524652
629,Bhariya Nadi,Uttar Pradesh,25.500068,79.555093
631,Arjun Nadi,Uttar Pradesh,25.51158,79.661253
150,Satbidhai Nadi,Uttar Pradesh,26.272574,80.26222299999999
545,Soti Nadi,Uttar Pradesh,27.456635,81.272981
541,Dhurwa Nadi,Uttar Pradesh,27.624352000000002,81.078313
536,Bagnat Nadi,Uttar Pradesh,27.551785,81.391199
528,Pura Parshadi,Uttar Pradesh,27.922568,81.412139
384,Bedna Nadi,Uttar Pradesh,25.656314000000002,80.62562
395,Ohan Nadi,Uttar Pradesh,25.404624,81.068608
388,Makrar Nadi,Uttar Pradesh,25.25845,80.675952
392,Kalind Nadi,Uttar Pradesh,25.448051,80.881431
506,Purwa Ladi,Uttar Pradesh,26.465515999999997,81.937221
517,Benda Nadi,Uttar Pradesh,26.999837,82.657349
505,Penrar Nadi,Uttar Pradesh,27.322907,82.17820999999999
509,Gandhili Nadi,Uttar Pradesh,27.770188,82.25408900000001
543,Kachni Nadi,Uttar Pradesh,27.566408000000003,82.184039
542,Dubha Nadi,Uttar Pradesh,27.591471999999996,82.083573
508,Nakahia Nadi,Uttar Pradesh,27.76547,82.141228
521,Bagahi Nadi,Uttar Pradesh,27.870701,81.999635
520,Bhainsiwa Nadi,Uttar Pradesh,27.776415000000004,82.037588
522,Manguwa Nadi,Uttar Pradesh,26.937014,82.942639
518,Rawaj Nadi,Uttar Pradesh,26.785809999999998,82.69578800000001
502,Jamoria Nadi,Uttar Pradesh,26.290702000000003,82.108615
483,Asrawal Nadi,Uttar Pradesh,25.216372,82.058764
489,Patpara Nadi,Uttar Pradesh,25.112925,82.245605
496,Majhia Nadi,Uttar Pradesh,25.050860999999998,82.009279
492,Jharai Nadi,Uttar Pradesh,27.128677000000003,83.434724
407,Hirni Nadi,Uttar Pradesh,27.058460999999998,83.737187
490,Gajni Nadi,Uttar Pradesh,26.402794,83.351822
510,Jharahi Nadi,Bihar,26.072521,84.15698499999999
478,Daha Nadi,Bihar,25.897185999999998,84.49149200000001
511,Mangai Nadi,Uttar Pradesh,25.729182,84.059921
476,Bhitauli Nadi,Bihar,25.655792,84.45777700000001
481,Masijhala Nadi,Uttar Pradesh,24.856501,83.011179
482,Barhi Nadi,Uttar Pradesh,25.027416,82.952371
377,Jamtihwa Nadi,Uttar Pradesh,25.041394,82.68563
477,Barghat Nadi,Uttar Pradesh,24.911103,83.201465
530,Ami Nadi,Uttar Pradesh,24.32597,82.986777
531,Bhainsahwa Nadi,Uttar Pradesh,24.323922,82.88693
20,Roathok Nadi,Sikkim,27.162562,88.251478
1046,Ororai Nadi,Odisha,22.010085999999998,85.68032
1060,Kantakhaira Nadi,Odisha,21.931305,85.809354
993,Boradpora Nadi,Odisha,22.033207,85.511238
1069,Mholda Nadi,Odisha,21.798948,85.41389699999999
1068,Baranmala Nadi,Odisha,21.691862,85.20604399999999
1030,Bansjuri Nadi,Odisha,21.347974,85.336168
1023,Katrabera Nadi,Odisha,21.357822,85.558127
1008,Jaloko Nadi,Odisha,21.439554,85.132374
980,Karchamula Nadi,Odisha,21.066243,85.724109
1047,Samji Nadi,Odisha,21.975538,85.01003299999999
1057,Kainsari Nadi,Odisha,21.788814000000002,84.982412
921,Champali Nadi,Odisha,21.260017,84.537243
1059,Purunapani Nadi,Odisha,21.459395999999998,84.69428
1067,Churakhai Nadi,Odisha,21.447663000000002,84.91681
1051,Joramu Nadi,Odisha,20.621578,84.629003
691,Kaunsia Nadi,Odisha,20.777464000000002,85.269025
979,Dasanali Nadi,Odisha,21.073055,85.577185
969,Matwali Nadi,Odisha,21.708077,83.972864
788,Koldi Nadi,Odisha,20.985556,83.122084
1091,Kukurakhai Nadi,Odisha,20.190445,85.073702
1185,Gameri Nadi,Odisha,20.022729,84.013602
1134,Banshkatta Nadi,Odisha,20.015857,84.481636
1161,Jerabadi,Odisha,19.153973999999998,83.466326
1162,Chikkabadi,Odisha,19.065113,83.527863
344,Koipadi,Kerala,12.593019,74.96261700000001
285,Maananthavaadi,Kerala,11.803195,76.004509
286,Vellarapadi,Kerala,11.907083,75.992462
246,Nakkapadi,Kerala,11.086295,76.62764
25,Vudayamkuzhipadi,Kerala,10.093211,76.479238
46,Puttanangadi,Kerala,9.568049,76.352855
42,Anayadi,Kerala,9.126539,76.629348
28,Yappei Thadi,Andhra Pradesh,14.178779,79.285877
480,Teni Nadi,Bihar,27.29478,84.460559
461,Leior Nadi,Bihar,27.221629999999998,84.32874100000001
457,Harbora Nadi,Bihar,27.06508,84.429807
486,Sikta Nadi,Bihar,26.911894,84.68759399999999
435,Chandrawat Nadi,Bihar,26.823815999999997,84.445081
487,Sikta Nadi,Bihar,27.001973,84.691654
471,Kodai Nadi,Bihar,27.048096,84.58493100000001
467,Koria Nadi,Bihar,26.895811,84.901749
443,Telawe Nadi,Bihar,26.751482,84.926015
57,Lai Bakya Nadi,Bihar,26.614639,85.262235
143,Samohti Nadi,Bihar,26.322144,84.91269
281,Singahi Nadi,Bihar,26.826564,85.609803
280,Jamuni Nadi,Bihar,26.569340000000004,85.848129
775,Narayani Nadi,Bihar,25.648877,85.190037
890,Marhi Nadi,Bihar,25.398822,85.252196
777,Chandai Nadi,Bihar,25.195771,84.883841
872,Mohani Nadi,Bihar,25.31295,85.88546099999999
460,Nagri Nadi,Bihar,25.588821,84.696141
649,Kharsoti Nadi,Bihar,24.749484,83.759348
390,Suar Nadi,Bihar,25.172511,83.538719
768,Dhobia Nadi,Bihar,24.915603,84.053795
774,Dhawa Nadi,Bihar,24.895451,84.547952
985,Lilji Nadi,Bihar,24.606408,84.409458
647,Lilajan Nadi,Bihar,24.727014999999998,85.00938000000001
1038,Damdama Nadi,Bihar,24.531499,84.670045
891,Sonr Nadi,Bihar,25.337889,85.355615
874,Panchana Nadi,Bihar,25.333399,85.717558
841,Dhadhar Nadi,Bihar,24.928898,85.41395899999999
871,Kaurihari Nadi,Bihar,25.165028,85.979906
1062,Bandarbari Nadi,Bihar,24.870461,86.232331
1052,Churia Nadi,Bihar,24.942735,86.413979
644,Sultana Nadi,Bihar,25.628025,85.866168
670,Naria Nadi,Bihar,25.853112,86.310496
669,Gohuan Nadi,Bihar,26.208492,86.384658
432,Balan Nadi,Bihar,26.544639,86.48299399999999
654,Gaurdhoa Nadi,Bihar,25.96735,87.027997
682,Kursala Nadi,Bihar,25.617654,86.595508
683,Kamla Nadi,Bihar,25.586914,86.433438
665,Charban Nadi,Bihar,25.172473999999998,86.582516
674,Lohani Nadi,Bihar,25.088928,87.08473000000001
671,Gerua Nadi,Bihar,25.228103,87.204995
655,Hichamati Nadi,Bihar,25.734567000000002,87.806248
658,Balakar Nadi,West Bengal,25.998507,87.925653
661,Bhaisana Nadi,Bihar,25.60389,87.52765600000001
656,Bakra Nadi,Bihar,26.24959,87.532495
657,Banki Nadi,Bihar,26.245325,87.429547
637,Budhi Nadi,Bihar,26.378596999999996,87.236666
660,Phulhar Nadi,Bihar,25.365831,87.773101
662,Kundi Nadi,Bihar,25.423382999999998,87.54588100000001
288,Choladi,Tamil Nadu,11.55423,76.388888
422,Vaduvur Melpadi,Tamil Nadu,10.701414999999999,79.327261
430,Haridranadi,Tamil Nadu,10.679611999999999,79.444142
808,Talvadi,Maharashtra,21.811757,74.27371
1127,Madari Nadi,Maharashtra,21.400272,74.577952
1152,Dharamkhuli Nadi,Maharashtra,21.246369,74.949986
1276,Bharadi Nadi,Maharashtra,20.590624,75.049903
1227,Vaghmarya Nadi,Maharashtra,20.708092,75.655637
1121,Darka Nadi,Maharashtra,21.073715,76.03178100000001
900,Masan Nadi,Maharashtra,21.428409,77.193246
913,Ban Nadi,Maharashtra,21.269087,76.952264
341,Chandai Nadi,Maharashtra,20.348964000000002,79.201265
901,Tipagarhi Nadi,Maharashtra,20.473753,80.36415600000001
847,Burheli Nadi,Maharashtra,20.027289,80.225647
908,Kalaboria Nadi,Maharashtra,20.471629,80.465818
474,Gutta Nadi,Maharashtra,19.650648,80.548237
642,Gomni Nadi,Maharashtra,19.545745999999998,79.984786
366,Gandara Nadi,Maharashtra,19.175839,80.172646
643,Usa Nadi,Maharashtra,19.564964,80.143248
851,Sarai Nadi,Maharashtra,19.908703,79.290545
829,Warar Nadi,Maharashtra,19.858318,79.446952
831,Andhari Nadi,Maharashtra,19.943684,79.645893
609,Chimur Nadi,Maharashtra,20.401232,79.458861
1294,Ashna Nadi,Maharashtra,19.167475,77.380654
19,Chel Nadi,West Bengal,27.00011,88.69695899999999
119,Pagla Nadi,West Bengal,24.514701000000002,87.999907
120,Torai Nadi,West Bengal,24.671298,87.91532
81,Suani Nadi,Jammu and Kashmir,32.502189,75.17143399999999
121,Drudou Nadi,Jammu and Kashmir,32.526354,75.677044
123,Pela Nadi,Jammu and Kashmir,32.695077000000005,75.646803
82,Chiladangawali Nadi,Jammu and Kashmir,32.651137,75.288409
105,Jmi Nadi,Jammu and Kashmir,33.407137,74.72699899999999
106,Guga Nadi,Jammu and Kashmir,33.526354,74.89814799999999
103,Sutari Nadi,Jammu and Kashmir,33.485971,74.465007
110,Dhandal Nadi,Jammu and Kashmir,33.533578999999996,74.355869
109,Mansar Nadi,Jammu and Kashmir,33.628058,74.536373
174,Bhid Nadi,Jammu and Kashmir,33.155685999999996,75.704259
199,Churu Nadi,Jammu and Kashmir,33.122661,75.982748
200,Bhujari Nadi,Jammu and Kashmir,33.004019,76.035386
175,Jatti Nadi,Jammu and Kashmir,33.045964,75.610954
191,Bhart Nadi,Jammu and Kashmir,33.223924,75.59903100000001
134,Kaukut Nadi,Jammu and Kashmir,33.327743,75.373829
210,Kumalnag Nadi,Jammu and Kashmir,33.324827,75.88969300000001
205,Tsirir Nadi,Jammu and Kashmir,33.325813000000004,76.021225
214,Chapdalan Nadi,Jammu and Kashmir,33.279884,75.767422
213,Kumar Nadiag Nadi,Jammu and Kashmir,33.233148,75.883143
206,Singrambhate Nadi,Jammu and Kashmir,33.386233000000004,75.985519
198,Aghrer Nadi,Jammu and Kashmir,33.286899,76.18545400000001
188,Janao Nadi,Jammu and Kashmir,33.197278999999995,76.373469
218,Azalar Nadi,Jammu and Kashmir,33.183562,76.242514
192,Chaulu Nadi,Jammu and Kashmir,33.368703000000004,76.26337
193,Dharlang Nadi,Jammu and Kashmir,33.411102,76.333889
178,Hoksar Nadi,Jammu and Kashmir,33.849977,75.480733
165,Dujwas Nadi,Jammu and Kashmir,33.820907,75.674588
167,Sain Nadi,Jammu and Kashmir,34.101583000000005,75.56605400000001
166,Hamdalau Nadi,Jammu and Kashmir,34.016678000000006,75.54155
177,Garmusli Nadi,Jammu and Kashmir,33.77905,75.582002
184,Drayul Nadi,Jammu and Kashmir,33.579678,75.849524
185,Gurohoi Nadi,Jammu and Kashmir,33.535726000000004,75.953372
131,Sumbar Nadi,Jammu and Kashmir,33.267472,75.14572
135,Dagar Nadi,Jammu and Kashmir,33.436811999999996,75.194513
157,Solpawas Nadi,Jammu and Kashmir,33.784836,75.412111
114,Gogus Nadi,Jammu and Kashmir,33.813376,75.105946
158,Boa Hoj Nadi,Jammu and Kashmir,33.855431,75.354218
169,Bud Chhumanai Nadi,Jammu and Kashmir,34.109742,75.24664399999999
168,Gilihinkar Nadi,Jammu and Kashmir,34.084063,75.44109
102,Wawij Nadi,Jammu and Kashmir,33.801956,74.609049
176,Bolagam Nadi,Jammu and Kashmir,34.193548,74.527493
77,Hapat Khal Nadi,Jammu and Kashmir,34.139324,74.17401
78,Dachhawar Nadi,Jammu and Kashmir,34.170929,74.086574
183,Hardakhar Nadi,Jammu and Kashmir,34.351376,74.25972
182,Bagau Nadi,Jammu and Kashmir,34.385915999999995,74.442042
140,Rishwar Nadi,Jammu and Kashmir,34.530253,74.213984
90,Irdargadan Nadi,Jammu and Kashmir,34.616868,74.01654599999999
89,Sapanwali Nadi,Jammu and Kashmir,34.663752,74.22912
156,Munyu Nadi,Jammu and Kashmir,34.114208000000005,74.957035
137,Bardalau Nadi,Jammu and Kashmir,34.028419,75.026084
136,Wetharkut Nadi,Jammu and Kashmir,34.021871000000004,75.144088
181,Karisal Nadi,Jammu and Kashmir,34.371375,74.734509
149,Khach Nadi,Jammu and Kashmir,34.495613,74.81649399999999
153,Hapal Nadi,Jammu and Kashmir,34.269644,74.754041
180,Brahamsari Nadi,Jammu and Kashmir,34.283066999999996,74.85154
104,Pair Dhoi Nadi,Haryana,30.067976,77.14149599999999
35,Modari Nadi,Rajasthan,26.599238,71.91358199999999
370,Pelappadi,Tamil Nadu,11.349186999999999,78.39268
524,Tachchampadi,Tamil Nadu,12.481013,79.270723
