Cluster,Placename,State,Lat,Long
22,Jigaon,Arunachal Pradesh,27.123759999999997,92.25443
350,Hatiali Gaon,Assam,27.362579999999998,95.43652
330,1 No. Burgaon,Assam,26.21325,92.26576999999999
142,Asalabari Gaon,Assam,26.920309999999997,94.73141
187,1 No. Lengeri Gaon,Assam,27.24488,94.86589000000001
34,1 No.Bacha Gaon,Assam,27.875040000000002,95.75511
45,1 No.Bala Gaon,Assam,26.099120000000003,91.27221999999999
191,2No.Adi Kalia Gaon,Assam,27.47525,94.56184
132,Abarali Gaon,Assam,27.49989,94.71385
324,Kamar Gaon,Assam,27.229840000000003,95.38748000000001
185,Abhayporia Gaon,Assam,26.70141,94.44
158,Adabari Gaon,Assam,26.931759999999997,92.80853
102,Adarsha Gaon,Assam,26.2935,94.07851
305,Adarsha Gaon,Assam,25.84703,93.42487
294,Adhalkata Gaon,Assam,26.592229999999997,94.18652
103,Jogi Gaon,Assam,26.623179999999998,93.61103
129,Naigaon,Assam,26.567220000000002,90.21328000000001
341,Agni Pothar Gaon,Assam,27.4824,95.1728
273,Baghchong Gaon,Assam,26.686259999999997,92.81631999999999
351,Rajagaon,Assam,26.248140000000003,92.33017
205,Ahom Gaon,Assam,26.500140000000002,93.98529
359,Ahom Gaon,Assam,26.390079999999998,92.79811
281,Ahom Gaon,Assam,26.40898,92.48238
175,Ahom Gaon,Assam,27.625009999999996,95.64912
267,Ajan Bamun Gaon,Assam,26.75072,94.18141999999999
274,Akabasti Gaon,Assam,26.828159999999997,92.80111
290,Akabil Gaon,Assam,26.7346,92.59594
369,Akchek Gaon,Assam,26.12882,92.89706
58,Akhoi Phutia Gaon,Assam,27.23338,94.29892
66,Aktai Gohain Gaon,Assam,27.687559999999998,94.81782
310,Alengi Gaon,Assam,26.59243,94.16161
118,Alengmuria Gaon,Assam,26.65499,93.98395
150,Ali Gaon,Assam,26.27876,90.97841
225,Ali Singa Gaon,Assam,26.70405,92.45655
209,Aliachuk Gaon,Assam,27.3396,94.86242
139,Aliamukhia Gaon,Assam,26.795659999999998,94.31992
316,Alichiga Gaon,Assam,27.279259999999997,95.34076999999999
357,Alikuchi Gaon,Assam,26.282420000000002,92.60308
188,Alimur Gaon,Assam,27.45988,95.04148
223,Alisinga Gaon,Assam,26.665540000000004,92.18422
292,Alisinga Gaon,Assam,26.68882,92.84598000000001
321,Ambari Gaon,Assam,26.22161,93.03529
97,Ambher Gaon,Assam,26.251690000000004,91.56854
161,Amda Gaon,Assam,26.39327,91.12706
241,Amguri Gaon,Assam,27.598509999999997,95.55678
186,Fatikacua Abhaipuria Gaon,Assam,27.2011,94.92019
128,Amingaon,Assam,26.184910000000002,91.6786
224,Amjuli Gaon,Assam,26.74475,92.09442
298,Amlakhi Gaon,Assam,26.441290000000002,92.50509
319,Dablong Gaon,Assam,26.01386,92.86211
113,Amlongsung Gaon,Assam,26.462359999999997,93.92608
291,Da-Ati Gaon,Assam,26.70185,92.83324
334,Ampukhuri Garo Gaon,Assam,26.21626,93.07055
285,Amreng Engti Gaon,Assam,26.01002,93.37748
65,Amrit Gaon,Assam,27.322029999999998,95.82271999999999
169,Amtal Bali Gaon,Assam,26.69885,92.33875
226,Amtal Bher Gaon,Assam,26.70389,92.46263
235,Amtolia Gaon,Assam,26.787370000000003,94.53024
57,Amulguri Gaon,Assam,27.209770000000002,94.44011
141,Anaighoria Gaon,Assam,26.71878,93.9797
64,Andhargaon,Assam,26.64619098,90.75854161
85,Angpong Gaon,Assam,25.93329,92.70123000000001
206,Anka Gaon,Assam,26.49173,93.97575
335,Ara Engti Gaon,Assam,26.209020000000002,93.07263
263,Ara Gaon,Assam,26.829520000000002,92.79786
256,Arabari Gaon,Assam,26.79642,92.57571
138,Changmai Gohain Gaon,Assam,26.78262,94.32226999999999
59,Bali Gaon,Assam,26.868009999999998,93.42515999999999
342,Asomiya Balijan Gaon,Assam,27.4824,95.4537
240,Assomiya Pathar Gaon,Assam,27.46378,95.53822
199,Atapam Gaon,Assam,26.6436,94.18974
210,Athabari Gaon,Assam,27.3657,94.87031
136,Nagaon,Assam,26.34624,91.69017
242,Athengia Gaon,Assam,27.586509999999997,95.59472
197,Athugaon,Assam,26.36937,90.54424
283,Babu Bey Gaon,Assam,26.00573,93.26623000000001
381,Badal Gaon,Assam,26.30054,92.72158
172,Hahinigaon,Assam,26.664270000000002,91.92251999999999
153,Badulipukhuri Maja Gaon,Assam,26.83638,94.43467
73,Bag Gaon,Assam,27.7561,94.96203
6,Bagan Gaon,Assam,24.442220000000002,92.26442
288,Barati Gaon,Assam,26.68641,92.6307
181,Bagari Bari Gaon,Assam,26.703440000000004,92.49851
52,Baghar Gaon,Assam,25.94495,91.11827
111,Baghgaon,Assam,26.19605,93.86265999999999
114,Baghjan Gaon,Assam,27.61399,95.4776
301,Baghmara Gaon,Assam,26.73844,92.63707
349,Jagunpam Gaon,Assam,27.324659999999998,95.37618
68,Baghmora Gaon,Assam,27.3085,95.75035
211,Bagibill Gaon,Assam,27.372290000000003,94.87016
86,Bagichachubagaon,Assam,26.56403,91.81811
171,Bah Mullagaon,Assam,26.598229999999997,91.93276999999999
220,Bahalhabi Gaon,Assam,27.026359999999997,95.01801
183,Bahbari Gaon,Assam,26.82573,92.6732
56,Bahbari Gaon,Assam,26.694640000000003,93.16291
249,Bahek Gaon,Assam,26.7078,94.20881999999999
177,Bahini Gaon,Assam,26.75644,92.11904
170,Bahipukhurigaon,Assam,26.64375,92.31904
79,Bah-Katika Gaon,Assam,27.42287,94.3775
247,Dewangaon,Assam,26.469359999999998,90.56083000000001
203,Bailung Gaon,Assam,26.848540000000003,94.49398000000001
143,Halua Gaon,Assam,26.89439,94.7508
189,Bajatoli Gaon,Assam,27.54816,95.52654
61,Bajegaon,Assam,26.64715,91.28663
104,Bajia Gaon,Assam,26.538,92.92801
196,Bakola Gaon,Assam,26.8882,92.80202
159,Dagaon,Assam,26.43907,91.6177
92,Balagaon,Assam,26.35775,90.87617
8,Balaigaon,Assam,24.57151,92.30965
168,Bali Gaon,Assam,27.48896,94.57276999999999
254,Bali Gaon,Assam,26.0997,93.14
371,Bali Gaon,Assam,26.26009,92.74117
54,Bali Gaon,Assam,26.951240000000002,93.59305
214,Bali Na-Pam Gaon,Assam,27.585390000000004,94.72627
355,Bhakat Gaon,Assam,26.21266,92.44834
140,Baligania Gaon,Assam,26.819000000000003,94.41604
213,Baligaon,Assam,27.57003,94.73082
94,Baligaon,Assam,27.435640000000003,94.30738000000001
69,Baligaon,Assam,26.94217,93.83495
53,Bhalaguri Gaon,Assam,26.88743,93.63091
62,Balijan Forest Gaon,Assam,27.382890000000003,95.90064
328,Balijan Gaon,Assam,27.47355,95.18700000000001
179,Balijan Gaon,Assam,26.70363,92.4804
337,Balijan Gaon,Assam,27.426470000000002,95.32316999999999
259,Balijangaon,Assam,27.362579999999998,95.21863
356,Dalimbari Gaon,Assam,26.18579,92.50604
202,Balimora Gaon,Assam,26.72062,94.47578
361,Borjari Gaon,Assam,26.16149,92.75950999999999
270,Kayai Mari Gaon,Assam,26.706670000000003,92.62387
147,Bam Gaon,Assam,27.540490000000002,94.60457
250,Bamun Gaon,Assam,26.71933,94.19107
80,Merbil Gaon,Assam,27.08254,93.87724
83,Bamun Gaon,Assam,27.22849,94.09444
358,Singia Gaon,Assam,26.363229999999998,92.67103
275,Bamun Gaon,Assam,26.827790000000004,92.80171
260,Bamun Gaon,Assam,25.90914,92.96223
265,Bamungaon,Assam,26.515959999999996,90.50945
116,Debargaon,Assam,26.44838,89.98858
228,Doloi Gaon,Assam,26.425929999999997,91.2041
157,Nagaon,Assam,26.45853,92.00898000000001
293,Bangal Gaon,Assam,26.57501,94.18211
93,Bangal Gaon,Assam,26.07092,91.42479
302,Bangal Gaon,Assam,26.78438,92.62817
152,Bangali Gaon,Assam,26.8382,94.4489
77,Bangali Gaon,Assam,27.018759999999997,93.91675
108,Bangali Gaon,Assam,27.138709999999996,94.75881
117,Bangali Gaon,Assam,26.7896,94.64228
160,Bangaon,Assam,26.45315,91.53658
71,Bangaon,Assam,26.578459999999996,91.54671
216,Dadhi Gaon,Assam,26.512459999999997,91.26321999999999
268,Banmuri Gaon,Assam,26.40312,92.23376999999999
314,Bantana Gaon,Assam,27.38235,95.16858
130,Banugaon,Assam,26.55167,90.16759
289,Bapu Bheti Gaon,Assam,26.683940000000003,92.64678
127,Barapeta Gaon,Assam,26.73355,92.47565999999999
207,Duwari Gaon,Assam,27.07173,94.97063
297,Barbil Gaon,Assam,26.4664,92.47351
304,Barchala Gaon,Assam,26.45455,92.41978
101,Bardia Gaon,Assam,26.07854,91.53079
258,Bare Gaon,Assam,26.484309999999997,90.82863
72,Bareigaon,Assam,26.63237,91.57458000000001
51,Bargaon,Assam,25.944110000000002,91.15858
125,Barhoiting Gaon,Assam,27.551240000000004,94.68189
154,Bari Chowa Gaon,Assam,26.71365,93.97041
70,Barigaon,Assam,26.03717,90.65947
178,Kamalajari Gaon,Assam,26.084529999999997,91.87679
244,Barnagaon,Assam,26.731990000000003,92.08679000000001
120,Barua Gaon,Assam,26.6207,93.79901
46,Barua Gaon,Assam,26.072329999999997,91.16489
315,Betmela Gaon,Assam,27.49861,95.22440999999999
238,Bashbari Gaon,Assam,27.47881,94.95385
100,Batabari Gaon,Assam,26.1208,91.53996
231,Batagaon,Assam,26.53875,90.43319
151,Batgaon,Assam,26.283409999999996,91.08981
320,Batlok Teron Gaon,Assam,26.21445,93.0251
257,Da-Parbatia Gaon,Assam,26.61883,92.77022
180,Benchimari Gaon,Assam,26.6816,92.48935999999999
148,Bengaligaon,Assam,26.72604,91.98977
74,Bera Chapori Maj Gaon,Assam,27.7676,95.02095
76,Debing Mishing Gaon,Assam,27.82582,95.22426
201,Bereghoria Bhakat Gaon,Assam,26.745659999999997,94.26219
87,Betagaon,Assam,26.530890000000003,91.72617
325,Betanibam Habi Gaon,Assam,27.19247,95.32822
363,Betioni Gaon,Assam,27.487059999999996,95.43741
145,Da Gaon,Assam,27.00191,94.62326
368,Mikirati Hawgaon,Assam,26.11972,92.86554
82,Bhakat Gaon,Assam,26.409940000000002,94.04738
245,Bhakat Gaon,Assam,26.33444,92.44725
331,Bhakatgaon,Assam,26.1806,92.21921999999999
332,Kawai Mari Gaon,Assam,26.15926,92.67277
174,Borbam Block Gaon,Assam,27.104509999999998,94.84246
299,Bhalukjan Gaon,Assam,26.2225,92.98014
115,Kacharigaon,Assam,26.23007,90.23076999999999
194,Bherakuchi Gaon,Assam,26.11766,92.09555999999999
373,Bherjan Gaon,Assam,27.509109999999996,95.38679
134,Bheruadolgaon,Assam,26.38737,91.89081
385,Bhimpara Gaon,Assam,27.476640000000003,95.38600000000001
55,Bhir Gaon,Assam,26.744940000000003,93.18573
131,Bhitarual Nora Gaon,Assam,26.977259999999998,94.57996
271,Majgaon,Assam,26.66313,92.79189000000001
208,Bhogamur Tiniali Gaon,Assam,27.34005,94.86201
272,Bhoi Khowa Gaon,Assam,26.65111,92.82389
222,Bholabarigaon,Assam,26.69606,92.19841
84,Bhoroluwa Gaon,Assam,27.21104,94.06121999999999
286,Bhta Gaon,Assam,25.99268,93.41379
163,Bhumij Gaon,Assam,26.26431,93.84419
269,Bhuragaon,Assam,26.3709,92.22569
380,Bhutai Gaon,Assam,26.34422,92.74167
295,Bihubari Kachari Gaon,Assam,26.41382,92.29890999999999
33,Bil Gaon,Assam,27.874000000000002,95.83322
340,Bindhakota Gaon,Assam,27.481109999999997,95.1717
322,Bini Hanse Gaon,Assam,26.19943,93.05239
382,Birahi Gaon,Assam,26.3071,92.74025999999999
384,Bishphutia Gaon,Assam,27.46688,95.36185
296,Sitolimari Gaon,Assam,26.39977,92.35258
218,Boloma Pothar Gaon,Assam,26.767770000000002,94.4857
60,Bongali Gaon,Assam,26.85015,93.38595
119,Bongaon,Assam,26.662029999999998,93.85146999999999
278,Bongaon,Assam,26.76748,94.20675
282,Bor Lalung Gaon,Assam,26.43133,92.85083
323,Borahajer Konwar Gaon,Assam,27.40918,94.88726
124,Borbam Gaon,Assam,27.650540000000003,94.70692
156,Borbam Gaon,Assam,27.44435,94.5347
221,Borhat Habi Gaon,Assam,27.02287,95.00668
237,Borhulla Habi Gaon,Assam,27.083790000000004,95.05877
326,Chamoguri Kachari Gaon,Assam,27.42632,94.89426999999999
233,Dakhin Dobragaon,Assam,26.552490000000002,90.34243000000001
303,Borthal Dolaigaon,Assam,26.45598,92.4148
277,Bunmaja Gaon,Assam,26.56928,90.98294
110,Bura Phangcho Gaon,Assam,26.14539,93.79079
287,Bura Terang Gaon,Assam,25.91271,93.44067
193,Burigaon,Assam,26.60115,92.19091999999999
167,Burisuti Kaibatra Gaon,Assam,27.266170000000002,94.78387
236,Chahni Habi Gaon,Assam,27.09481,95.04828
317,Chaikya Gaon,Assam,27.28593,95.32681
313,Chakalia Pather Gaon,Assam,27.404809999999998,95.11516999999999
155,Chakial Chapori Gaon,Assam,26.713070000000002,93.96918000000001
106,Chakial Gaon,Assam,26.93129,94.84680999999999
232,Dagorgaon,Assam,26.48948,90.35903
362,Denka Gaon,Assam,27.494840000000003,95.432
123,Chandra Rongpi Gaon,Assam,26.22835,93.80467
182,Changa Hiloi Gaon,Assam,26.704629999999998,92.50431999999999
230,Charagaon,Assam,26.5376,90.44524
200,Charaibahi Gaon,Assam,26.66705,94.19668
204,Charingia Bamun Gaon,Assam,26.864279999999997,94.4998
173,Charingia Gaon,Assam,26.72973,94.14331
105,Chatial Gaon,Assam,26.583109999999998,92.99107
336,Chetia Gaon,Assam,27.49503,95.17702
67,Chiboo Gaon,Assam,27.296999999999997,95.76991
149,Chirajuli Gaon,Assam,26.73325,92.49486999999999
162,Mulagaon,Assam,26.487809999999996,90.64366
165,Chola Pothar Gaon,Assam,27.08604,94.88431
192,Chowal Dhuwa Gaon,Assam,27.47124,94.55793
251,Chowdang Gaon,Assam,26.794359999999998,94.51184
109,Chungajan Gaon,Assam,26.12225,93.84215
333,Dadrangi Gaon,Assam,26.18528,92.60939
243,Daipangaon,Assam,26.73118,92.11265999999999
30,Dakhin Dakhingaon,Assam,26.729879999999998,90.5429
248,Dangagaon,Assam,26.486159999999998,90.51818
370,Darangial Gaon,Assam,26.277070000000002,92.75347
95,Darga Gaon,Assam,27.411440000000002,94.19393000000001
198,Kalugaon,Assam,26.40403,90.26975
246,Deka Chuburi Kudar Bari Gaon,Assam,26.68634,92.76456999999999
137,Gharfolia Maibelia Gaon,Assam,26.669079999999997,94.31017
261,Den Terang Gaon,Assam,25.86704,92.91152
279,Koibarta Gaon,Assam,26.781440000000003,94.19487
372,Dhalakhat Bagan Gaon,Assam,27.514,95.3662
121,Dhola Gaon,Assam,26.534540000000003,93.8816
312,Dhopabor Gaon,Assam,27.48697,95.13991999999999
42,Dhowachala Gaon,Assam,26.962740000000004,94.16202
255,Dighal Dal Gaon,Assam,26.79668,92.59599
4,Kachari Gaon,Assam,24.9637,92.75833
383,Kachamari Gaon,Assam,27.47771,95.33107
190,Dimow Golai Kachari Gaon,Assam,27.5811,94.71781
88,Dirgha Majgaon,Assam,27.326009999999997,94.15951
306,Dok Terang Gaon,Assam,25.83275,93.4105
266,Dologaon,Assam,26.53193,90.53715
276,Golagaon,Assam,26.49505,90.92785
112,Dorikamari Gaon,Assam,26.72498,94.04545999999999
63,Duarmara Gaon,Assam,27.28622,95.67015
252,Dulia Gaon,Assam,26.7999,94.51968000000001
135,Durga Gaon,Assam,26.454,91.87243000000001
144,Mola Gaon,Assam,26.9645,94.69322
47,Gagai Gaon,Assam,26.89929,93.72586
234,Hatichungi Gaon,Assam,26.70032,94.23308
48,Ghahi Gaon,Assam,26.74111,93.0715
217,Gharfalia Gaon,Assam,26.7369,94.45249
166,Ghetira Pather Gaon,Assam,27.24438,94.77704
184,Kurobaha Gaon,Assam,26.5048,91.08247
227,Gormara Sesa Bil Gaon,Assam,26.695359999999997,92.57106999999999
229,Pakerigurigaon,Assam,26.510479999999998,91.17655
107,Kachari Gaon,Assam,26.555670000000003,93.8408
327,Kamar Gaon,Assam,27.445120000000003,94.90388
164,Haren Rongphar Gaon,Assam,26.29317,93.84384
176,Hatigarh Gaon,Assam,27.633459999999996,95.66586
219,Kukurachowa Gaon,Assam,26.825359999999996,94.50654
300,Hemari Ronghang Gaon,Assam,25.87858,93.4455
262,Hidipi Hal Gaon,Assam,25.96262,93.47712
239,Hokani Pathar Gaon,Assam,27.46592,95.52935
346,Hukanpukhuri Gaon,Assam,27.47311,95.43539
264,Jamadarbari Gaon,Assam,26.50185,90.89041999999999
311,Japara Gaon,Assam,27.434820000000002,94.91986
78,Jarabari Gaon,Assam,26.98641,93.8872
31,Hatogaon,Meghalaya,25.9403,90.19825
307,Kachari Gaon,Assam,26.579309999999996,94.16899000000001
360,Mikir Gaon,Assam,26.18607,92.73608
215,Kalia Gaon,Assam,26.679090000000002,92.71989
308,Kamar Khatowal Gaon,Assam,26.580920000000003,94.17015
146,Kandulijan Gaon,Assam,27.534190000000002,94.73182
41,Kara Gaon,Assam,25.91505,93.64681999999999
284,Lokhijan Gaon,Assam,26.000970000000002,93.31291
122,Kharamokhagaon,Assam,26.793359999999996,92.29217
7,Khaser Gaon,Assam,24.613979999999998,92.32268
352,Khatobori Mikirgaon,Assam,26.23142,92.34935
195,Lomsum Gaon,Assam,26.12339,92.03891999999999
23,Bharalgaon,Meghalaya,25.69475,90.01212
212,No.1 Nazirating Gaon,Assam,27.54283,95.58635
309,Potia Gaon,Assam,26.59125,94.1624
75,Ramdhan Mali Gaon,Assam,27.754620000000003,95.11287
35,Naya Gaon,Bihar,26.24444,85.93841
426,Harigaon,Bihar,25.51184,84.54411
365,Sehangaon,Bihar,26.159689999999998,87.73692
280,Deogaon,Bihar,25.66548,87.74422
354,Malingaon,Bihar,26.344920000000002,87.96970999999999
89,Uchagaon,Bihar,25.13085,86.71175
98,Jamgaon,Bihar,25.15468,86.9678
375,Kallyangaon,Bihar,25.767,87.84205
377,Chandargaon,Bihar,25.992810000000002,87.73753
376,Surigaon,Bihar,25.83294,87.74739
49,Kargaon,Bihar,25.91529,86.40544
329,Phunagaon,Bihar,25.64003,87.99606999999999
378,Chandargaon,Bihar,26.27215,87.73315
43,Birgaon,Bihar,25.81604,86.93719
515,Chhotkagaon,Uttar Pradesh,26.316512,84.011824
50,Ratgaon,Bihar,25.50864,85.91376
318,Hatgaon,Bihar,26.384829999999997,87.70369000000001
348,Nimalagaon,Bihar,26.34828,88.23052
99,Kath Bangaon,Bihar,24.86272,87.11033
379,Khari Bangaon,Bihar,26.292726000000002,87.88353000000001
427,Nawak Gaon,Uttar Pradesh,25.86084,84.42621
800,Podagaon,Chhattisgarh,20.27589,81.95878
705,Deogaon,Chhattisgarh,22.03755,83.48822
824,Chandagaon,Chhattisgarh,19.68603,81.36171999999999
777,Aatargaon,Chhattisgarh,19.52415,81.33729
789,Achanakpur Nawagaon,Chhattisgarh,21.244970000000002,81.00508
776,Badgaon,Chhattisgarh,20.810579999999998,81.14712
760,Amagaon,Chhattisgarh,21.5223,80.99821999999999
700,Amgaon,Chhattisgarh,21.991120000000002,82.26807
759,Amgaon,Chhattisgarh,21.83394,81.12659000000001
693,Amgaon,Chhattisgarh,22.35233,82.64095
511,Thaggaon,Chhattisgarh,23.15404,82.43163
708,Muragaon,Chhattisgarh,21.115842999999998,82.52339599999999
687,Amgaon,Chhattisgarh,22.46564,83.21218
580,Dandgaon,Chhattisgarh,23.110020000000002,83.37609
802,Amgaon,Chhattisgarh,19.96066,81.72309
823,Amgaon,Chhattisgarh,19.587410000000002,81.66149
811,Amgaon,Chhattisgarh,19.83268,81.47711
550,Amgaon,Chhattisgarh,23.2139,82.86823000000001
96,Amgaon,Chhattisgarh,22.74755,81.91411
773,Nawagaon,Chhattisgarh,21.62257,81.51225
770,Atargaon,Chhattisgarh,21.00529,80.62838
809,Jamgaon,Chhattisgarh,20.091910000000002,81.59289
810,Uridgaon,Chhattisgarh,20.047537,81.832792
826,Bade Odagaon,Chhattisgarh,19.859360000000002,81.63595
692,Bare Degaon,Chhattisgarh,21.97488,83.008786
808,Badgaon,Chhattisgarh,20.03667,80.625
741,Nawagaon,Chhattisgarh,21.3981,81.8561
772,Hadigaon,Chhattisgarh,19.784589999999998,81.90621
701,Bhuigaon,Chhattisgarh,21.77966,82.38056
728,Dahigaon,Chhattisgarh,19.89575,82.66011999999999
755,Bajrangpur Nawagaon,Chhattisgarh,21.19019,81.12472
653,Kukargaon,Chhattisgarh,22.55169,83.59971999999999
812,Bhatgaon,Chhattisgarh,19.987920000000003,81.46216
688,Jhargaon,Chhattisgarh,22.92557,84.23246999999999
704,Garhgaon,Chhattisgarh,21.278679999999998,82.82458000000001
706,Khorigaon,Chhattisgarh,21.56609,83.26969
813,Dogargaon,Chhattisgarh,20.96998,80.85
763,Bargaon,Chhattisgarh,21.86665,81.85622
822,Belgaon,Chhattisgarh,19.3031,82.1022
805,Belgaon,Chhattisgarh,19.585810000000002,81.93515
821,Kudalgaon,Chhattisgarh,19.25098,82.03126999999999
390,Amgaon,Madhya Pradesh,23.969820000000002,81.79073000000001
754,Belgaon,Chhattisgarh,21.66112,81.09638000000001
825,Belgaon,Chhattisgarh,19.72008,81.24674
751,Majgaon,Chhattisgarh,21.776410000000002,81.2446
778,Bendra Nawagaon,Chhattisgarh,20.72641,81.64565
791,Bhadisgaon,Chhattisgarh,19.17601,81.74302
762,Kotgaon,Chhattisgarh,20.99446,81.72345
801,Taragaon,Chhattisgarh,19.31403,81.84646
779,Chapgaon,Chhattisgarh,20.70647,81.5494
710,Bhatgaon,Chhattisgarh,21.13576,82.37057
744,Bhatgaon,Chhattisgarh,21.61084,81.25983000000001
691,Pangaon,Chhattisgarh,21.65664,82.16471999999999
764,Nawagaon,Chhattisgarh,20.953229999999998,81.43844
765,Bheriya Nawagaon,Chhattisgarh,20.68156,81.42246999999999
782,Bhiragaon,Chhattisgarh,20.3034,81.0729
786,Birgaon,Chhattisgarh,22.06622,81.68623000000001
804,Bodagaon,Chhattisgarh,20.12497,81.28914
829,Michgaon,Chhattisgarh,20.364620000000002,80.74871999999999
766,Boirgaon,Chhattisgarh,20.74821,81.8506
740,Saragaon,Chhattisgarh,20.794179999999997,82.22329
783,Odgaon,Chhattisgarh,20.489710000000002,81.08726999999999
689,Dargaon,Jharkhand,23.2087,84.19841
814,Gungeri Nawagaon,Chhattisgarh,21.119529999999997,80.78774
827,Churegaon,Chhattisgarh,19.7812,81.64766
780,Potgaon,Chhattisgarh,20.34372,81.34321
830,Kodogaon,Chhattisgarh,20.282420000000002,80.83214
828,Chawargaon,Chhattisgarh,20.287029999999998,80.70655
775,Che.B. Nawagaon,Chhattisgarh,20.79249,81.06794000000001
788,Daragaon,Chhattisgarh,21.097520000000003,81.03412
743,Dongrigaon,Chhattisgarh,20.63416,82.06133
799,Deogaon,Chhattisgarh,20.09788,81.15743
768,Nawagaon,Chhattisgarh,21.967879999999997,81.50218000000001
709,Nawagaon,Chhattisgarh,21.21057,82.33213
781,Dhangaon,Chhattisgarh,22.10744,81.55209
711,Dongargaon,Chhattisgarh,21.046960000000002,82.38410999999999
803,Kanagaon,Chhattisgarh,20.0252,81.33734
529,Ghodagaon,Chhattisgarh,19.54415,81.03453
707,Jhargaon,Odisha,21.80043,83.49767
817,Jiragaon,Chhattisgarh,19.08532,82.01825
757,Majgaon,Chhattisgarh,22.010460000000002,81.24136
798,Juna Gabadegaon,Chhattisgarh,20.045289999999998,81.06973
686,Kanhalgaon,Maharashtra,19.991670000000003,80.43392
769,Kotgaon,Chhattisgarh,20.9441,81.2029
758,Kotgaon,Chhattisgarh,21.83334,81.12585
774,Majgaon,Chhattisgarh,21.91064,81.61076
597,Mitthu Nawagaon,Chhattisgarh,22.3289,82.11719000000001
820,Mandagaon,Chhattisgarh,20.13789,80.76937
767,Nawagaon,Chhattisgarh,20.81728,81.87686
787,Nawagaon,Chhattisgarh,22.055139999999998,81.6791
934,Ladgaon,Maharashtra,20.5343,73.68299
13,Barauli Nawagaon,Uttar Pradesh,29.695428000000003,77.515227
424,Hathan Gaon,Haryana,27.80405,77.25206999999999
415,Kail Gaon,Haryana,28.29353,77.311
399,Naya Gaon,Rajasthan,27.91403,76.72905
37,Baragaon,Rajasthan,28.046840000000003,75.48698
396,Majhgaon,Himachal Pradesh,31.205009999999998,77.78365
391,Badgaon,Himachal Pradesh,31.75672,76.91006
400,Nal -Ka- Gaon,Himachal Pradesh,31.04652,77.03432
401,Bhatka Gaon,Himachal Pradesh,30.900129999999997,76.96361
398,Nawagaon,Himachal Pradesh,31.093359999999997,77.36962
404,Reoshti Gaon,Himachal Pradesh,30.805329999999998,77.72759
681,Gajgaon,Jharkhand,22.98901,85.26538000000001
469,Noagaon,Jharkhand,22.50674,86.59855999999999
684,Mahugaon,Jharkhand,23.18282,84.91011
644,Majgaon,Jharkhand,22.62387,86.04055
416,Bargaon,Jharkhand,24.03809,85.22582
685,Telgaon,Jharkhand,23.02646,84.5084
683,Burgaon,Jharkhand,23.43979,84.68418
589,Nuagaon,Odisha,21.971870000000003,85.27767
392,Tithibhargaon,Jharkhand,24.08001,84.57228
676,Bhuyan Deogaon,Jharkhand,22.720272,85.49853
402,Upraili Murgaon,Jharkhand,23.97631,85.72548
40,Sahargaon,Jharkhand,24.575229999999998,87.71772
645,Jhargaon,Jharkhand,23.0197,85.67153
586,Gobrogaon,Jharkhand,22.104163,85.67224499999999
81,Chhota Bangaon,Jharkhand,25.068333,87.589973
576,Deogaon,Odisha,21.82556,84.94136999999999
690,Shingargaon,Karnataka,15.3402,74.5494
696,Jamagaon,Karnataka,15.553189999999999,74.38337
393,Bedasgaon,Karnataka,14.76174,74.93070999999999
1170,Kokalgaon,Maharashtra,18.33595,77.43549
1169,Bawalgaon,Karnataka,18.42456,77.35589
1152,Bhavani Bijalgaon,Karnataka,18.23375,77.18241
947,Sehgaon,Maharashtra,17.357039,75.906164
617,Hiranagaon,Karnataka,17.69453,76.97617
1147,Gondgaon,Karnataka,18.217029999999998,77.34336
849,Kalsar Tugaon,Karnataka,17.89171,77.29800999999999
956,Hippalgaon,Karnataka,18.025760000000002,77.50062
761,Dhotargaon,Karnataka,17.463625,76.60380699999999
863,Palasgaon,Maharashtra,17.79324,76.62595
878,Hingangaon,Maharashtra,16.97767,74.85994000000001
1153,Ambegaon,Maharashtra,18.22087,77.05879
699,Pattihal Kariyat Sampagaon,Karnataka,15.8175,74.85263
884,Uchgaon,Maharashtra,16.69378,74.2667
638,Badgaon,Madhya Pradesh,22.571920000000002,77.29656
941,Nimgaon,Madhya Pradesh,21.239160000000002,76.28425
598,Lolgaon,Madhya Pradesh,22.569838,79.4768
792,Dhusgaon,Madhya Pradesh,21.818389,75.250265
785,Agar Gaon,Madhya Pradesh,21.854860000000002,75.40973000000001
470,Badagaon,Madhya Pradesh,24.490389999999998,81.44293
621,Ajabgaon,Madhya Pradesh,22.75693,78.15096
745,Badgaon,Madhya Pradesh,21.71302,75.0936
1015,Kalamgaon,Madhya Pradesh,21.591920000000002,78.47216999999999
718,Bodgaon,Madhya Pradesh,22.12865,74.5517
641,Angaon,Madhya Pradesh,22.239810000000002,77.18342
1045,Rajegaon,Madhya Pradesh,21.76737,80.05705999999999
1022,Binjalgaon,Madhya Pradesh,21.498134,80.422533
843,Mohgaon,Madhya Pradesh,22.215510000000002,80.55924
862,Chandan Gaon,Madhya Pradesh,21.91305,79.15626
627,Amgaon,Madhya Pradesh,22.88685,78.53217
628,Mothegaon,Madhya Pradesh,22.93039,78.9992
940,Godegaon,Madhya Pradesh,21.93478,79.53506
794,Hasangaon,Madhya Pradesh,21.896437,75.5751
725,Sisgaon,Madhya Pradesh,22.08709,74.87974
386,Bhonsalegaon,Madhya Pradesh,24.623079999999998,77.52762
546,Nowgaon,Madhya Pradesh,25.0632203,79.44028809999999
418,Badagaon,Madhya Pradesh,24.140929999999997,79.55385
559,Naiagaon,Madhya Pradesh,23.805838,79.901761
414,Bangaon,Madhya Pradesh,23.89785,80.7345
407,Tallgaon,Madhya Pradesh,24.45533,80.24748000000001
555,Padengaon,Madhya Pradesh,24.862820000000003,81.7367
420,Garhigaon,Rajasthan,26.203544,76.998716
405,Nayagaon,Madhya Pradesh,25.58435,77.75048000000001
554,Belgaon,Madhya Pradesh,24.574679999999997,82.11661
944,Karajgaon,Madhya Pradesh,21.75185,78.18364
945,Badegaon,Madhya Pradesh,21.641170000000002,78.27447
985,Badgaon,Madhya Pradesh,21.739810000000002,79.8311
833,Kolgaon,Madhya Pradesh,21.670170000000002,77.66225
943,Rajegaon,Madhya Pradesh,21.91469,78.29760999999999
746,Badgaon,Madhya Pradesh,22.11422,76.12611
756,Kanadgaon,Madhya Pradesh,22.12404,75.60911999999999
784,Machalgaon,Madhya Pradesh,21.925045,75.787988
453,Karlgaon,Rajasthan,24.312110999999998,76.252319
588,Manegaon,Madhya Pradesh,23.66355,79.21244
682,Roligaon,Madhya Pradesh,22.52599,74.29271
428,Harangaon,Madhya Pradesh,23.47193,76.25498
438,Ghatigaon,Madhya Pradesh,26.134420000000002,78.1086
1044,Ghatolgaon,Madhya Pradesh,22.009970000000003,80.02979
648,Chhirgaon,Madhya Pradesh,22.342778,76.977163
796,Lakhangaon,Madhya Pradesh,22.07076,75.24772
647,Malagaon,Madhya Pradesh,22.59078,77.03068
748,Delgaon,Madhya Pradesh,21.82122,76.35638
860,Mohgaon,Madhya Pradesh,22.09918,79.10403000000001
853,Baniyagaon,Madhya Pradesh,22.40641,80.47431999999999
859,Kanhargaon,Madhya Pradesh,21.705470000000002,79.10571999999999
855,Chargaon,Madhya Pradesh,22.82062,80.06659
846,Chargaon,Madhya Pradesh,22.62389,80.07403000000001
133,Durgaon,Madhya Pradesh,23.6088,77.15038
611,Garagaon,Madhya Pradesh,22.474749,76.68786
724,Begalgaon,Madhya Pradesh,21.86901,74.83806
1043,Garhegaon,Maharashtra,21.43601,78.942484
1026,Burchiagaon,Madhya Pradesh,22.142567,80.064853
848,Pathadevgaon,Madhya Pradesh,23.025579999999998,80.43606
639,Nehrugaon,Madhya Pradesh,22.720779999999998,77.28495
795,Bhoolgaon,Madhya Pradesh,21.83063,75.63511
856,Bijegaon,Madhya Pradesh,22.80058,80.16043
847,Mohgaon,Madhya Pradesh,22.42099,80.14619
850,Bilgaon,Madhya Pradesh,22.597739999999998,80.61307
797,Sulgaon,Madhya Pradesh,22.13392,75.29774
629,Dongargaon,Madhya Pradesh,22.98043,79.24508
857,Diwangaon,Madhya Pradesh,22.23571,79.20829
861,Chandangaon,Madhya Pradesh,22.03182,78.92954
844,Majngaon,Madhya Pradesh,23.290295,80.66192
750,Mohgaon,Madhya Pradesh,22.41585,79.88166
1046,Thanegaon,Maharashtra,21.36469,79.96388
982,Kanhadgaon,Madhya Pradesh,21.744889999999998,80.21191
553,Ledgaon,Madhya Pradesh,22.67734,75.06709000000001
408,Deogaon,Madhya Pradesh,24.930629999999997,80.3156
742,Dongargaon,Madhya Pradesh,22.755879999999998,80.52839
851,Dhamangaon,Madhya Pradesh,22.50464,80.72421
422,Bargaon,Rajasthan,24.93497,75.59062
721,Gharadgaon,Madhya Pradesh,21.686738000000002,74.695799
852,Niwargaon,Madhya Pradesh,22.570045,80.363973
747,Mogargaon,Madhya Pradesh,22.325239,75.910464
793,Ghegaon,Madhya Pradesh,21.93884,75.35665
606,Meharagaon,Madhya Pradesh,22.60725,77.74789
942,Jharegaon,Madhya Pradesh,21.906009,77.827652
630,Koregaon,Madhya Pradesh,22.97936,79.61608000000001
632,Kachhargaon,Madhya Pradesh,23.57614,80.17421
752,Katargaon,Madhya Pradesh,22.22032,75.7984
749,Khaygaon,Madhya Pradesh,22.01318,76.478983
845,Mohgaon,Madhya Pradesh,22.669610000000002,79.92231
753,Manegaon,Madhya Pradesh,23.21341,80.01283000000001
842,Majhgaon,Madhya Pradesh,23.03056,80.03676
939,Mohgaon,Madhya Pradesh,21.8161,79.65685
406,Nayagaon,Madhya Pradesh,24.983520000000002,78.11455
1216,Chhatra Borgaon,Maharashtra,19.25789,76.29644
967,Phulgaon,Maharashtra,21.026906,75.897947
1195,Karalgaon,Maharashtra,18.51609,77.53413
980,Boregaon,Maharashtra,17.66691,76.13566
1020,Adegaon,Maharashtra,20.497629999999997,79.3763
986,Adegaon,Maharashtra,19.966520000000003,79.29677
734,Adegaon,Maharashtra,19.714470000000002,79.685
1007,Agargaon,Maharashtra,21.05187,78.81076999999999
1079,Adegaon,Maharashtra,20.58462,78.528
1016,Belgaon,Maharashtra,19.74514,78.98852
984,Sirajgaon,Maharashtra,21.17039,77.29699000000001
1002,Karajgaon,Maharashtra,21.13419,77.90657
1171,Shelgaon,Maharashtra,20.3589,75.43338
970,Babhulgaon,Maharashtra,20.51847,76.86636999999999
979,Pedgaon,Maharashtra,19.82307,77.24874
1188,Telgaon,Maharashtra,19.33592,77.00904
976,Deogaon,Maharashtra,21.212,75.53104
1085,Lon Pr. Bhadgaon,Maharashtra,20.63046,75.14474
1005,Songaon,Maharashtra,20.46295,75.00532
1176,Kambegaon,Maharashtra,18.99353,77.06528
1187,Bhoyagaon,Maharashtra,20.244997,74.175463
869,Adgaon,Maharashtra,20.065260000000002,73.41448000000001
895,Golegaon,Maharashtra,19.01689,73.72375
1051,Shirajgaon,Maharashtra,20.51975,77.72764000000001
938,Wadgaon,Maharashtra,19.979979999999998,77.45491
1180,Degaon,Maharashtra,19.234560000000002,77.03454
1088,Ghodegaon,Maharashtra,18.600179999999998,74.74348
915,Babhulgaon,Maharashtra,18.06242,75.08
865,Shejbabhulgaon,Maharashtra,17.76059,75.62754
1125,Kaudgaon,Maharashtra,19.10511,74.91067
1160,Pimpalgaon,Maharashtra,18.31502,75.66365
864,Pateregaon,Maharashtra,16.9037,73.53182
1080,Sonegaon,Maharashtra,20.68809,78.4273
1159,Angalgaon,Maharashtra,19.49405,76.34768000000001
1132,Ahergaon,Maharashtra,20.12441,73.98496999999999
1106,Ahernavargaon,Maharashtra,20.61105,79.8558
1066,Jaulgaon,Maharashtra,20.66151,78.66023
1030,Ajangaon,Maharashtra,20.2346,79.01274000000001
1010,Mohgaon,Maharashtra,21.398970000000002,78.72694
1110,Dhamangaon,Maharashtra,21.186120000000003,79.42798
1023,Talegaon,Maharashtra,20.91084,78.41405999999999
1094,Daygaon,Maharashtra,20.600469,78.782953
1033,Karegaon,Maharashtra,19.85776,76.92257
1075,Ajgaon,Maharashtra,20.67309,79.58849000000001
1255,Siddhanath Wadgaon,Maharashtra,19.81946,75.00738
1231,Dhangar Pimpalgaon,Maharashtra,19.72622,75.7084
998,Badegaon,Maharashtra,20.99302,77.61909
969,Rajegaon,Maharashtra,21.03622,76.91426
1198,Injangaon,Maharashtra,19.30777,77.17827
1192,Kaulgaon,Maharashtra,19.124012,77.144346
870,Nepatgaon,Maharashtra,17.63233,75.42052
1057,Borgaon,Maharashtra,20.53088,78.07649
818,Alewahi Alias Nawegaon,Maharashtra,19.96725,79.74162
1062,Dhondgaon,Maharashtra,20.81801,78.84184
1200,Nandgaon,Maharashtra,18.744510000000002,77.47296
966,Ahmadgaon,Maharashtra,20.930657,76.019126
832,Komgaon,Maharashtra,20.07594,72.86115
948,Mehargaon,Maharashtra,21.12627,75.10637
1230,Dongargaon,Maharashtra,19.76537,75.75912
1253,Ranjangaon,Maharashtra,19.84692,75.21965
1136,Waigaon,Maharashtra,18.599729999999997,77.01557
866,Dudgaon,Maharashtra,19.9817,73.64826
903,Ambegaon,Maharashtra,19.00496,73.94583
924,Mahagaon,Maharashtra,18.70156,73.51273
909,Nanegaon,Maharashtra,18.56193,73.58081
876,Kadegaon,Maharashtra,17.29799,74.40845999999999
1118,Ambegaon,Maharashtra,18.06191,75.9329
1091,Sonegaon,Maharashtra,21.00693,79.74018000000001
1070,Thanegaon,Maharashtra,20.721320000000002,79.57779000000001
1068,Kalamgaon,Maharashtra,20.621660000000002,79.96311999999999
1003,Gadegaon,Maharashtra,20.95334,80.41331
1055,Dahegaon,Maharashtra,21.37164,79.1494
1073,Gudegaon,Maharashtra,21.43794,79.37872
1077,Sonegaon,Maharashtra,20.79169,78.9572
1028,Amgaon,Maharashtra,21.01365,78.99519000000001
1232,Anchalgaon,Maharashtra,19.89422,74.48214
1238,Nimgaon,Maharashtra,20.098470000000002,74.78792
1173,Adalgaon,Maharashtra,18.521307999999998,76.466593
1109,Pimpalgaon,Maharashtra,21.34807,79.63563
959,Nagargaon,Maharashtra,18.60267,74.39903000000001
1121,Wadgaon,Maharashtra,19.424670000000003,77.94287
1142,Anegaon,Maharashtra,18.64591,76.15274000000001
1165,Devgaon,Maharashtra,19.53744,76.78783
1177,Gunjegaon,Maharashtra,18.966479999999997,76.74846
1179,Dhulgaon,Maharashtra,20.07529,74.42031999999999
879,Brahmangaon,Maharashtra,19.29713,73.06348
937,Saigaon,Maharashtra,17.58713,74.1419
1254,Ukkadgaon,Maharashtra,19.93654,74.65812
1050,Anjangaon,Maharashtra,20.78568,78.15205999999999
1056,Takalgaon,Maharashtra,20.587870000000002,78.13025999999999
1102,Antargaon,Maharashtra,20.77354,79.87444
816,Antargaon,Maharashtra,20.1966,79.83021
807,Antargaon,Maharashtra,20.29195,79.66029
987,Antargaon,Maharashtra,19.779139999999998,79.36570999999999
1084,Antargaon,Maharashtra,20.621570000000002,80.20931999999999
1004,Antargaon,Maharashtra,20.8159,80.40746
1151,Antargaon,Maharashtra,18.3946,75.54799
1060,Wadgaon,Maharashtra,20.85581,78.68056
1090,Khairgaon,Maharashtra,20.62728,79.02388
1052,Gondegaon,Maharashtra,20.282510000000002,77.83081999999999
1049,Pimpalgaon,Maharashtra,20.32418,78.62943
1221,Golegaon,Maharashtra,19.34371,75.15915
1224,Apegaon,Maharashtra,19.47296,75.41141999999999
1201,Nipani Savargaon,Maharashtra,18.63005,77.59167
1235,Kanhegaon,Maharashtra,19.51228,74.684
854,Taradgaon,Maharashtra,18.02927,74.24741
1134,Arangaon,Maharashtra,18.67455,75.18499
1143,Arangaon,Maharashtra,18.73811,75.94561999999999
1161,Jamgaon,Maharashtra,18.25611,75.73288000000001
989,Dhamangaon,Maharashtra,21.34819,77.44493
955,Dongaon,Maharashtra,20.19056,76.72034000000001
1101,Tadgaon,Maharashtra,20.81867,80.00769
901,Pohale T.Borgaon,Maharashtra,16.75554,74.00652
891,Majareshirgaon,Maharashtra,15.942279999999998,74.2142
931,Mugaon,Maharashtra,17.95165,73.7887
835,Matgaon,Maharashtra,19.9106,72.72322
1008,Fubgaon,Maharashtra,21.21546,77.67123000000001
1001,Sangaon,Maharashtra,20.19135,77.35544
1061,Asgaon,Maharashtra,20.79701,79.73274
935,Koregaon,Maharashtra,17.70104,74.16325
1087,Ukhalgaon,Maharashtra,18.87862,74.60625
1178,Khadgaon,Maharashtra,20.31696,74.49023000000001
885,Kandalgaon,Maharashtra,16.42144,74.04381
961,Ladegaon,Maharashtra,21.15145,77.03139
883,Avalegaon,Maharashtra,16.10528,73.76404000000001
1069,Naigaon,Maharashtra,20.787829000000002,79.589794
1219,Indegaon,Maharashtra,19.4494,75.56187
894,Mangaon,Maharashtra,19.384510000000002,73.60553
1036,Awalgaon,Maharashtra,20.10827,78.69613000000001
1164,Divegaon,Maharashtra,18.666520000000002,76.68784000000001
1220,Bhoygaon,Maharashtra,20.11478,75.50174
1032,Goregaon,Maharashtra,19.925,77.03157
975,Chorgaon,Maharashtra,21.0063,75.27534
1184,Wadgaon,Maharashtra,19.136779999999998,77.35176
1167,Narsapur Tarf Pedgaon,Maharashtra,19.2447,76.74308
917,Babhulgaon,Maharashtra,17.960279999999997,75.1426
1082,Babhulgaon,Maharashtra,20.57457,78.44124000000001
990,Degaon,Maharashtra,20.10821,77.14092
1202,Khairgaon,Maharashtra,18.83837,77.53443
1251,Bhadregaon,Maharashtra,19.51419,75.98777
1248,Khamgaon,Maharashtra,19.3509,75.72993000000001
1257,Jholegaon,Maharashtra,20.051367000000003,75.012571
1009,Naygaon,Maharashtra,21.2007,77.49324
1203,Balegaon,Maharashtra,18.96228,77.58904
905,Dahigaon,Maharashtra,19.290770000000002,73.62263
1258,Manegaon,Maharashtra,20.13081,74.93221
911,Sagaon,Maharashtra,18.67609,72.9168
889,Kattagaon,Maharashtra,15.97011,73.76985
858,Patgaon,Maharashtra,16.474510000000002,73.54113000000001
1247,Sadegaon,Maharashtra,19.39481,75.90176
964,Karasgaon,Maharashtra,17.999102,76.424667
981,Bhogaon,Maharashtra,17.7678,75.89304
1174,Chite Pimpalgaon,Maharashtra,19.78601,75.48921
978,Idgaon,Maharashtra,20.720048000000002,76.43023199999999
1191,Shelgaon,Maharashtra,19.23149,77.33842
908,Goregaon,Maharashtra,18.1536,73.29123
1011,Jamgaon,Maharashtra,21.29211,78.23544
957,Nimgaon,Maharashtra,17.525679999999998,76.24816
1150,Hippalgaon,Maharashtra,18.3854,76.8014
1014,Ganjgaon,Maharashtra,18.74584,77.8005
926,Bedisgaon,Maharashtra,18.91851,73.31978000000001
913,Chikhalgaon,Maharashtra,19.39057,73.49947
977,Zadegaon,Maharashtra,20.94379,76.46515
1228,Kolgaon,Maharashtra,19.33869,75.34571
1130,Kokangaon,Maharashtra,18.756520000000002,74.98823
1135,Bramhagaon,Maharashtra,18.83024,75.22488
1097,Belgaon,Maharashtra,21.22706,79.75367
1037,Belgaon,Maharashtra,20.10517,79.11301
723,Belgaon,Maharashtra,20.268179999999997,80.30588
815,Belgaon,Maharashtra,20.18259,80.00617
1252,Rewalgaon,Maharashtra,19.47557,75.82132
1163,Vilegaon,Maharashtra,18.71017,76.85047
1096,Kargaon,Maharashtra,20.78289,79.42342
1154,Belgaon,Maharashtra,20.54854,74.37718000000001
1244,Belpimpalgaon,Maharashtra,19.604129999999998,74.84345
834,Baitagaon,Maharashtra,19.783333,72.783333
739,Rojgaon,Maharashtra,21.07881,74.38643
886,Mahagaon,Maharashtra,16.14934,74.33943000000001
881,Patilgaon,Maharashtra,17.654510000000002,73.396
872,Jambhalgaon,Maharashtra,16.20404,73.8854
965,Dharangaon,Maharashtra,20.92409,76.21222
954,Nandra N.Chaingaon,Maharashtra,20.179389999999998,76.47081999999999
1119,Sonegaon,Maharashtra,18.31156,75.96977
1227,Bhandegaon,Maharashtra,20.05326,75.30037
1076,Jakhangaon,Maharashtra,19.08847,74.64961
1054,Pawagaon,Maharashtra,21.168232,79.183557
1128,Dongargaon,Maharashtra,19.511329999999997,77.6218
936,Degaon,Maharashtra,17.64603,74.04831999999999
1100,Pungaon,Maharashtra,20.68824,75.33773000000001
1214,Bramhagaon,Maharashtra,19.16038,76.20772
929,Shirgaon,Maharashtra,16.92592,73.9776
1197,Dagadgaon,Maharashtra,19.398410000000002,77.14931999999999
1193,Pimpalgaon,Maharashtra,19.012829999999997,77.17741
1166,Thadi Okhadgaon,Maharashtra,19.096135,76.53084
1040,Pimpalgaon,Maharashtra,19.72504,78.31282
1137,Bhogalgaon,Maharashtra,18.44228,75.61782
1175,Malegaon,Maharashtra,19.30344,77.28206
1168,Pedgaon,Maharashtra,19.31639,76.66185
1249,Bramhgaon,Maharashtra,19.25699,75.60956
838,Bodgaon,Maharashtra,21.05169,74.16929
877,Bhudhgaon,Maharashtra,16.9113517,74.6031922
1098,Bhugaon,Maharashtra,20.95091,79.93675
1242,Karadgaon,Maharashtra,19.65778,76.07683
1086,Yerangaon,Maharashtra,20.45727,78.70004
993,Ladegaon,Maharashtra,20.63091,77.53853000000001
790,Navagaon,Maharashtra,21.24186,73.86636
914,Bitargaon,Maharashtra,18.14324,75.17359
1156,Nandgaon,Maharashtra,20.52761,75.44573000000001
963,Sindagaon,Maharashtra,17.712567,76.346151
1021,Tisgaon,Maharashtra,20.276770000000003,73.94238
933,Shirgaon,Maharashtra,17.90295,74.00754
991,Ramgaon,Maharashtra,21.00992,77.81204
1241,Dhorkingaon,Maharashtra,19.61436,75.365696
1105,Dhanegaon,Maharashtra,21.46799,79.80789
1092,Rajegaon,Maharashtra,21.113139999999998,79.89187
1025,Borgaon,Maharashtra,21.3709,80.13401999999999
960,Tighre Wadgaon,Maharashtra,20.79192,75.90359000000001
1212,Relgaon,Maharashtra,20.35524,75.91351999999999
988,Borgaon,Maharashtra,21.11937,78.619
1111,Borgaon,Maharashtra,21.067729999999997,79.41984000000001
1053,Borgaon,Maharashtra,20.742420000000003,79.08893
1123,Jawalgaon,Maharashtra,19.389770000000002,77.78166
1131,Gaurgaon,Maharashtra,18.45199,76.13476999999999
882,Malegaon,Maharashtra,19.14176,73.42517
918,Pimpalgaon,Maharashtra,18.73607,73.15173
880,Jodhagaon,Maharashtra,17.48248,73.40874000000001
874,Ghogaon,Maharashtra,17.1213,74.38186999999999
1140,Borgaon,Maharashtra,18.44756,75.29979
1012,Sonegaon,Maharashtra,21.12073,78.33181
1067,Borgaon,Maharashtra,20.73645,78.60925999999999
1095,Nandgaon,Maharashtra,20.53333,78.83305
930,Borgaon,Maharashtra,19.65869,77.99475
946,Borgaon,Maharashtra,20.11958,78.15609
1029,Nandgaon,Maharashtra,20.0255,78.56644
1034,Suknegaon,Maharashtra,19.97821,78.93556
732,Bori Navegaon,Maharashtra,19.54875,79.59871
1144,Pimpalgaon,Maharashtra,18.633110000000002,75.72429
923,Brahmangaon,Maharashtra,19.25843,73.38956999999999
1233,Isgaon,Maharashtra,19.946879,74.487139
928,Nandgaon,Maharashtra,17.18163,74.12399
1107,Chak Kanhalgaon,Maharashtra,20.60814,79.83724000000001
735,Chak Nandgaon,Maharashtra,19.613789999999998,79.70456
925,Kargaon,Maharashtra,18.73082,73.29253
1256,Sirasgaon,Maharashtra,19.80431,74.83133000000001
921,Pargaon,Maharashtra,18.43923,72.96452
1155,Kanadgaon,Maharashtra,19.49311,74.45373000000001
1208,Pathar Deolgaon,Maharashtra,19.96711,75.83567
958,Dongargaon,Maharashtra,19.635360000000002,74.10115
868,Nandgaon,Maharashtra,19.91822,73.29355
1035,Chargaon,Maharashtra,20.098589999999998,78.73770999999999
1172,Chatgaon,Maharashtra,18.581879999999998,76.62159
738,Sadgaon,Maharashtra,20.81333,74.66064
1041,Deulgaon,Maharashtra,20.46804,79.98518
968,Mahagaon,Maharashtra,20.555320000000002,77.07200999999999
974,Chikhalgaon,Maharashtra,20.582520000000002,79.69078
873,Chikhalgaon,Maharashtra,17.68336,73.17083000000001
890,Nagargaon,Maharashtra,16.302410000000002,74.20744
1223,Kadi Wadgaon,Maharashtra,19.11525,76.07561
819,Chitegaon,Maharashtra,20.104770000000002,79.70067
887,Kasgaon,Maharashtra,19.19574,73.19404
1126,Wadgaon,Maharashtra,19.600620000000003,77.68829000000001
1246,Dahalegaon,Maharashtra,19.50139,76.10618000000001
1114,Morgaon,Maharashtra,21.26105,79.52476999999999
1186,Dahegaon,Maharashtra,20.07229,74.29138
1071,Kavithgaon,Maharashtra,20.63648,78.26384
1093,Dahegaon,Maharashtra,20.646320000000003,78.92634
1081,Maregaon,Maharashtra,20.494510000000002,78.44474
992,Honegaon,Maharashtra,20.14262,78.3134
906,Sogaon,Maharashtra,18.30708,75.01765999999999
1146,Sawargaon,Maharashtra,18.59251,75.49708000000001
1206,Daregaon,Maharashtra,20.00072,75.18916999999999
837,Daregaon,Maharashtra,20.915979999999998,74.04103
1122,Yehalegaon,Maharashtra,19.62044,77.07916
1225,Daregaon,Maharashtra,19.83321,76.28938000000001
1182,Godamgaon,Maharashtra,18.87888,77.44615
1099,Darregaon,Maharashtra,20.925320000000003,80.09035
920,Nandgaon,Maharashtra,18.48261,73.29446
1215,Dawargaon,Maharashtra,19.918229999999998,76.09148
1211,Nimgaon,Maharashtra,20.1928,75.75411
983,Sayyadgaon,Maharashtra,21.055039999999998,77.37145
1149,Lambewadgaon,Maharashtra,19.592939,76.427786
875,Shedgaon,Maharashtra,19.45159,73.128
1145,Raulasgaon,Maharashtra,18.75425,75.70602
1239,Dhalegaon,Maharashtra,19.28752,76.0306
1065,Dongargaon,Maharashtra,20.92442,78.69632
1158,Jodgaon,Maharashtra,19.387651,76.480713
839,Mahagaon,Maharashtra,19.76599,77.75211
836,Dhirajgaon,Maharashtra,21.36869,74.16143000000001
1019,Thugaon,Maharashtra,21.41853,78.46623000000001
1031,Dol.Dongargaon,Maharashtra,20.18299,78.83828000000001
1218,Domegaon,Maharashtra,19.5506,75.66513
1185,Palasgaon,Maharashtra,19.10199,77.59836
973,Shelgaon,Maharashtra,20.791710000000002,76.70013
953,Sisa Udegaon,Maharashtra,20.686483,77.10633
1074,Dongargaon,Maharashtra,20.67256,79.60289
1089,Dongargaon,Maharashtra,20.73326,80.15126
1103,Pethvadgaon,Maharashtra,19.54705,77.37533
1013,Khangaon,Maharashtra,21.298579999999998,78.54445
1112,Wadegaon,Maharashtra,21.0218,79.20343000000001
899,Shelgaon,Maharashtra,18.73411,73.93745
871,Manegaon,Maharashtra,17.302020000000002,75.12572
1058,Pawangaon,Maharashtra,20.48716,79.04897
1250,Gadhe Sawargaon,Maharashtra,19.69406,75.94174
1229,Malegaon,Maharashtra,19.20809,75.23136
907,Majgaon,Maharashtra,18.227629999999998,73.60833000000001
1222,Sawargaon,Maharashtra,19.18958,76.13781999999999
1104,Salegaon,Maharashtra,19.621920000000003,77.28859
972,Kawadgaon,Maharashtra,20.706870000000002,76.57303
1162,Sunegaon,Maharashtra,18.7758,76.97078
922,Pimpalgaon,Maharashtra,19.30711,73.40408000000001
806,Ghargaon,Maharashtra,19.93918,79.89107
1139,Tatborgaon,Maharashtra,18.56887,76.25613
1027,Palasgaon,Maharashtra,21.194370000000003,80.18666
1083,Kanhalgaon,Maharashtra,20.684839999999998,80.21840999999999
1207,Godhegaon,Maharashtra,19.344379999999997,74.87743
1006,Karajgaon,Maharashtra,20.375420000000002,74.88743000000001
1236,Haste Pimpalgaon,Maharashtra,19.734273,76.151549
1157,Malegaon,Maharashtra,20.554489999999998,74.53403
1213,Pichadgaon,Maharashtra,19.5308,75.02566999999999
893,Gojegaon,Maharashtra,17.35279,73.78031
912,Mangaon,Maharashtra,19.44763,73.39346
1199,Golegaon,Maharashtra,18.95045,77.67124
896,Pimpalgaon,Maharashtra,19.142329999999998,73.92690999999999
927,Golegaon,Maharashtra,18.08954,74.05069
1018,Pimpalgaon,Maharashtra,21.44499,78.56442
1024,Bhasgaon,Maharashtra,21.331362,80.234812
898,Goregaon,Maharashtra,17.43711,74.32177
1217,Suramgaon,Maharashtra,19.172622,76.353032
698,Govindgaon,Maharashtra,19.41525,80.00561
932,Mahigaon,Maharashtra,17.7925,73.93132
1243,Irgaon,Maharashtra,19.13559,75.82005
1183,Kurudgaon,Maharashtra,20.06532,74.1127
897,Jamgaon,Maharashtra,18.60708,73.72324
919,Wasgaon,Maharashtra,18.395329999999998,73.21712
971,Kathargaon,Maharashtra,21.0094,76.69573000000001
1148,Sangaon,Maharashtra,18.663520000000002,76.43319
1210,Jaygaon,Maharashtra,19.05205,76.31331
1133,Mohagaon,Maharashtra,19.9367,73.91704
1189,Ranisawargaon,Maharashtra,18.86264,76.86284
1194,Vazirgaon,Maharashtra,19.000339999999998,77.46194399999999
1120,Manegaon,Maharashtra,19.73847,74.3375
962,Kadgaon,Maharashtra,21.08843,75.6812
900,Vanavli T. Ategaon,Maharashtra,17.77165,73.73618
888,Saigaon,Maharashtra,15.986770000000002,73.63875
1113,Kanhalgaon,Maharashtra,21.05647,79.13139
910,Mazgaon,Maharashtra,18.20874,73.82043
1042,Karegaon,Maharashtra,20.21633,78.50709
892,Sulgaon,Maharashtra,16.12979,74.21246
1245,Kaudgaon,Maharashtra,19.20073,75.64584
1190,Kavadgaon,Maharashtra,18.93575,76.802715
840,Kaudgaon,Maharashtra,19.884629999999998,77.70204
1138,Malegaon,Maharashtra,19.82414,76.40816
1047,Pimpalgaon,Maharashtra,20.40529,78.12139
1141,Raogaon,Maharashtra,18.452583999999998,75.116833
1078,Khedegaon,Maharashtra,20.67006,80.18167
1072,Philgaon,Maharashtra,21.328913,79.404748
1226,Shelgaon,Maharashtra,20.08494,75.39545
1240,Shripat Dhamangaon,Maharashtra,19.348642,76.12185600000001
1127,Kolgaon,Maharashtra,19.4045,77.64911
904,Nagaon,Maharashtra,19.276870000000002,73.4985
997,Shiwangaon,Maharashtra,21.03993,77.95455
1209,Malegaon,Maharashtra,20.23532,75.3105
1124,Rawangaon,Maharashtra,19.36737,77.55329
916,Malegaon,Maharashtra,17.98545,75.18956
1038,Mangaon,Maharashtra,20.15774,79.01204
1115,Nawegaon,Maharashtra,21.19065,79.58325
1204,Salegaon,Maharashtra,18.88447,77.60786999999999
1117,Sonegaon,Maharashtra,20.96568,79.29284
1064,Shivangaon,Maharashtra,20.89914,78.75131999999999
1234,Nipani Wadgaon,Maharashtra,19.59746,74.70059
995,Sawargaon,Telangana,18.877129999999998,77.94986
717,Navegaon,Maharashtra,21.677979999999998,79.41927
1116,Navegaon,Maharashtra,20.976470000000003,79.32976
841,Naygaon,Maharashtra,18.36984,74.27026
1237,Salegaon,Maharashtra,19.80348,76.17653
1181,Tambalgaon,Maharashtra,18.937469,76.964538
1205,Sahangaon,Maharashtra,20.3566,75.25178000000001
1129,Shelgaon,Maharashtra,18.335739999999998,75.24999
1048,Wadgaon,Maharashtra,20.3728,78.10443000000001
902,Vapahgaon,Maharashtra,18.87935,73.990871
1063,Waigaon,Maharashtra,20.74481,78.86681999999999
28,Batajolgaon,Meghalaya,25.50636,89.891
29,Dufrigaon,Meghalaya,25.44282,89.92711
11,Budhagaon,Odisha,19.48865,84.17974
713,Adgaon,Odisha,21.33716,83.59229
44,Badigaon,Odisha,18.74299,82.83133000000001
522,Borigaon,Odisha,19.84221,85.1339
694,Hatgaon,Odisha,21.21141,83.88752
736,Mahagaon,Odisha,20.07331,83.23055
719,Babukelgaon,Odisha,20.483629999999998,83.41229
731,Atigaon,Odisha,19.85971,82.93623000000001
727,Balagaon,Odisha,19.44158,82.84685999999999
471,Garudgaon,Odisha,20.55572,85.94311
722,Padiagaon,Odisha,20.110960000000002,83.09184
712,Badgaon,Odisha,21.24669,83.70655
528,Boragaon,Odisha,20.27246,85.23093
527,Natugaon,Odisha,20.16566,85.15548000000001
481,Nagaon,Odisha,20.713729999999998,84.56342
729,Bandhagaon,Odisha,19.97599,82.95161999999999
726,Bargaon,Odisha,19.58305,82.84444
703,Mahagaon,Odisha,20.09899,82.64423000000001
737,Mundagaon,Odisha,20.04124,83.34846
715,Daragaon,Odisha,20.38252,82.67535
697,Kulgaon,Odisha,22.24117,84.26371999999999
590,Barigaon,Odisha,21.17207,86.12233
591,Dudugaon,Odisha,21.164270000000002,86.25166
695,Kesalgaon,Odisha,20.91195,83.91152
482,Batagaon,Odisha,20.39988,84.5865
720,Kamegaon,Odisha,20.34262,83.65841999999999
733,Talabelgaon,Odisha,19.86136,83.171
475,Bhaluragaon,Odisha,20.38512,84.10725
534,Tentuligaon,Odisha,21.63598,86.77409
716,Boirgaon,Odisha,20.28143,82.52884
610,Deogaon,Odisha,21.76238,85.81184
518,Nuagaon,Odisha,20.01901,84.97870999999999
525,Ghodamari Nuagaon,Odisha,20.34809,85.07231999999999
474,Gundargaon,Odisha,20.50309,84.18991
714,Nagaon,Odisha,20.93082,83.51380999999999
702,Jhirigaon,Odisha,19.59539,83.00184
730,Kaleigaon,Odisha,19.883670000000002,82.99391
609,Noigaon,Odisha,21.797134,85.520639
523,Kandaragaon,Odisha,19.62807,85.25324
435,Panchagaon,Odisha,20.174570000000003,85.80266999999999
17,Nuagaon,Odisha,20.83618,86.79387
499,Nuagaon,Odisha,20.2967,85.41396999999999
460,Machgaon,Odisha,20.069157999999998,86.271424
38,Ghata Ka Gaon,Rajasthan,23.59754,73.9523
90,Agalgaon,Rajasthan,25.25466,73.92876
10,Alam Ka Gaon,Rajasthan,26.90264,70.94614
467,Nayagaon,Rajasthan,25.74804,76.28149
19,Khindara Gaon,Rajasthan,25.22937,73.16258
9,Baroragaon,Rajasthan,26.859890999999998,71.176482
454,Naya Gaon,Rajasthan,24.2774,76.51303
458,Nandgaon,Rajasthan,25.53458,75.61558000000001
444,Naugaon,Rajasthan,26.94047,76.96114
413,Rampurawas Devgaon,Rajasthan,26.7298,76.0566
445,Baragaon,Rajasthan,26.70678,76.71641
5,Naya Gaon,Rajasthan,27.384459999999997,73.55299000000001
12,Barath Ka Gaon,Rajasthan,26.72154,71.98016
387,Bargaon,Rajasthan,26.59634,74.94505
459,Haripura @ Nayagaon,Rajasthan,25.26708,76.14152
20,Digaon,Rajasthan,24.88697,72.01706
16,Ransigaon,Rajasthan,26.359021999999996,73.752495
91,Bargaon,Rajasthan,24.645129999999998,73.69309
15,Purana Gaon,Rajasthan,25.890320000000003,71.75712
39,Mana Gaon,Rajasthan,24.0753,74.39559
2,Bhane Ka Gaon,Rajasthan,27.791629999999998,72.81387
3,Bheemji Ka Gaon,Rajasthan,27.37968,72.35738
433,Chak Unchagaon,Rajasthan,27.13059,77.4841
442,Naugaon,Rajasthan,26.440040000000003,76.68233000000001
448,Nayagaon,Rajasthan,25.85693,75.53184
18,Nimbali Gaon,Rajasthan,26.033279999999998,73.07871
389,Doongaji Ka Gaon,Rajasthan,25.735210000000002,74.08185999999999
14,Jase Ka Gaon,Rajasthan,26.17168,71.20492
21,Machgaon,Rajasthan,24.587873000000002,72.7098
36,Nawa Gaon,Rajasthan,23.87363,73.52894
388,Naya Gaon,Rajasthan,26.05045,74.43254
403,Naya Gaon,Rajasthan,25.284660000000002,75.00138000000001
468,Naya Gaon,Rajasthan,25.99559,75.88933
425,Neemgaon,Uttar Pradesh,27.49387,77.46222
27,Kamigaon,Sikkim,27.163361,88.278795
1059,Navegaon,Telangana,19.43563,78.45622
541,Algaon,Telangana,18.95703,79.78950999999999
996,Hadgaon,Telangana,19.03124,78.08547
1039,Maleborgaon,Telangana,19.677139999999998,78.53308
605,Anthergaon,Telangana,17.468770000000003,78.1251
1196,Elegaon,Telangana,18.5064,77.62313
1000,Babalgaon,Telangana,19.10481,78.00598000000001
1108,Babulgaon,Telangana,18.36351,77.68553
867,Panchagaon,Telangana,18.03905,77.78065
999,Badgaon,Telangana,19.092570000000002,77.95115
952,Kammergaon,Telangana,19.366229999999998,79.29356
994,Boregaon,Telangana,19.18244,78.29486
673,Boregaon,Telangana,17.76428,77.71557
949,Boregaon,Telangana,19.36011,79.47827
831,Borgaon,Telangana,18.706229999999998,78.1411
951,Goigaon,Telangana,19.554965,79.340861
771,Jangaon,Telangana,18.4083,78.19776
950,Navegaon,Telangana,19.31559,79.37477
585,Ahlad Gaon,Uttar Pradesh,27.97327,81.48914
584,Tiwari Gaon,Uttar Pradesh,27.86788,81.65890999999999
660,Majhilgaon,Uttar Pradesh,25.755421,81.180224
656,Kusalgaon,Uttar Pradesh,25.973084,82.773728
423,Chak Bihgaon,Uttar Pradesh,25.58469,79.66363
566,Pahargaon,Uttar Pradesh,25.873639999999998,79.06600999999999
678,Roti Gaon,Uttar Pradesh,27.032390000000003,81.31549
671,Pakaryagaon,Uttar Pradesh,26.725293,81.68844200000001
677,Babrigaon,Uttar Pradesh,27.000528999999997,81.065733
672,Baburi Gaon,Uttar Pradesh,26.71296,81.51246
659,Baburi Gaon,Uttar Pradesh,25.60373,82.47759
479,Bara Gaon,Uttar Pradesh,27.254040000000003,78.40464
565,Maharajgaon,Uttar Pradesh,27.587213000000002,81.633147
432,Pachhiangaon,Uttar Pradesh,26.752822,78.850587
664,Pachimgaon,Uttar Pradesh,27.206090000000003,80.88807
524,Naugaon,Uttar Pradesh,27.6483,78.80253
533,Shaha Urf Pipalgaon,Uttar Pradesh,25.41976,81.76872
670,Baigaon,Uttar Pradesh,26.48446,80.69404
596,Ujaramau Nayagaon,Uttar Pradesh,27.461990000000004,79.68643
663,Tribhuvan Baragaon,Uttar Pradesh,25.3321,82.37255
614,Uncha Gaon,Uttar Pradesh,26.00243,83.15422
661,Bandhgaon,Uttar Pradesh,26.17774,82.588
646,Machli Gaon,Uttar Pradesh,26.382640000000002,82.70418000000001
579,Bankagaon,Uttar Pradesh,27.832644000000002,80.07742900000001
674,Bans Gaon,Uttar Pradesh,26.2946,82.4635
615,Kuwan Gaon,Uttar Pradesh,26.802329999999998,82.36805
675,Gopalpur Bara Gaon,Uttar Pradesh,26.27037,82.22662
680,Rasigaon,Uttar Pradesh,26.100492000000003,80.869108
666,Targaon,Uttar Pradesh,26.271009999999997,80.36693000000001
395,Uncha Gaon,Uttar Pradesh,28.48619,79.01481
637,Upatapar Basgaon,Uttar Pradesh,26.30552,82.96781999999999
417,Baragaon,Uttar Pradesh,28.18915,77.92923
594,Nayagaon,Uttar Pradesh,27.07623,80.23810999999999
569,Int Gaon,Uttar Pradesh,28.26705,79.86247
662,Gird Bargaon,Uttar Pradesh,25.285344,82.651071
634,Tiragaon,Uttar Pradesh,26.36372,83.28315400000001
572,Sonraiech Urf Bragaon,Uttar Pradesh,26.83967,83.52264
651,Thakur Gaon,Uttar Pradesh,26.68057,79.69266999999999
567,Garhi Kargaon,Uttar Pradesh,25.55526,79.0351
669,Uttar Gaon,Uttar Pradesh,26.44385,81.56966
667,Utargaon,Uttar Pradesh,26.559965000000002,81.744483
616,Bhoingaon,Uttar Pradesh,26.98716,82.40054599999999
631,Gurgaon,Uttar Pradesh,26.278979999999997,79.82978
668,Purab Gaon,Uttar Pradesh,26.471790000000002,81.71636
665,Utargaon,Uttar Pradesh,26.114853,81.815336
421,Neem Gaon,Uttar Pradesh,27.658820000000002,77.81045999999999
636,Majha Nayagaon,Uttar Pradesh,26.493809999999996,82.93208
658,Machhligaon,Uttar Pradesh,25.902562,82.517225
657,Mahgaon,Uttar Pradesh,25.49774,82.95144
345,Babhanigaon,Uttar Pradesh,24.698073,83.271102
652,Rasual Rawatgaon,Uttar Pradesh,26.568296999999998,79.81599399999999
595,Naya Gaon,Uttar Pradesh,27.37312,79.24506
603,Targaon,Uttar Pradesh,27.13878,82.07408000000001
679,Sehgon Pashchim Gaon,Uttar Pradesh,26.539440000000003,81.12241999999999
530,Adhul Gaon,Uttarakhand,30.151090000000003,78.67262
557,Adigaon Fuloli & Chak Adigaon,Uttarakhand,29.81843,79.28147
447,Airal Gaon,Uttarakhand,30.424970000000002,78.24547
486,Dangi Gaon,Uttarakhand,29.802020000000002,80.13573000000001
544,Dobhal Gaon,Uttarakhand,30.252570000000002,78.46892
602,Amdar Gaon,Uttarakhand,29.771620000000002,78.87033000000001
502,Amgaon,Uttarakhand,29.97635,78.41736
535,Ankwan Gaon,Uttarakhand,30.431759999999997,78.65278
430,Annagaon,Uttarakhand,30.11005152,80.34026091
409,Atal Gaon,Uttarakhand,29.79822,80.25569
498,Masalgaon,Uttarakhand,30.841559999999998,78.23975
485,Bachhan Gaon,Uttarakhand,30.43423778,78.53736056
577,Nau Gaon,Uttarakhand,29.808740000000004,78.73905
570,Badasain Urf Bara Gaon,Uttarakhand,29.846529999999998,79.03527
476,Badhani Gaon,Uttarakhand,29.5566,79.34436
537,Ban Gaon,Uttarakhand,30.58312,78.32578000000001
625,Badiyar Gaon,Uttarakhand,29.999779999999998,78.81121
507,Bhar Gaon,Uttarakhand,30.39382,78.79961999999999
635,Badol Gaon,Uttarakhand,29.852209999999996,78.60174
568,Badon Gaon,Uttarakhand,30.36683,78.42882
612,Badthwal Gaon,Uttarakhand,30.15035,78.79866
480,Kanal Gaon,Uttarakhand,29.724009999999996,79.50140999999999
562,Bagdiyalgaon,Uttarakhand,29.925891999999997,79.16300600000001
466,Bagral Gaon,Uttarakhand,30.309520000000003,78.04889
526,Kotiyal Gaon,Uttarakhand,30.72927,78.4376
487,Suriyagaon,Uttarakhand,29.350640000000002,79.54500999999999
649,Bair Gaon,Uttarakhand,29.920579999999998,78.67611
505,Sutargaon Chak Bamangaon,Uttarakhand,29.76548,79.77935
491,Bajigaon,Uttarakhand,29.87296,79.71419
477,Kadwalgaon,Uttarakhand,29.378162,79.989645
503,Bhuli Gaon,Uttarakhand,29.653879999999997,80.04184000000001
626,Baloni Gaon,Uttarakhand,29.95875,78.76041
543,Baman Gaon,Uttarakhand,29.886640000000003,79.35288
607,Baman Gaon,Uttarakhand,30.08015,78.77490999999999
583,Baman Gaon,Uttarakhand,29.77492,78.90448
440,Baman Gaon,Uttarakhand,30.566259999999996,78.00565999999999
429,Bhandari Gaon,Uttarakhand,30.0197,80.15080999999999
462,Galla Gaon,Uttarakhand,29.43637,80.09595999999999
600,Bangari Gaon,Uttarakhand,30.21542,78.67806
514,Baniegaon,Uttarakhand,29.84975,79.9875
549,Baniya Gaon,Uttarakhand,29.657529999999998,78.98428
397,Bhalgaon,Uttarakhand,30.553729999999998,79.5636
599,Bariyal Gaon,Uttarakhand,30.23957,78.68943
542,Barlgaon,Uttarakhand,29.87895,79.35849
441,Barna Gaon,Uttarakhand,29.710929999999998,80.18383
517,Barurigaon,Uttarakhand,29.908309999999997,79.94904
419,Barwal Gaon,Uttarakhand,30.51367,78.49513
504,Mahatolliya Gaon,Uttarakhand,29.457309999999996,79.71743000000001
489,Naugaon,Uttarakhand,29.63918,79.61386999999999
519,Basgaon,Uttarakhand,29.39286,79.45221
520,Sural Gaon,Uttarakhand,29.511490000000002,79.60037
510,Batal Gaon,Uttarakhand,29.878009999999996,79.89584
450,Bed Gaon,Uttarakhand,30.17875,79.32987
604,Dewal Gaon,Uttarakhand,30.03238,78.70397
618,Bhatt Gaon,Uttarakhand,29.89408,78.48713000000001
578,Bedur Gaon,Uttarakhand,29.80439,78.79517
449,Beena Gaon,Uttarakhand,30.135579999999997,79.3794
547,Majgaon,Uttarakhand,29.692690000000002,79.21771
492,Bergaon,Uttarakhand,29.777079999999998,79.60452
512,Beri Gaon,Uttarakhand,29.77505,80.05577
463,Bhains Gaon,Uttarakhand,30.36737,78.9942
394,Bhaintgaon,Uttarakhand,30.96864739,78.60761841
620,Bhair Gaon,Uttarakhand,29.954520000000002,78.87735
496,Bhair Gaon,Uttarakhand,30.30797,79.04368000000001
493,Bhaisargaon,Uttarakhand,29.803420000000003,79.61346999999999
465,Salan Gaon,Uttarakhand,30.403509999999997,78.08112
650,Bhal Gaon,Uttarakhand,29.929840000000002,78.6355
539,Bhald Gaon,Uttarakhand,30.331879999999998,78.64689
623,Bhald Gaon,Uttarakhand,30.214190000000002,78.74757
563,Chamthar Gaon,Uttarakhand,30.330759999999998,78.36334000000001
640,Bhandari Gaon,Uttarakhand,29.917759999999998,78.70955
574,Bhar Gaon,Uttarakhand,30.4095,78.42158
531,Bharargaon,Uttarakhand,30.7111,78.34799
642,Bharat Gaon,Uttarakhand,29.79562,78.66719
490,Dotiyal Gaon,Uttarakhand,29.735709999999997,79.70903
412,Bhatgaon,Uttarakhand,29.58519,80.21629
516,Bhatigaon,Uttarakhand,29.8898,79.9405
521,Bhatti Gaon,Uttarakhand,30.110870000000002,78.85732
548,Jharigaon,Uttarakhand,29.615478999999997,79.110843
654,Guthiyal Gaon,Uttarakhand,29.87215,78.68096
501,Bhitalgaon,Uttarakhand,29.835720000000002,79.77163
439,Kanalgaon,Uttarakhand,29.32406,80.102
509,Kheti Gaon,Uttarakhand,29.619870000000002,80.07911
436,Bhunar Gaon,Uttarakhand,30.720709999999997,78.08471999999999
494,Bhuwala Gaon,Uttarakhand,30.143959999999996,78.59879000000001
506,Bihargaon,Uttarakhand,29.792209999999997,79.78012
478,Binwal Gaon,Uttarakhand,29.40633,79.93379
472,Bohara Gaon,Uttarakhand,29.64315,79.43413000000001
619,Boor Gaon,Uttarakhand,29.917609999999996,78.90474
556,Bora Gaon,Uttarakhand,29.852790000000002,79.30747
483,Gani Gaon,Uttarakhand,29.898690000000002,79.60858
582,Malumarora Mayagaon,Uttarakhand,30.27726,78.60753000000001
410,Kante Borgaon,Uttarakhand,29.537470000000003,80.30547
532,Budhargaon,Uttarakhand,30.73682,78.35042
601,Budhgaon,Uttarakhand,29.78143,78.82669
464,Dangwal Gaon,Uttarakhand,30.39994,79.04061
513,Chakrigaon,Uttarakhand,29.81295,80.02486
581,Chamal Gaon,Uttarakhand,30.23191,78.60526999999999
545,Chholgaon,Uttarakhand,30.33695,78.51102
561,Chopariyal Gaon,Uttarakhand,30.39221,78.39976
437,Dhikal Gaon,Uttarakhand,30.926190000000002,78.10226
613,Dandal Gaon,Uttarakhand,30.14797,78.77651
431,Dargar Gaon,Uttarakhand,31.03893,78.12527
443,Dasamiya Gaon,Uttarakhand,30.054409999999997,79.28969000000001
461,Dechorida Gaon,Uttarakhand,29.38608,79.3258
655,Dhamand Gaon,Uttarakhand,29.84171,78.67536
558,Naw Gaon,Uttarakhand,30.07599,79.05589
473,Semalgaon,Uttarakhand,29.740946,79.37907
592,Dhari Gaon,Uttarakhand,30.239390000000004,78.8253
633,Dhasan Gaon,Uttarakhand,29.97894,78.66116
484,Nau Gaon,Uttarakhand,29.957629999999998,79.60670999999999
434,Dholi Gaon,Uttarakhand,29.34765,79.8546
573,Dhunar Gaon,Uttarakhand,30.136390000000002,78.95498
608,Dhyar Gaon,Uttarakhand,29.937820000000002,78.81359
495,Gangwari Gaon,Uttarakhand,30.117929999999998,78.58456
560,Dobhal Gaon,Uttarakhand,30.37592,78.39324
551,Gel Gaon,Uttarakhand,29.7243,79.06535
536,Girgaon,Uttarakhand,30.42772,78.65673000000001
488,Khuni Gaon,Uttarakhand,29.396790000000003,79.63072
575,Hatwal Gaon,Uttarakhand,30.4176,78.43807
622,Kandari Gaon,Uttarakhand,30.21418,78.76648
446,Jalgaon,Uttarakhand,30.25913,79.21666
552,Mavalgaon,Uttarakhand,29.714109999999998,79.15088
587,Kathet Gaon,Uttarakhand,30.25015,78.92769
508,Khati Gaon,Uttarakhand,29.59644,80.08398000000001
500,Dharigaon,Uttarakhand,29.544866,79.832509
455,Newal Gaon,Uttarakhand,29.594179999999998,79.23034
564,Kumar Gaon,Uttarakhand,30.344279999999998,78.39502
538,Mahar Gaon,Uttarakhand,30.28555,78.98144
497,Manj Gaon,Uttarakhand,30.757209999999997,78.26454
457,Nandawan Gaon,Uttarakhand,30.413420000000002,78.91235999999999
456,Mergaon,Uttarakhand,29.53215,79.97525999999999
624,Nau Gaon,Uttarakhand,30.00313,78.81235
571,Nawgaon,Uttarakhand,29.901359999999997,79.02543
451,Sangaon,Uttarakhand,30.22595,78.21909000000001
411,Rawal Gaon,Uttarakhand,29.54557,80.18115999999999
126,Amgaon,West Bengal,25.40521,88.52483000000001
338,Purba Ariagaon,West Bengal,26.462,88.37818
364,Goagaon,West Bengal,25.97585,88.06819
374,Dhangaon,West Bengal,25.827370000000002,87.99521
344,Balaigaon,West Bengal,25.76773,88.18167
366,Dakshin Kotagaon,West Bengal,25.65645,88.27385
32,Uttar Naogaon,West Bengal,23.923270000000002,87.68002
1,Bangaon,West Bengal,23.042971899999998,88.83133659999999
353,Rautgaon,West Bengal,25.57784,88.27205
339,Banshgaon,West Bengal,26.52383,88.32229
253,Morgaon,West Bengal,25.37595,88.26516
25,Jaigaon,West Bengal,26.8528,89.38074
24,Dakshin Deogaon,West Bengal,26.660079999999997,89.20846999999999
347,Kamlagaon,West Bengal,26.310879999999997,88.34983000000001
367,Dalimgaon,West Bengal,25.6421,88.43136
343,Kadigaon,West Bengal,26.21011,88.17159000000001
26,Paschim Dolaigaon,West Bengal,26.737790000000004,88.66226999999999
540,Pata Alugaon,Telangana,18.986255,79.926426
452,Muriagaon,Uttarakhand,30.324191,78.192687
593,Indargaon,Uttarakhand,29.719295000000002,78.890867
643,Suralgaon,Uttarakhand,29.966439,78.62015699999999
1017,Bibigaon,Maharashtra,19.763232000000002,79.140621
