Cluster,Placename,State,Lat,Long
707,Chowdepalle,Andhra Pradesh,13.432670000000002,78.68903
35,A. Kothapalle,Andhra Pradesh,17.2734,82.41412
271,Nagireddipalle,Andhra Pradesh,14.26922,79.10165
80,Adagarapalle,Andhra Pradesh,17.863970000000002,82.20015
103,Gandempalle,Andhra Pradesh,17.49118,81.93744000000001
421,Adivigollapalle,Andhra Pradesh,14.487729999999999,77.02906
172,Adurupalle,Andhra Pradesh,14.442689999999999,79.60433
7,Cherukupalle,Andhra Pradesh,18.6875,84.3818
371,Aggichenupalle,Andhra Pradesh,13.4299,79.27941
160,Gollanapalle,Andhra Pradesh,16.634970000000003,80.78302
511,Devarapalle,Andhra Pradesh,14.9908,77.53809
491,Buchampalle,Andhra Pradesh,15.11241,79.01847
54,Akkarapalle,Andhra Pradesh,18.44761,83.67076
564,Akkayapalle,Andhra Pradesh,14.465770000000001,78.85738
8,Akkupalle,Andhra Pradesh,18.69215,84.44221999999999
28,Kamepalle,Andhra Pradesh,16.53331,79.80685
157,Chinanandipalle,Andhra Pradesh,17.95209,83.04828
698,Alapalle,Andhra Pradesh,13.090760000000001,78.60880999999999
554,Alladupalle,Andhra Pradesh,14.7274,78.7243
154,Lankalpalle,Andhra Pradesh,17.197132,81.059102
582,Gunakanepalle,Andhra Pradesh,14.48269,78.13899
380,Amilepalle,Andhra Pradesh,13.768770000000002,78.58145
376,S. Nadim Palle,Andhra Pradesh,13.51419,78.8612
367,Charvaganipalle,Andhra Pradesh,13.366470000000001,79.19632
68,Medipalle,Andhra Pradesh,16.861720000000002,81.7122
434,Lankojana Palle,Andhra Pradesh,15.745989999999999,79.64423000000001
130,Amudalapalle,Andhra Pradesh,16.54917,80.95837
137,Edepalle,Andhra Pradesh,16.40994,81.19339000000001
88,Buvvanapalle,Andhra Pradesh,16.726679999999998,81.41928
477,Anagarlapalle,Andhra Pradesh,12.77436,78.30337
110,Patipalle,Andhra Pradesh,17.636860000000002,82.99342
291,Anantaiahgaripalle,Andhra Pradesh,14.1627,79.18709
429,Kona Palle,Andhra Pradesh,15.5497,79.10195999999999
111,Andalapalle,Andhra Pradesh,17.59825,83.04764
176,Andanapalle,Andhra Pradesh,18.01287,82.53307
451,Bontha Vari Palle,Andhra Pradesh,15.178429999999999,79.28189
170,Bandepalle,Andhra Pradesh,14.24864,79.89123000000001
453,Ankepalle,Andhra Pradesh,15.57634,79.56421
459,Ankireddipalle,Andhra Pradesh,12.91268,78.49435
403,Payasampalle,Andhra Pradesh,14.56833,78.46741999999999
718,Bandameedakammapalle,Andhra Pradesh,13.56445,78.49937
551,Annapusastrula Palle,Andhra Pradesh,14.852429999999998,78.65113000000001
356,Gollapalle,Andhra Pradesh,13.5842,79.4711
237,Anneboinapalle,Andhra Pradesh,15.076089999999999,79.83152
63,Gullipalle,Andhra Pradesh,17.81089,83.16809
16,Chinnakakitapalle,Andhra Pradesh,18.56816,83.96745
18,Dabbakupalle,Andhra Pradesh,16.87681,80.16986999999999
512,Kottakindapalle,Andhra Pradesh,15.006870000000001,77.45064
457,Anumula Palle,Andhra Pradesh,15.51246,78.94814000000001
370,Jangalapalle,Andhra Pradesh,13.18818,79.08763
575,Apparajupalle,Andhra Pradesh,14.41283,78.80142
514,Apparaopalle,Andhra Pradesh,14.54545,78.59397
424,Janampalle,Andhra Pradesh,14.329585999999999,77.037935
685,Appinapalle,Andhra Pradesh,13.298420000000002,78.68396
175,Aragadapalle,Andhra Pradesh,17.99212,82.46902
86,Kaithepalle,Andhra Pradesh,16.01856,80.82873000000001
337,Arepalle,Andhra Pradesh,13.623660000000001,79.2808
85,Malepalle,Andhra Pradesh,15.993389,80.674773
360,Arimakulapalle,Andhra Pradesh,13.30732,79.33735
482,Boyanapalle,Andhra Pradesh,12.869819999999999,78.40329
134,Ramanuja Varthalapalle,Andhra Pradesh,16.29187,81.1196
704,Vemareddipalle,Andhra Pradesh,14.010547,77.987527
135,Parentapalle,Andhra Pradesh,17.5241,81.25663
433,Avulampalle,Andhra Pradesh,15.033220000000002,77.7097
426,Avulathimmanapalle,Andhra Pradesh,12.85404,78.26328000000001
352,T.Sandrapalle,Andhra Pradesh,13.730579999999998,78.89283
207,Mane Palle,Andhra Pradesh,16.16245,79.52985
358,Thalupulapalle,Andhra Pradesh,13.39356,79.06003
693,Ayyamreddi Palle,Andhra Pradesh,13.19452,78.70405
188,Mandallanaidupalle,Andhra Pradesh,14.8973,79.41792
348,Ayyavandlapalle,Andhra Pradesh,13.60045,79.03822
442,Ayyavari Palle,Andhra Pradesh,15.095139999999999,79.63564000000001
355,Ayyavaripalle,Andhra Pradesh,13.695889999999999,78.70776
450,Ayyavaripalle,Andhra Pradesh,15.00204,79.13415
131,Kondapalle,Andhra Pradesh,17.56447,82.22525
701,Dabbalavandlapalle,Andhra Pradesh,13.614619,78.269859
538,Badineni Palle,Andhra Pradesh,15.28245,79.00067
487,Bandasettipalle,Andhra Pradesh,12.78249,78.35927
498,Bairupalle,Andhra Pradesh,13.00104,78.48989
499,Balayapalle,Andhra Pradesh,14.91981,78.90567
215,Pathallapalle,Andhra Pradesh,14.140979999999999,79.72339000000001
14,Kankanalapalle,Andhra Pradesh,16.44631,80.1339
521,Kottapalle,Andhra Pradesh,15.228997,79.450063
353,Thammadapalle,Andhra Pradesh,15.309370000000001,78.22636999999999
307,Bandaganipalle,Andhra Pradesh,14.8856,79.29639
349,Bandakindapalle,Andhra Pradesh,13.655479999999999,78.98683
446,Bandamidapalle,Andhra Pradesh,14.494089,77.55994100000001
375,Bandapalle,Andhra Pradesh,13.141620000000001,79.11137
133,Bandapalle,Andhra Pradesh,17.43988,81.77762
6,Bandapalle,Andhra Pradesh,18.77039,84.17305
158,Bandarupalle,Andhra Pradesh,14.61849,79.5663
586,Cherukutotapalle,Andhra Pradesh,14.646606,77.767437
612,Vasannagaripalle,Andhra Pradesh,14.270225,78.30436999999999
618,Chinnarajapalle,Andhra Pradesh,14.100635,77.706002
689,Karanamvandlapalle,Andhra Pradesh,13.443878,78.633747
649,Bandlapalle,Andhra Pradesh,14.11217,78.75822
22,Bangurupalle,Andhra Pradesh,18.365289999999998,82.50112
474,Banthimadugu Gollapalle,Andhra Pradesh,12.83727,78.38225
84,Pedda Kothapalle,Andhra Pradesh,18.25613,83.78278
41,Bantupalle,Andhra Pradesh,18.04479,83.51097
53,Bapiraju Kothapalle,Andhra Pradesh,17.61688,82.64545
182,Gadugupalle,Andhra Pradesh,18.16691,82.72916
447,Basinenipalle,Andhra Pradesh,14.970310000000001,79.20737
583,Battulapalle,Andhra Pradesh,14.515325,77.766663
699,Bathalapalle,Andhra Pradesh,13.18467,78.60446999999999
543,Battupalle,Andhra Pradesh,15.328220000000002,79.62504
357,Iduvaripalle,Andhra Pradesh,13.356105,79.426866
4,Battuvaripalle,Andhra Pradesh,15.903129999999999,78.56153
640,Kammavaripalle,Andhra Pradesh,13.984620000000001,77.76978000000001
460,Bayanapalle,Andhra Pradesh,14.730360000000001,79.05974
557,Bayanapalle,Andhra Pradesh,14.5711,78.79205999999999
122,Kottapalle,Andhra Pradesh,17.291791,81.893948
173,Koturupalle,Andhra Pradesh,14.511460000000001,79.41268000000001
611,Ganapathipalle,Andhra Pradesh,13.918679999999998,77.47708
598,Beedupalle,Andhra Pradesh,14.149820000000002,77.81339
351,Beripalle,Andhra Pradesh,13.202110000000001,78.92936
475,Bodaguttapalle,Andhra Pradesh,12.72033,78.34265
580,Bhagampalle,Andhra Pradesh,13.98117,78.91572
203,Bhatlapalle,Andhra Pradesh,15.833217000000001,79.928837
675,Kantayyapalle,Andhra Pradesh,13.408667999999999,78.519137
128,Nimmakayala Kothapalle,Andhra Pradesh,16.55655,82.10025999999999
163,Bheemanapalle,Andhra Pradesh,17.98463,82.41112
146,Merakanapalle,Andhra Pradesh,16.133689999999998,80.98089
368,Maharajapuram @Siddareddipalle,Andhra Pradesh,13.116670000000001,79.00439
444,Bhumanapalle,Andhra Pradesh,15.839220000000001,79.39981
455,Chenna Reddi Palle,Andhra Pradesh,15.620379999999999,79.2063
181,Bijjapalle,Andhra Pradesh,18.14912,82.69566999999999
566,Binduraopalle,Andhra Pradesh,14.444070000000002,78.64017
204,Guntupalle,Andhra Pradesh,15.99787,80.0269
274,Tippayapalle,Andhra Pradesh,15.661682999999998,78.219202
473,Bodiguttapalle,Andhra Pradesh,13.04537,78.5247
467,Maratipalle,Andhra Pradesh,14.890579999999998,79.01463000000001
563,Boggalapalle,Andhra Pradesh,14.43718,78.83100999999999
458,Boggupalle,Andhra Pradesh,12.7655,78.40526
197,Nayanipalle,Andhra Pradesh,14.28496,79.61362
361,Bojjinayanipalle,Andhra Pradesh,13.232920000000002,79.18243000000001
164,Vitthamrajupalle,Andhra Pradesh,16.071263000000002,79.768518
304,Bollu Palle,Andhra Pradesh,15.6775,78.96206
372,Bommaiahpalle,Andhra Pradesh,13.316729999999998,79.24588
696,Kanchireddipalle,Andhra Pradesh,13.212741000000001,78.667125
542,Chinnabhattupalle,Andhra Pradesh,15.324303,79.570061
1,Bompalle,Andhra Pradesh,15.89763,77.30868000000001
79,Cherapalle,Andhra Pradesh,17.87412,82.23002
105,Bondapalle,Andhra Pradesh,18.24031,83.34772
527,Bonthagunta Palle,Andhra Pradesh,15.34184,79.34509
768,Bontalapalle,Andhra Pradesh,13.800153,78.228061
284,Mukkavaripalle,Andhra Pradesh,14.04371,79.30621
448,Boya Chinnaganna Palle,Andhra Pradesh,12.95357,78.57294
439,Kataruvani Palle,Andhra Pradesh,16.03974,79.3046
422,Pulitimmareddipalle,Andhra Pradesh,14.540578,77.228531
430,Brahmanapalle,Andhra Pradesh,15.103279999999998,77.58341
609,Kothapalle,Andhra Pradesh,14.01569,77.60778
177,Brahmanapalle,Andhra Pradesh,13.86098,79.51463000000001
377,Devaragudipalle,Andhra Pradesh,13.426910000000001,79.31528
501,Brahmanapalle,Andhra Pradesh,15.13427,78.92496
417,Todendlapalle,Andhra Pradesh,15.029459,78.585394
596,Bramhanapalle,Andhra Pradesh,14.27638,77.62678000000001
552,Tungavaripalle,Andhra Pradesh,14.583154,78.20553199999999
591,Gariselapalle,Andhra Pradesh,14.503789999999999,77.8952
528,Patabattulapalle,Andhra Pradesh,14.432255,77.705381
646,Mailureddipalle,Andhra Pradesh,14.021206,77.774431
273,Bugganipalle,Andhra Pradesh,15.44895,78.14694
109,Pedamamidipalle,Andhra Pradesh,16.48519,81.71269000000001
123,Devulapalle,Andhra Pradesh,17.069879999999998,81.21923000000001
180,Busipalle,Andhra Pradesh,18.07173,82.61385
228,Chakalapalle,Andhra Pradesh,14.0887,79.60627
56,Kottapalle,Andhra Pradesh,18.676541,83.533078
10,Chirutanapalle,Andhra Pradesh,18.60417,84.23445
156,Chukkapalle,Andhra Pradesh,17.84786,83.00646
159,Chillaboyinapalle,Andhra Pradesh,16.83051,80.93859
719,Hanumantarayapalle,Andhra Pradesh,14.168907,78.16490300000001
476,Chalarlapalle,Andhra Pradesh,12.732669999999999,78.29222
579,Chinnakodipalle,Andhra Pradesh,14.075285999999998,77.446904
129,Kothapalle,Andhra Pradesh,16.76132,81.11368
588,Nadimipalle,Andhra Pradesh,14.658419,77.88819699999999
73,Pothanapalle,Andhra Pradesh,18.10782,83.166
124,Chamanapalle,Andhra Pradesh,17.19395,81.4548
562,Chowkillavaripalle,Andhra Pradesh,13.551039999999999,78.58021
71,Peddanapalle,Andhra Pradesh,17.208029999999997,82.18446
604,Misalavandlapalle,Andhra Pradesh,14.213612,78.060164
472,Chattireddipalle,Andhra Pradesh,15.356938000000001,78.90683
20,Chavatapalle,Andhra Pradesh,16.74881,80.42005999999999
572,Kottapalle,Andhra Pradesh,14.660535999999999,78.133498
775,Rajuvaripalle,Andhra Pradesh,13.865368,78.21516700000001
224,Kandalavaripalle,Andhra Pradesh,14.142029999999998,79.54746999999999
706,Dademvaripalle,Andhra Pradesh,13.9075,78.07455999999999
428,Cheelapalle,Andhra Pradesh,14.8972,77.79512
470,Cheemanapalle,Andhra Pradesh,12.843060000000001,78.36561
91,Cheepurupalle,Andhra Pradesh,18.31032,83.56695
120,Chegondapalle,Andhra Pradesh,17.24665,81.60014
565,Chemullapalle,Andhra Pradesh,14.64991,78.77627
749,Maligavandlapalle,Andhra Pradesh,13.743164000000002,78.275966
524,Kasapalle,Andhra Pradesh,14.746172,77.795847
423,Kurakulapalle,Andhra Pradesh,14.34919,77.28222
335,Kottapalle,Andhra Pradesh,15.282454000000001,77.646908
556,Alamkhanpalle,Andhra Pradesh,14.498972,78.792618
558,Chennamukkapalle,Andhra Pradesh,14.59455,78.79263
636,Nakkavandlapalle,Andhra Pradesh,14.067684,78.780738
755,Chennappagaripalle,Andhra Pradesh,13.80146,78.26453000000001
530,Chinnakuntapalle,Andhra Pradesh,14.629645000000002,77.650865
516,Chennupalle,Andhra Pradesh,15.10391,78.94311
113,Cherakupalle,Andhra Pradesh,18.43293,83.33274
148,Chintapalle,Andhra Pradesh,17.86409,82.35167
186,Chindepalle,Andhra Pradesh,13.71904,79.6479
350,Nalisettipalle,Andhra Pradesh,13.264729999999998,79.01419
500,Cherlopalle,Andhra Pradesh,15.00324,78.99003
569,Cherlopalle,Andhra Pradesh,14.432889999999999,78.77694
102,Maipalle,Andhra Pradesh,18.51792,83.20156
219,Kammapalle,Andhra Pradesh,13.95705,79.59629
141,Chilakalapalle,Andhra Pradesh,17.483179999999997,81.38091
602,Devaraguttapalle,Andhra Pradesh,14.224470000000002,78.524795
483,Chillamanipalle,Andhra Pradesh,12.85542,78.39631
112,China Chamalapalle,Andhra Pradesh,18.380679999999998,83.33431999999999
179,China Kallepalle,Andhra Pradesh,16.211170000000003,80.91006999999999
90,Chinabantupalle,Andhra Pradesh,18.41141,83.46226
57,Kothapalle,Andhra Pradesh,18.77311,83.46327
529,Kottapalle,Andhra Pradesh,15.473085999999999,79.291081
55,Pedda Kotipalle,Andhra Pradesh,18.64104,83.74195300000001
72,Chinaraopalle,Andhra Pradesh,17.99351,83.24122
11,Chinarokallapalle,Andhra Pradesh,18.65608,84.29771
25,Chinna Seethannapalle,Andhra Pradesh,17.74476,81.39603000000001
577,Peddamallepalle,Andhra Pradesh,14.74652,78.03455
136,Chinnamattapalle,Andhra Pradesh,17.57686,81.31683000000001
740,Gejjalavandlapalle,Andhra Pradesh,13.677019,78.170736
738,Tattavaripalle,Andhra Pradesh,13.938166,78.15025899999999
108,Chintalapalle,Andhra Pradesh,16.46319,81.83629
488,Talamittapalle,Andhra Pradesh,14.987055999999999,78.02035
149,Chintampalle,Andhra Pradesh,17.09853,80.90915
51,Thummalapalle,Andhra Pradesh,16.981360000000002,82.06801
549,Chintarajupalle,Andhra Pradesh,14.394789999999999,79.02218
150,Pata Pandillapalle,Andhra Pradesh,15.756542999999999,80.282876
363,Kellam Palle,Andhra Pradesh,15.80478,79.76195
40,Chippapalle,Andhra Pradesh,18.20881,83.07200999999999
140,Darapalle,Andhra Pradesh,17.49243,81.34321
645,Chowdireddipalle,Andhra Pradesh,13.83942,77.70404
504,D.Lingampalle,Andhra Pradesh,14.822429999999999,78.87836999999999
691,Kusumavaripalle,Andhra Pradesh,14.066294000000001,77.988016
513,Dadireddipalle,Andhra Pradesh,14.575920000000002,78.6788
292,Ketharajupalle,Andhra Pradesh,14.09288,79.22695999999999
121,Damanapalle,Andhra Pradesh,17.30923,81.67603000000001
508,Tambalapalle,Andhra Pradesh,15.06046,78.98994300000001
695,Keelapalle,Andhra Pradesh,13.24823,78.72538
641,Putakalavandlapalle,Andhra Pradesh,14.2216,78.63998199999999
201,Darapalle,Andhra Pradesh,18.07021,82.69098000000001
539,Dasalla Palle,Andhra Pradesh,15.501560000000001,79.35956999999999
155,Deguvabondapalle,Andhra Pradesh,18.28472,82.58842
628,Brahmeswarapalle,Andhra Pradesh,13.813754999999999,77.641097
354,Devalapalle,Andhra Pradesh,13.82585,78.78875
605,Kondaguttapalle,Andhra Pradesh,14.289904,78.112596
777,Devarapalle,Andhra Pradesh,13.71994,78.36346
31,Kottapalle,Andhra Pradesh,17.824005,81.551321
107,Ivampalle,Andhra Pradesh,17.59662,81.71497
94,Devarapalle,Andhra Pradesh,16.730079999999997,81.88589
183,Malepalle,Andhra Pradesh,16.34691,80.873491
147,Devarapalle,Andhra Pradesh,17.78839,82.27071
502,Diguva Thamballapalle,Andhra Pradesh,15.14935,78.91372
468,Terannapalle,Andhra Pradesh,14.872876999999999,77.96817
712,Tsadivandlapalle,Andhra Pradesh,13.923504000000001,78.450149
193,Doddipalle,Andhra Pradesh,18.08053,82.66401
683,Errakondapalle,Andhra Pradesh,13.150835,78.684085
547,Sarvireddipalle,Andhra Pradesh,14.74417,78.56224
480,Duggana Palle,Andhra Pradesh,14.958770000000001,78.29828
127,Mosalipalle,Andhra Pradesh,16.588929999999998,81.98047
770,Malavandlapalle,Andhra Pradesh,13.799798999999998,78.45580799999999
710,Edigavaripalle,Andhra Pradesh,13.88819,78.0228
161,Nandivelugu Malepalle,Andhra Pradesh,16.286128,80.63903499999999
132,Eethapalle,Andhra Pradesh,17.38423,81.79125
456,Adimurtipalle,Andhra Pradesh,15.200211,78.89451
589,Gandlavandlapalle,Andhra Pradesh,14.37517,77.972
359,Kollapalle,Andhra Pradesh,13.38657,78.98246999999999
369,Etterangapalle,Andhra Pradesh,13.44655,79.36126
466,Ethirajupalle,Andhra Pradesh,14.84109,79.02794
416,G. Kothapalle,Andhra Pradesh,15.01353,78.45281
143,Kotrapalle,Andhra Pradesh,17.907826999999997,82.901589
550,Vengannagaripalle,Andhra Pradesh,14.80455,78.68925
415,Govindpalle,Andhra Pradesh,15.373460000000001,78.51033000000001
347,Galivaripalle,Andhra Pradesh,13.80843,78.90418000000001
70,Kotta Nayakampalle,Andhra Pradesh,17.108558,82.037109
19,Katrenipalle,Andhra Pradesh,16.74985,80.29926999999999
700,Chimaganipalle,Andhra Pradesh,13.189526,78.586838
620,Battalapalle,Andhra Pradesh,14.082362,77.770376
560,Ganganapalle,Andhra Pradesh,14.4446,78.70353
746,Guthavandlapalle,Andhra Pradesh,13.869909,78.337986
668,Nagurivaripalle,Andhra Pradesh,14.094059,78.550671
471,Gattappanayanipalle,Andhra Pradesh,12.71136,78.31215999999999
17,Isakapalle,Andhra Pradesh,14.73359,80.09615
440,Kandulavandlapalle,Andhra Pradesh,15.885191,79.426413
492,Gollapalle,Andhra Pradesh,14.67857,77.49699
773,Gollapalle,Andhra Pradesh,13.699279999999998,78.39628
462,Gollapalle,Andhra Pradesh,14.996529999999998,79.42079
541,Kurabavandlapalle,Andhra Pradesh,14.147622,77.622918
594,V.Kothapalle,Andhra Pradesh,14.374889999999999,78.37398
535,Balireddipalle,Andhra Pradesh,14.419413,78.576396
153,Parta Chintampalle,Andhra Pradesh,17.187395000000002,80.929978
534,Gondlapalle,Andhra Pradesh,14.465501000000001,78.545497
667,Nallabhattunipalle,Andhra Pradesh,14.055387,78.539839
679,Kadatotapalle,Andhra Pradesh,13.051861,78.615478
531,Govindapalle,Andhra Pradesh,14.76711,77.59971999999999
461,Govindapalle,Andhra Pradesh,12.830589999999999,78.43611999999999
419,Narsepalle,Andhra Pradesh,15.107000000000001,78.35882
664,Kottapalle,Andhra Pradesh,14.149745000000001,78.409545
625,Muddalakuntapalle,Andhra Pradesh,13.962968,77.841375
142,Gudapalle,Andhra Pradesh,17.654989999999998,82.21783
619,Kavatinagapalle,Andhra Pradesh,13.947432999999998,77.64801800000001
658,Gudlavaripalle,Andhra Pradesh,14.18484,78.69715
537,Guduru Moravai Palle,Andhra Pradesh,15.268479999999998,79.00046999999999
145,Gudlapalle,Andhra Pradesh,17.051434,81.099005
171,Peda Kotha Palle,Andhra Pradesh,15.6021,80.02973
716,Papireddigaripalle,Andhra Pradesh,13.832034,78.396586
585,Gunipalle,Andhra Pradesh,14.277679999999998,77.92566
21,Malpalle,Andhra Pradesh,17.340301999999998,82.580682
366,Nellipalle,Andhra Pradesh,13.31794,79.21308
185,Kame Palle,Andhra Pradesh,16.124229999999997,79.92872
202,Gurupalle,Andhra Pradesh,18.057129999999997,82.69722
26,Kakarapalle,Andhra Pradesh,17.48239,82.49486999999999
635,Indukurupalle,Andhra Pradesh,14.06546,78.80722
763,Jagadamvaripalle,Andhra Pradesh,13.72909,78.21257
621,Venkatigaripalle,Andhra Pradesh,14.115535999999999,77.744905
573,Kottapalle,Andhra Pradesh,14.395138000000001,78.802842
506,Jammana Palle,Andhra Pradesh,15.84479,79.19525
62,K. Kothapalle,Andhra Pradesh,17.0819,82.33431999999999
52,Jangadapalle,Andhra Pradesh,17.6207,82.73669
229,Muddampalle,Andhra Pradesh,14.023220000000002,79.62716
505,Papireddipalle,Andhra Pradesh,14.88376,78.89055
510,Kondivaripalle,Andhra Pradesh,15.700687,79.293059
269,Jattivaripalle,Andhra Pradesh,14.271329999999999,79.22270999999999
497,Jodiverrivanipalle,Andhra Pradesh,13.002469999999999,78.48504
590,Nallayyakuntapalle,Andhra Pradesh,14.374707,77.91441800000001
690,Jowkalakothapalle,Andhra Pradesh,13.998629999999999,78.06629000000001
409,Kadaramapalle,Andhra Pradesh,14.706304999999999,77.016921
600,Elamvaripalle,Andhra Pradesh,14.395537,78.230435
578,Kammevaribrahmanapalle,Andhra Pradesh,14.814319,78.126281
243,K.Buduguntapalle,Andhra Pradesh,13.952829999999999,79.35331
553,Machupalle,Andhra Pradesh,14.50579,78.88926
715,Kottapalle,Andhra Pradesh,14.063818,78.12747900000001
597,Narepalle,Andhra Pradesh,14.23732,77.75533
436,Kalavala Palle,Andhra Pradesh,15.833120000000001,79.48489000000001
104,Koraseni Malapalle,Andhra Pradesh,17.496076000000002,82.89107299999999
67,Vadapalle,Andhra Pradesh,16.99152,81.66929
732,Motukapalle,Andhra Pradesh,14.110579999999999,78.19003000000001
568,Obalampalle,Andhra Pradesh,14.431320000000001,78.74520799999999
507,Yagavapalle,Andhra Pradesh,14.907591,77.58771899999999
494,Turpupalle,Andhra Pradesh,15.741771,79.39892900000001
688,Kappalle,Andhra Pradesh,13.4447,78.42012
100,Gompalle,Andhra Pradesh,17.625835000000002,81.079615
139,Karakapalle,Andhra Pradesh,17.84589,82.44476999999999
5,Mamidipalle,Andhra Pradesh,18.86569,84.55019
678,Karasanepalle,Andhra Pradesh,13.293004999999999,78.610399
637,Kasbagollapalle,Andhra Pradesh,14.05856,78.75216999999999
386,Thurpu- Brahmanapalle,Andhra Pradesh,14.988929999999998,79.68131
652,Kottapalle,Andhra Pradesh,13.970444,77.72331
443,Battinivaripalle,Andhra Pradesh,14.949939,79.525425
546,Tsantapalle,Andhra Pradesh,14.494857999999999,78.610879
540,Moramvaripalle,Andhra Pradesh,15.466157999999998,79.396951
420,Lingamayapalle,Andhra Pradesh,15.194189000000001,78.58048000000001
373,Appavagaripalle,Andhra Pradesh,13.283983,79.27651
771,Papannacheruvupalle,Andhra Pradesh,13.767956,78.428602
526,Kotala Palle,Andhra Pradesh,15.33769,79.40066999999999
711,Mulakulapalle,Andhra Pradesh,13.870284,78.145303
479,Kothaguntapalle,Andhra Pradesh,14.821710000000001,78.37265
599,Kodapalanagayyapalle,Andhra Pradesh,14.228775,77.800246
463,Kothapalle,Andhra Pradesh,12.73213,78.37756999999999
13,Kottapalle,Andhra Pradesh,16.482872,79.399407
69,Marepalle,Andhra Pradesh,17.04097,80.6437
152,Kottapalle,Andhra Pradesh,16.963399,81.037238
78,Paningapalle,Andhra Pradesh,16.75861,82.0554
87,Yagarlapalle,Andhra Pradesh,16.814,81.52708
184,Malepalle,Andhra Pradesh,16.275851,80.895562
438,Kottapalle,Andhra Pradesh,16.081303,79.378357
218,Lingamanaidupalle,Andhra Pradesh,13.933720000000001,79.65486
275,Nutanapalle,Andhra Pradesh,15.77643,78.086839
441,Bodipalle,Andhra Pradesh,15.968057,79.47720699999999
517,Mahanandipalle,Andhra Pradesh,15.117070000000002,78.94593
731,Errachenupalle,Andhra Pradesh,14.053161,78.271446
272,Ratrallapalle,Andhra Pradesh,15.538103,77.980671
548,Mittamidapalle,Andhra Pradesh,14.417541,78.96629300000001
166,Vadlavanipalle,Andhra Pradesh,13.959179999999998,80.05966
769,Marrimakulapalle,Andhra Pradesh,13.7686,78.49089000000001
676,Idigepalle,Andhra Pradesh,13.468847,78.541027
561,Chinnayagaripalle,Andhra Pradesh,14.744076000000002,78.768249
187,Tamarapalle,Andhra Pradesh,18.02729,82.70653
374,Mogaralapalle,Andhra Pradesh,13.16061,79.12999
638,Maravapalle,Andhra Pradesh,13.898051999999998,77.777733
29,Vallavaripalle,Tamil Nadu,13.248052,79.582914
138,Madigepalle,Andhra Pradesh,16.209011,80.400191
747,Tummachettupalle,Andhra Pradesh,13.635473000000001,78.483213
745,Kannemaduguvandlapalle,Andhra Pradesh,13.757535,78.33090899999999
509,Kummarapalle,Andhra Pradesh,15.596217999999999,79.445835
571,Varadayapalle,Andhra Pradesh,14.716039000000002,78.827538
464,Nagisettipalle,Andhra Pradesh,14.749179999999999,78.99121
610,Nakkalapalle,Andhra Pradesh,13.83329,77.4939
486,Settipalle,Andhra Pradesh,12.79166,78.35968000000001
519,Nallacheruvupalle,Andhra Pradesh,14.4764,78.36613
655,Nallaguttapalle,Andhra Pradesh,14.214870000000001,78.75057
616,Vankagaddapalle,Andhra Pradesh,14.16433,78.336833
606,Odulapalle,Andhra Pradesh,14.276010000000001,78.19669
670,Paravandlapalle,Andhra Pradesh,13.463598000000001,78.728549
665,Burujupalle,Andhra Pradesh,14.133306,78.623582
673,Chimalacheruvupalle,Andhra Pradesh,14.044397,78.395533
89,Pinapalle,Andhra Pradesh,16.82656,81.91371
533,Kottapalle,Andhra Pradesh,15.383854000000001,79.523494
764,Konkavaripalle,Andhra Pradesh,13.712469,78.486068
515,Eguvapottireddipalle,Andhra Pradesh,15.355375,78.96719499999999
650,Miredavandlapalle,Andhra Pradesh,14.097907999999999,78.947857
485,Sirigepalle,Andhra Pradesh,14.787329999999999,78.45761
584,Bagampalle,Andhra Pradesh,14.315335000000001,77.73804399999999
525,Pullareddi Palle,Andhra Pradesh,15.30287,79.00346
174,Rachapalle,Andhra Pradesh,18.03956,82.54853
581,Rachumarripalle,Andhra Pradesh,14.469289999999999,78.22773000000001
567,Gangulapalle,Andhra Pradesh,14.46544,78.67746899999999
518,Erravulapalle,Andhra Pradesh,14.479629999999998,78.459618
694,Chatevaripalle,Andhra Pradesh,13.174089000000002,78.74027099999999
692,Bommareddicheruvupalle,Andhra Pradesh,14.051058,77.949478
651,Badareddipalle,Andhra Pradesh,13.918729,77.721109
418,Shaik Sanupalle,Andhra Pradesh,14.902035,77.30613000000001
730,Tuvvapalle,Andhra Pradesh,14.084401999999999,78.26140699999999
484,Somidevipalle,Andhra Pradesh,15.457179,79.038415
780,Talarivaripalle,Andhra Pradesh,13.840242000000002,78.295178
495,T.Soudaravaripalle,Andhra Pradesh,14.831370000000001,78.91189
520,Venkaiampalle,Andhra Pradesh,15.363883999999999,79.02198100000001
445,Tokapalle,Andhra Pradesh,15.883920999999999,79.285781
728,Nayanavaripalle,Andhra Pradesh,13.476341,78.460981
595,Pakirapalle,Andhra Pradesh,14.359865,78.45017800000001
432,Pyapalle,Andhra Pradesh,15.233177,77.74231800000001
489,Venkatampalle,Andhra Pradesh,15.036829999999998,77.98394
435,Peddakrishnamarajupalle,Andhra Pradesh,15.067547,79.335409
630,Yandapalle,Andhra Pradesh,14.04589,78.69025
251,Keshrajpalle,Telangana,17.04449,79.31791
299,Achaipalle,Telangana,18.155079999999998,78.03318
302,Lakshmakkapalle,Telangana,17.74519,78.64860999999999
253,Lingampalle,Telangana,18.61576,77.88816
46,Adavisomanpalle,Telangana,18.6521,79.77637
74,Adkapalle,Telangana,18.95703,79.78950999999999
257,Kothapalle,Telangana,18.51701,77.79661
220,Naganpalle,Telangana,17.24475,78.68021
342,Agraharam Potlapalle,Telangana,16.90222,78.18104
323,Ghatpalle,Telangana,17.137710000000002,78.38432
119,Dugnepalle,Telangana,19.07975,79.54024
33,Akinepalle,Telangana,18.3173,79.6407
379,Veerampalle,Telangana,16.8103,77.81909
295,Akkampalle,Telangana,18.12304,78.08034
83,Akkapalle,Telangana,18.88499,79.82628000000001
241,Chippala Palle,Telangana,17.279989999999998,79.23233
45,Akkepalle,Telangana,18.645229999999998,79.66466
77,Bairanpalle,Telangana,17.95506,79.09187
308,Aksanpalle,Telangana,17.8147,78.07428
294,Akuthotapalle,Telangana,16.84931,78.52982
305,Alampalle,Telangana,16.46472,77.4237
336,Allampalle,Telangana,16.66627,78.19314
265,Dasarlapalle,Telangana,17.01032,78.47848
382,Ayyavaripalle,Telangana,16.15946,78.0215
341,Ammapalle,Telangana,16.77496,78.13525
36,Ambatpalle,Telangana,18.72919,79.98154
331,Ammapalle,Telangana,17.26228,78.35331
340,Ampalle,Telangana,17.26533,77.76185
414,Amsanpalle,Telangana,17.0931,77.70728000000001
230,Metpalle,Telangana,18.26137,79.33991
82,Amudalpalle,Telangana,18.85378,79.789
296,Ananthagiripalle,Telangana,17.8255,78.53964
413,Mallepalle,Telangana,17.07444,77.78804000000001
288,Andugulapalle,Telangana,17.90594,78.36719000000001
115,Andukapalle,Telangana,18.16287,80.07638
397,Kandlapalle,Telangana,17.30894,78.03184
254,Ankampalle,Telangana,18.768929999999997,78.01453000000001
39,Ankampalle,Telangana,18.22951,80.31049
37,Bheemanpalle,Telangana,18.43903,79.86829
96,Ankepalle,Telangana,19.15018,79.44393000000001
332,Chennampalle,Telangana,16.098779999999998,78.30216999999999
221,Konaipalle,Telangana,17.99502,78.88566
114,Annampalle,Telangana,18.19136,79.94309
410,Julapalle,Telangana,16.90053,77.84758000000001
238,Brahmanapalle,Telangana,16.8335,78.72936
283,Antampalle,Telangana,18.32669,78.48188
249,Anthaipalle,Telangana,16.59344,78.05962
282,Kothalpalle,Telangana,18.29685,78.34562
144,Appaipalle,Telangana,17.98767,78.56799000000001
381,Dattaipalle,Telangana,16.33324,78.07791
412,Appaipalle,Telangana,17.10448,77.60261
406,Balabhadraipalle,Telangana,16.88362,77.66922
385,Kavarampalle,Telangana,16.74125,77.55515
383,Isrampalle,Telangana,16.56077,77.83837
169,Edulapusapalle,Telangana,17.68528,80.02749
44,Appepalle,Telangana,19.31559,79.37477
59,Arekepalle,Telangana,19.366229999999998,79.29356
49,Burugpalle,Telangana,19.15383,78.45675
258,Arepalle,Telangana,18.607429999999997,78.21195
48,Arepalle,Telangana,19.07715,78.52574
99,Arepalle,Telangana,18.84739,79.67558000000001
286,Nagampalle,Telangana,18.230829999999997,77.85535
266,Arepalle,Telangana,18.19282,78.57854
388,Devarapalle,Telangana,16.31721,77.86032
3,Mendapalle,Telangana,19.51363,78.63114
76,Bandarupalle,Telangana,18.30217,80.5522
162,Arpanapalle,Telangana,17.68786,79.89429
210,Arshanpalle,Telangana,18.07635,79.87392
191,Arvapalle,Telangana,18.14538,79.60839
398,Chakalavaripalle,Telangana,16.85587,77.60699
151,Ashwaraopalle,Telangana,17.79863,79.31752
326,Bijinapalle,Telangana,16.529329999999998,78.20163000000001
279,Ausulpalle,Telangana,18.052310000000002,78.2777
165,Ayyagaripalle,Telangana,17.52502,80.00038
390,Kollampalle,Telangana,16.65875,77.62782
92,Devan Palle,Telangana,18.70165,78.4612
392,Bompalle,Telangana,17.12033,77.88129
12,Badampalle,Telangana,19.1173,78.99582
9,Baddampalle,Telangana,19.10218,79.84447
226,Burgupalle,Telangana,18.582639999999998,79.01082
346,Dargulpalle,Telangana,17.48399,77.65601
297,Balijapalle,Telangana,16.4254,78.02201
50,Banaspalle,Telangana,19.10405,78.25496
232,Bandakotha Palle,Telangana,17.63939,78.83453
256,Boppaspalle,Telangana,18.46673,77.86917
343,Bandapalle,Telangana,16.46146,78.38213
231,Bandarupalle,Telangana,18.01272,78.71525
192,Bollam Palle,Telangana,17.38694,79.47845
287,Chinna Takkadpalle,Telangana,18.35379,77.69541
399,Bapanpalle,Telangana,16.840139999999998,77.55897
404,Chiltampalle,Telangana,17.277520000000003,77.89666
178,Basireddipalle,Telangana,17.79007,79.03567
190,Bathulapalle,Telangana,17.910729999999997,80.05581
333,Janumpalle,Telangana,16.18026,78.22398000000001
270,Shetpalle,Telangana,18.22675,78.11586
396,Yellampalle,Telangana,16.42197,77.68134
277,Laxmidevipalle,Telangana,18.2138,78.39426999999999
344,Bhallanpalle,Telangana,16.52197,78.36147
259,Bhatla Palle,Telangana,16.91401,78.84835
42,Bodepalle,Telangana,19.34957,79.48057
95,Bhavanampalle,Telangana,16.298479999999998,78.35845
246,Bheeman Palle,Telangana,16.97476,79.45812
235,Ramalingam Palle,Telangana,17.35585,78.877
280,Mirzapalle,Telangana,18.04544,78.42951
394,Cherukupalle,Telangana,17.089679999999998,77.99464
330,Bhongirpalle,Telangana,17.21979,78.19216
276,Bhoompalle,Telangana,18.41195,78.18415
205,Bhrammanakothapalle,Telangana,17.641920000000002,79.78498
43,Bijenapalle,Telangana,18.468729999999997,80.48358
213,Stambampalle,Telangana,17.95318,79.63484
198,Choutupalle,Telangana,18.83795,78.51312
317,Chilepalle,Telangana,17.65739,77.75665
309,Buddaipalle,Telangana,17.92255,77.9857
66,Gompalle,Telangana,18.052820999999998,80.815425
227,Burgupalle,Telangana,18.544439999999998,78.89182
268,Kame Palle,Telangana,16.61722,78.85491
168,Bollepalle,Telangana,17.794970000000003,79.98358
225,Kuchanpalle,Telangana,18.13755,79.20905
75,Edjarlapalle,Telangana,18.33868,80.49848
327,Bommarasipalle,Telangana,16.39223012,78.59832467
328,Palukapalle,Telangana,16.39936,78.63599
306,Kallapalle,Telangana,17.699270000000002,78.34836
101,Bonthupalle,Telangana,18.35266,79.41556
239,Bopanpalle,Telangana,17.76428,77.71557
322,Boppepalle,Telangana,16.44322,78.45823
199,Medipalle,Telangana,18.80003,78.81577
236,Brahman Palle,Telangana,17.46957,78.79768
262,Sarvareddipalle,Telangana,16.63297,78.64069
315,Gundareddipalle,Telangana,17.8531,78.47762
261,Gaggupalle,Telangana,18.78797,78.28747
125,Kothapalle,Telangana,18.60945,79.38166
402,Burgupalle,Telangana,17.33061,77.91855
195,Jagannadhapalle,Telangana,17.70201,79.6084
285,Narayanapalle,Telangana,18.05101,77.91747
216,Ensanpalle,Telangana,18.102,78.84293000000001
339,Burugupalle,Telangana,17.573420000000002,77.92166
321,Depalle,Telangana,16.87625,78.02468
338,Izrachettempalle,Telangana,17.49385,77.86827
47,Chamanpalle,Telangana,19.01771,78.46634
200,Kethepalle,Telangana,16.592579999999998,79.03536
301,Gollapalle,Telangana,17.787670000000002,78.7787
325,Nagulapalle,Telangana,17.06805,78.20475
223,Kothapalle,Telangana,18.162770000000002,78.97417
252,Gundla Palle,Telangana,17.05145,79.24478
167,Cherlapalle,Telangana,18.198220000000003,79.69976
58,Cherpalle,Telangana,19.36105,79.29758000000001
329,Kethepalle,Telangana,16.20149,78.1533
34,Gaddalapalle,Telangana,18.54148,80.04847
93,Chimanpalle,Telangana,18.58086,78.45496999999999
64,Ompalle,Telangana,18.326297,80.423118
289,Kalwapalle,Telangana,16.76268,79.03976999999999
303,Seripalle,Telangana,17.84004,78.69091999999999
393,Ghatpalle,Telangana,17.179170000000003,77.9695
298,Pothreddipalle,Telangana,17.588070000000002,78.08035
267,Chintapalle,Telangana,16.780739999999998,79.31945
247,Kalva Palle,Telangana,16.86095,79.5528
194,Chinthalapalle,Telangana,17.58897,79.65311
395,Chinthareddipalle,Telangana,16.41766,77.7603
212,Gopanpalle,Telangana,17.7002,77.52024
15,Choutapalle,Telangana,16.78343,79.87165
97,Choutpalle,Telangana,19.169620000000002,79.43194
240,Chowderpalle,Telangana,17.04429,78.6317
65,Sangampalle,Telangana,18.155285,80.606369
211,Lingasanipalle,Telangana,16.075020000000002,78.1326
312,Danampalle,Telangana,18.04451,77.99972
206,Kunta Palle,Telangana,17.44746,79.69691
318,Dasarlapalle,Telangana,16.45714,78.59761
300,Daval Malkapalle,Telangana,18.1906,78.0221
364,Gollapalle,Telangana,17.38267,78.14933
233,Jangapalle,Telangana,18.29661,79.1125
281,Devalpalle,Telangana,17.78489,78.19447
234,Edulagattepalle,Telangana,18.37444,79.22222
60,Devarampalle,Telangana,18.62545,79.94547
196,Divitipalle,Telangana,17.77573,79.57899
319,Mothukupalle,Telangana,17.372239999999998,78.2467
38,Doothpalle,Telangana,18.37953,79.83876
244,Peapalpalle,Telangana,17.88371,77.77356
116,Mittapalle,Telangana,18.8785,79.25853000000001
334,Julapalle,Telangana,16.86869,78.33504
320,Kachireddipalle,Telangana,17.511589999999998,78.29431
324,Edulapalle,Telangana,17.13778,78.20706
316,Enekpalle,Telangana,17.63701,77.87508000000001
311,Gandharpalle,Telangana,18.04999,78.10883000000001
222,Errapalle,Telangana,17.97364,78.8593
248,Gadepalle,Telangana,18.93553,78.20271
314,Gangaipalle,Telangana,17.80783,78.41051
264,Nerallapalle,Telangana,16.93916,78.99207
217,Garmillapalle,Telangana,18.04393503,79.47208817
126,Garrepalle,Telangana,18.52361,79.3092
278,Gatlingampalle,Telangana,17.6768,78.19048000000001
290,Keshamneni Palle,Telangana,16.77307,79.13036
310,Jakkupalle,Telangana,17.74336,78.28303000000001
81,Gollapalle,Telangana,19.07451,79.62949
293,Machepalle,Telangana,17.53405,77.98899999999999
362,Tekulpalle,Telangana,16.52961,77.55981
313,Guntabachpalle,Telangana,17.32761,77.4947
408,Malareddipalle,Telangana,17.194036999999998,77.570324
411,Komireddipalle,Telangana,16.92631,77.79245
208,Gundareddipalle,Telangana,18.16916,79.09545
61,Gundrathpalle,Telangana,18.62668,79.94734
209,Kammepalle,Telangana,17.95395,79.80625
242,Iruganti Palle,Telangana,16.958170000000003,79.34586
365,Gurlapalle,Telangana,16.74752,77.4959
405,Haridaspalle,Telangana,17.31179,77.84767
384,Lingampalle,Telangana,17.04799,77.91856999999999
260,Jakranpalle,Telangana,18.69887,78.26102
245,Jamasthanpalle,Telangana,17.08308,79.14034000000001
407,Kadampalle,Telangana,16.98798,77.71119
391,Kamsanpalle,Telangana,16.63641,77.66266999999999
387,Kanaipalle,Telangana,16.38026,77.94176
263,Kankanalapalle,Telangana,17.45339,77.79851
117,Kondepalle,Telangana,18.8654,79.32027
118,Kothapalle,Telangana,18.87132,79.44424000000001
189,Kothapalle,Telangana,17.91829,80.03279
401,Madanpalle,Telangana,17.200960000000002,77.7875
98,Maddulapalle,Telangana,18.849320000000002,79.6526
106,Madipalle,Telangana,18.53257,79.56997
345,Mangraspalle,Telangana,17.38256,77.64578
400,Ootpalle,Telangana,17.16706,77.86428000000001
214,Upalle,Telangana,18.749756,79.047721
389,Sankepalle,Telangana,17.40239,78.0638
250,Shairkhanpalle,Telangana,18.31279,77.91344000000001
2,Bulakalapalle,Karnataka,14.780072,76.60175100000001
663,Idigavaripalle,Andhra Pradesh,13.854702,77.97636899999999
607,Basavanapalle,Andhra Pradesh,13.779257000000001,77.531972
30,Bapanapalle,Odisha,18.153999,81.586173
27,Parasanapalle,Odisha,18.268936,81.608482
24,Serupalle,Odisha,18.460743,82.000573
23,Serupalle,Odisha,18.255646,81.88095899999999
32,Tamanpalle,Odisha,18.046769,81.620005
427,Chenchireddipalle,Andhra Pradesh,15.468744000000001,79.655139
431,Gullugulurivandlapalle,Andhra Pradesh,15.469798999999998,79.52277
545,Padamarapalle,Andhra Pradesh,15.203663,79.58515600000001
544,Kottapalle,Andhra Pradesh,15.283427,79.554413
452,Krishnamanayanipalle,Andhra Pradesh,15.162816000000001,79.175442
454,Namburivanipalle,Andhra Pradesh,15.311735999999998,79.12055500000001
503,Ramavaripalle,Andhra Pradesh,15.264079999999998,78.954875
496,Kottapalle,Andhra Pradesh,15.230579999999998,79.013263
523,Samalavandlapalle,Andhra Pradesh,15.423304000000002,79.252993
522,Musilapalle,Andhra Pradesh,15.383989000000001,79.22890699999999
532,Krishnammagaripalle,Andhra Pradesh,15.414760999999999,79.408242
255,Pandapalle,Andhra Pradesh,15.524014000000001,77.717771
481,Tirnampalle,Andhra Pradesh,15.041096,77.909856
469,Namalapalle,Andhra Pradesh,14.893407999999999,77.874377
555,Timmanapalle,Andhra Pradesh,14.621298000000001,78.002759
574,Kottapalle,Andhra Pradesh,14.711265,77.95094300000001
587,Pullinirayanapalle,Andhra Pradesh,14.576820000000001,77.830287
425,Balapampalle,Andhra Pradesh,14.339551,76.922962
603,Guttakindapalle,Andhra Pradesh,14.366886,78.105896
437,Singepalle,Andhra Pradesh,13.935146,77.232518
608,Udagapalle,Andhra Pradesh,13.800195,77.468952
593,Tangamvandlapalle,Andhra Pradesh,14.259939000000001,77.869619
639,Devarintipalle,Andhra Pradesh,14.001563,78.281498
724,Buragapalle,Andhra Pradesh,14.082695999999999,78.226252
733,Diguyapalle,Andhra Pradesh,14.167720999999998,78.238739
723,Doranalapalle,Andhra Pradesh,14.102259,78.236975
725,Pottuvandlapalle,Andhra Pradesh,14.12155,78.276191
713,Erraguttapalle,Andhra Pradesh,13.950192000000001,78.401791
617,Erragollavandlapalle,Andhra Pradesh,14.154156,78.357001
717,Malikavaripalle,Andhra Pradesh,13.946142000000002,78.35256600000001
703,Dasarivandlapalle,Andhra Pradesh,13.981876000000002,78.314573
672,Erikilavandlapalle,Andhra Pradesh,14.076369,78.437136
674,Kotireddivaripalle,Andhra Pradesh,14.099464999999999,78.365482
614,Baigaripalle,Andhra Pradesh,14.216462,78.263594
613,Erraswamivandlapalle,Andhra Pradesh,14.250488,78.238783
615,Rachavandlapalle,Andhra Pradesh,14.19864,78.308465
623,Tatimakulapalle,Andhra Pradesh,14.022529,77.818986
680,Badulapalle,Andhra Pradesh,14.139237,77.972009
681,Toletipalle,Andhra Pradesh,14.17494,78.01231700000001
705,Kokkantivandlapalle,Andhra Pradesh,13.976919,78.011147
669,Konapallevandlapalle,Andhra Pradesh,13.979251999999999,77.912092
709,Godzulapalle,Andhra Pradesh,13.902926,78.007416
671,Rodamvaripalle,Andhra Pradesh,14.178934,78.11402700000001
757,Bandivanipalle,Andhra Pradesh,13.968798999999999,78.22078499999999
734,Enumulavandlapalle,Andhra Pradesh,14.02612,78.166832
741,Chinnapallevandlapalle,Andhra Pradesh,13.951453,78.17769799999999
714,Gorantlavaripalle,Andhra Pradesh,13.988871,78.130689
737,Kuntlapallevandlapalle,Andhra Pradesh,14.007507999999998,78.190584
735,Malireddipalle,Andhra Pradesh,13.801028,78.142895
756,Errakondavandlapalle,Andhra Pradesh,13.905257999999998,78.259535
774,Cherupullivandlapalle,Andhra Pradesh,13.919047,78.22841
743,Kondakomarlapalle,Andhra Pradesh,13.92794,78.190702
767,Peddaedulapalle,Andhra Pradesh,13.824262,78.22493100000001
742,Mulluvandlapalle,Andhra Pradesh,13.900885,78.185019
478,Basanapalle,Andhra Pradesh,15.011332000000001,78.926263
493,Timmareddipalle,Andhra Pradesh,15.015978,79.037375
490,Tuvvapalle,Andhra Pradesh,14.932998999999999,78.963998
465,Siddugaripalle,Andhra Pradesh,14.804828,78.988484
559,Kottapalle,Andhra Pradesh,14.844095999999999,78.78331
570,Nayareddipalle,Andhra Pradesh,14.688082000000001,78.783681
576,Polusettipalle,Andhra Pradesh,14.417459,78.815062
601,Kottagundavaripalle,Andhra Pradesh,14.392226999999998,78.174676
661,Etigaddapalle,Andhra Pradesh,14.013898999999999,78.50385899999999
660,Vorikondapalle,Andhra Pradesh,14.174304999999999,78.578811
662,Idapalachenipalle,Andhra Pradesh,14.091748999999998,78.514604
626,Dasaripapamapalle,Andhra Pradesh,14.009381,78.57114
659,Nayanivaripalle,Andhra Pradesh,14.129249,78.52979300000001
666,Gurvayagaripalle,Andhra Pradesh,14.1383,78.68817
656,Parvatareddigaripalle,Andhra Pradesh,14.228276000000001,78.700014
622,Voddipalle,Andhra Pradesh,14.261478,78.622659
657,Gajjalavaripalle,Andhra Pradesh,14.231520999999999,78.722186
648,Voddapalle,Andhra Pradesh,14.151431,78.789176
647,Ratchapalle,Andhra Pradesh,14.186815,78.798071
643,Diguvakonetivandlapalle,Andhra Pradesh,14.106815,78.882559
642,Virapalle,Andhra Pradesh,14.15802,78.857608
536,Kotikadamalapalle,Andhra Pradesh,14.204373,78.943107
634,Malireddipalle,Andhra Pradesh,14.094067,78.814274
653,Palemvandlapalle,Andhra Pradesh,14.055181,78.870614
654,Pujarivallapalle,Andhra Pradesh,14.071479,78.926402
624,Gorlavandlapalle,Andhra Pradesh,14.010129999999998,78.841687
627,Pakirpalle,Andhra Pradesh,14.028351999999998,78.793152
631,Dugganavandlapalle,Andhra Pradesh,14.019146,78.69781
629,Ramareddipalle,Andhra Pradesh,14.056179,78.656008
633,Tokatamvandlapalle,Andhra Pradesh,14.061789000000001,78.616256
632,Tamtamvandlapalle,Andhra Pradesh,14.031512,78.63890500000001
449,Bodayasiddayapalle,Andhra Pradesh,15.057082000000001,79.155055
644,Nagurivandlapalle,Andhra Pradesh,13.878076,78.474096
736,Bagepalle,Andhra Pradesh,13.767685,78.14390300000001
754,Kammavandlapalle,Andhra Pradesh,13.761682999999998,78.22076700000001
739,Kottapalle,Andhra Pradesh,13.697815,78.265739
753,Kottureddigaripalle,Andhra Pradesh,13.775125,78.261386
762,Visanagaripalle,Andhra Pradesh,13.717034,78.23924
748,Moramidipalle,Andhra Pradesh,13.763079000000001,78.392188
761,Babugaripalle,Andhra Pradesh,13.683470999999999,78.299387
778,Chinnagutlapalle,Andhra Pradesh,13.739213000000001,78.355687
776,Kongivandlapalle,Andhra Pradesh,13.720434,78.305844
779,Voddapalle,Andhra Pradesh,13.840535000000001,78.28224300000001
744,Kottapalle,Andhra Pradesh,13.902801,78.323699
726,Banadaravandlapalle,Andhra Pradesh,13.918776999999999,78.382122
766,Voddapalle,Andhra Pradesh,13.734419,78.442012
727,Ballapuramvandlapalle,Andhra Pradesh,13.890157,78.407896
751,Enupotulavandlapalle,Andhra Pradesh,13.733585999999999,78.466306
772,Dayyalavandlapalle,Andhra Pradesh,13.786712,78.428584
765,Chinnappareddigaripalle,Andhra Pradesh,13.681094,78.456991
721,Ragimanudinnepalle,Andhra Pradesh,13.862554999999999,78.399959
760,Tsakalapalle,Andhra Pradesh,13.708488000000001,78.456199
752,Kavallavaripalle,Andhra Pradesh,13.668147,78.360729
592,Chinnapalle,Andhra Pradesh,13.596078,78.353499
750,Bandakindipalle,Andhra Pradesh,13.597892000000002,78.434824
758,Pullaguravandlapalle,Andhra Pradesh,13.599916,78.48862
759,Chirraguntalapalle,Andhra Pradesh,13.591573,78.4577
378,Ananipalle,Andhra Pradesh,13.490203,79.289458
708,Ajjapalle,Andhra Pradesh,13.427139000000002,78.71039300000001
702,Birijapalle,Andhra Pradesh,13.393179,78.707045
682,Kapalem Mittapalle,Andhra Pradesh,13.336646,78.594112
677,Mattalavaripalle,Andhra Pradesh,13.388473999999999,78.423858
687,Errayapalle,Andhra Pradesh,13.419348999999999,78.40374200000001
684,Erranelapalle,Andhra Pradesh,13.436054,78.395986
720,Devalampalle,Andhra Pradesh,13.503792,78.424888
729,Boggatavaripalle,Andhra Pradesh,13.501392000000001,78.467853
722,Guttakindepalle,Andhra Pradesh,13.531853,78.445017
697,Chikkanapalle,Andhra Pradesh,13.143416,78.627342
686,Balanayanipalle,Andhra Pradesh,13.319316,78.723929
