Cluster,Placename,State,Lat,Long
2,Banchipatti,Odisha,18.921971,83.227198
104,Gangapatti,Bihar,26.443579999999997,85.74433
128,Patharpatti,Bihar,26.246903999999997,86.012785
145,Harpatti,Bihar,26.100260000000002,85.93955
86,Sumirpatti,Bihar,25.761877,85.02070400000001
108,Kalu Patti,Bihar,26.38812,84.27943
137,Sibipatti,Bihar,26.415695,86.09415899999999
91,Sahila Rampur Patti,Bihar,26.254590000000004,85.51987
126,Kanpatti,Bihar,26.07534,86.52221999999999
77,Awdal Patti,Bihar,25.91005,84.76363
105,Babhnipatti,Bihar,26.573351000000002,85.816387
124,Dhansipatti,Bihar,26.39377,86.8353
158,Baija Patti,Bihar,25.99813,87.09727
103,Mandharpatti,Bihar,25.951172,85.536962
152,Dahapatti,Bihar,26.410740000000004,86.45028
125,Garahiapatti,Bihar,25.887610000000002,86.54871999999999
69,Dinapatti,Bihar,26.20966,84.48025
115,Gauspurpatti,Bihar,26.489168,87.047359
88,Basopatti,Bihar,26.911590000000004,84.41147
140,Parmanand Patti,Bihar,26.57102,84.36534
144,Nandapatti,Bihar,26.066734,86.149617
66,Lakhanpatti,Bihar,25.199289999999998,83.77209
113,Lagma Patti,Bihar,25.74519,86.67347
134,Mohanpatti,Bihar,26.569444,86.026928
102,Raghunipatti,Bihar,26.64007,85.60944
101,Maheshpatti,Bihar,26.23609,85.72955
150,Dulharpatti,Bihar,26.162297,87.043751
99,Rasulpur Patti,Bihar,25.843420000000002,85.26461
149,Berai Patti,Bihar,26.07496,85.93388
129,Deenapatti,Bihar,25.88314,86.93974
82,Jaizpatti,Bihar,25.666178,85.847012
68,Parsotim Patti,Uttar Pradesh,26.036775,84.123919
63,Kewal Patti,Bihar,25.606679999999997,84.4635
62,Bhim Patti,Uttar Pradesh,25.741989999999998,84.2507
118,Shekhpatti,Bihar,26.241090000000003,85.85879
142,Bhojpatti,Bihar,26.481309999999997,86.34312
116,Mathurapur Patti,Bihar,26.10718,85.03248
114,Salempatti,Bihar,25.8893,85.93719
159,Bisariapatti,Bihar,26.019962,87.144499
117,Sohilapatti,Bihar,25.997367,85.055275
151,Koiriapatti,Bihar,26.226778999999997,86.353328
109,Raja Patti,Bihar,26.2148,84.7921
73,Khajura Patti,Bihar,25.64023,87.17179
80,Bispatti,Bihar,25.62107,86.90392
119,Surtipatti,Bihar,26.156981,86.609658
110,Sitalpatti,Bihar,25.80578,85.76843000000001
143,Tikapatti,Bihar,26.094601,86.27652900000001
90,Khemaipatti,Bihar,26.24424,85.37312
89,Baripatti,Bihar,26.726409000000004,84.529042
98,Kazipatti,Bihar,25.660970000000002,85.3498
147,Chhatopatti,Bihar,26.219407,86.777967
133,Dharnipatti,Bihar,26.116410000000002,85.85675
148,Sobhnath Patti,Bihar,26.0618,85.95524
59,Dhobaha Pachhimpatti,Bihar,25.116607000000002,83.379734
146,Tulapatti,Bihar,26.12556,86.7144
85,Jhauapatti,Bihar,25.865104000000002,84.92616899999999
130,Siswapatti,Bihar,25.804170000000003,86.91207
65,Shah Patti,Bihar,25.00319,83.66846
70,Ranpatti,Bihar,25.908910000000002,84.49351
95,Kumkum Patti,Uttar Pradesh,25.59585,83.97478000000001
180,Banaraha Purab Patti,Uttar Pradesh,26.72007,84.20969000000001
10,Pagwara Pachhimpatti,Jharkhand,24.60032,87.07439000000001
3,Silpatti,Chhattisgarh,21.5223,80.99821999999999
19,Arazi Kasht Sultan Patti,Uttar Pradesh,27.8816,77.62472
7,Saidapatti,Punjab,31.441215000000003,75.997274
8,Shinyan di Patti,Jammu and Kashmir,33.173078000000004,74.181476
11,Pargadih Pachhim Patti,Jharkhand,24.27257,87.07978
1,Kadpatti,Karnataka,15.986557000000001,75.58127900000001
5,Golapatti,Madhya Pradesh,23.798072,79.745915
4,Patti,Madhya Pradesh,23.69099,76.58955
14,Harpatti,Rajasthan,26.81925,76.2597
13,Garhi Patti,Rajasthan,26.73341,77.02476
20,Loriha Patti,Uttar Pradesh,27.380329999999997,77.53078000000001
216,Turinjippatti,Tamil Nadu,11.970866000000001,78.267981
489,Dalavaypatti,Tamil Nadu,11.665756,78.09103499999999
561,Naickanpatti,Tamil Nadu,10.05662,78.21696
557,Vallalappatti,Tamil Nadu,10.058368,78.287284
93,Abishekapatti,Tamil Nadu,8.79984,77.65283000000001
379,Pichchampatti,Tamil Nadu,9.682627,78.09670600000001
153,Vadakku Puliyanpatti,Tamil Nadu,9.016587,77.64193399999999
460,Kathiripatti,Tamil Nadu,11.75729,78.29552
556,Therkupethampatti,Tamil Nadu,10.03154,78.14366
306,Thippampatti,Tamil Nadu,10.64893,77.07606
136,Terkuppatti,Tamil Nadu,8.879336,77.86503499999999
465,Adikarapatti,Tamil Nadu,11.669830000000001,78.21531999999999
329,Kudippatti,Tamil Nadu,9.79782,77.72953000000001
390,Tumbalpatti,Tamil Nadu,11.577805999999999,78.261084
540,Sendanpatti,Tamil Nadu,10.229275,78.67201899999999
721,Mamarattuppatti,Tamil Nadu,10.583022999999999,78.57311700000001
617,Kallukattuppatti,Tamil Nadu,10.642857000000001,78.58803
462,Akkaraippatti,Tamil Nadu,10.546805,77.486687
479,Papparappatti,Tamil Nadu,11.531967,78.061211
225,Akkaraippatti,Tamil Nadu,11.993105,78.709988
707,Kanduvarpatti,Tamil Nadu,10.339663999999999,78.318216
232,Periyavelampatti,Tamil Nadu,11.81098,78.39425
393,Vedanattam Melpatti,Tamil Nadu,9.460232000000001,78.231719
588,Kulippatti,Tamil Nadu,9.964127000000001,78.428627
357,Kovilpatti,Tamil Nadu,9.17348,77.86493
359,Chinnagollapatti,Tamil Nadu,9.32951,77.92865
417,Alattudaiyanpatti,Tamil Nadu,11.211474,78.468909
478,Alavaipatti,Tamil Nadu,11.49433,78.10325999999999
568,Alakkulattanpatti,Tamil Nadu,10.027811999999999,78.573833
358,Chinnamuppanpatti,Tamil Nadu,9.59897,77.96108000000001
727,Kannivadugappatti,Tamil Nadu,10.511427000000001,78.423692
487,Thammanayakkanpatti,Tamil Nadu,11.611130000000001,78.13141999999999
586,Nayattanpatti,Tamil Nadu,9.968924000000001,78.39901400000001
608,Amburapatti,Tamil Nadu,10.65656,78.66944000000001
342,Perumalnaickempatti,Tamil Nadu,12.22152,78.44859
650,Kappiliyappatti,Tamil Nadu,10.383610000000001,78.03162900000001
680,Vellalappatti,Tamil Nadu,10.675469,77.988119
322,Perumalpatti,Tamil Nadu,9.882769999999999,77.87137
497,Anaikavundanpatti,Tamil Nadu,11.74273,78.0475
461,Anaikuttaipatti,Tamil Nadu,11.57143,78.03262
639,Anaipatti,Tamil Nadu,10.39228,77.90875
428,Neikkarappatti,Tamil Nadu,11.4141,77.92873
319,Vanniyampatti,Tamil Nadu,9.833428999999999,78.00734
229,Thambunaickenpatti,Tamil Nadu,12.19995,78.74517
611,Odappatti,Tamil Nadu,10.701573,77.947278
668,Kusavappatti,Tamil Nadu,10.290094999999999,78.064268
429,Sungidivarathampatti,Tamil Nadu,11.48974,77.91966
477,Valakuttapatti,Tamil Nadu,11.549339999999999,78.12416
166,Anupatti,Tamil Nadu,10.957017,77.238731
349,Sellampatti,Tamil Nadu,9.300848,77.638576
419,Poosaripatti,Tamil Nadu,10.64107,77.6346
360,Appayyanayakkanpatti,Tamil Nadu,9.41897,77.98779
369,Naiperampatti,Tamil Nadu,12.28547,78.55045
538,Nangaipatti,Tamil Nadu,10.15728,78.764126
544,Pilakudipatti,Tamil Nadu,10.35074,78.74146999999999
583,Kavarayapatti,Tamil Nadu,9.951848,78.364339
500,Ramudaiyanpatti,Tamil Nadu,10.588761,78.973791
423,Arayapatti,Tamil Nadu,10.30824,78.98097
490,Nayakkanpatti,Tamil Nadu,11.64199,78.04890999999999
519,Tottanpatti,Tamil Nadu,10.646142,79.017588
340,Usilampatti,Tamil Nadu,9.9662267,77.82872511
492,Jedappatti,Tamil Nadu,11.71003,77.947184
739,Salaippatti,Tamil Nadu,10.596797,78.451625
382,Kattakkanjanpatti,Tamil Nadu,9.499360000000001,78.12334
348,Athipatti,Tamil Nadu,9.25,77.7
372,Jogippatti,Tamil Nadu,12.321672999999999,78.477645
308,Attukkinattuppatti,Tamil Nadu,10.713749,77.30443100000001
468,Avalnaickenpatti,Tamil Nadu,11.21932,78.16765
282,Avalnayakkanpatti,Tamil Nadu,12.49519,78.56801
701,Vellaiyakavundanpatti,Tamil Nadu,10.407062,78.555126
552,Muttuvirakandiyanpatti,Tamil Nadu,10.749716000000001,78.93232900000001
658,Perumayippatti,Tamil Nadu,10.291045,78.096643
732,Uttuppatti,Tamil Nadu,10.554611,78.343058
67,Arumugampatti,Tamil Nadu,8.714041,77.408314
389,Ayilpatti,Tamil Nadu,11.543389999999999,78.34827
501,Mottuppatti,Tamil Nadu,10.488892,79.033439
364,Tolmalaipatti,Tamil Nadu,9.246707,78.00601800000001
578,Ottakovilpatti,Tamil Nadu,10.180661,78.344575
355,Bangalapatti,Tamil Nadu,10.17258,77.81835
309,Molarapatti,Tamil Nadu,10.77877,77.39041999999999
214,Belurkaradipatti,Tamil Nadu,11.64761,78.5057
515,Bodinayakanpatti,Tamil Nadu,10.08358,77.96528
311,Kondampatti,Tamil Nadu,10.58597,77.25067
474,Manjanaickenpatti,Tamil Nadu,10.48829,77.61932
310,Thumbalapatti,Tamil Nadu,10.52139,77.25666
351,Kethunaickampatti,Tamil Nadu,12.23449,78.59926
328,Goonampatti,Tamil Nadu,12.23697,78.49986
449,Singilippatti,Tamil Nadu,11.283429,78.077393
245,Buddireddippatti,Tamil Nadu,12.046004,78.313879
442,Mettuppatti,Tamil Nadu,11.830656,77.955024
380,Eliyarpatti,Tamil Nadu,9.89792,78.07476
512,Pallappatti,Tamil Nadu,10.12453,78.139923
525,Viralpatti,Tamil Nadu,10.481464,77.66639599999999
330,Vengiampatti,Tamil Nadu,12.05327,78.52871
625,Chellappanayakkanpatti,Tamil Nadu,10.202805,78.233775
447,Ganganayakkanpatti,Tamil Nadu,11.094654,78.16107
736,Nalliyanpatti,Tamil Nadu,10.564483000000001,78.390905
367,Pottalpatti,Tamil Nadu,9.364888,77.499667
57,Varttagareddipatti,Tamil Nadu,8.746596,77.990166
653,Kurumbappatti,Tamil Nadu,10.387621000000001,77.950787
494,Periya Kadampatti,Tamil Nadu,11.716165,77.988233
25,Punjai Puliyampatti,Tamil Nadu,11.351626,77.16671
321,Errampatti,Tamil Nadu,12.44678,78.47531
527,Ellaippatti,Tamil Nadu,10.659897,77.81339799999999
312,Chinnapallippatti,Tamil Nadu,12.208021,78.29480600000001
605,Muruganpatti,Tamil Nadu,10.262374000000001,77.90974
401,Panaiyadipatti,Tamil Nadu,9.151114,78.153216
415,Kosappatti,Tamil Nadu,10.153839999999999,78.910425
350,Mutturettiyapatti,Tamil Nadu,9.267812,77.641492
74,Vellakaranpatti,Tamil Nadu,9.131878,77.417037
396,Kuchchampatti,Tamil Nadu,9.571381,78.173794
469,Perumbalippatti,Tamil Nadu,11.344542,78.097903
458,Kongupatti,Tamil Nadu,11.87289,78.09673000000001
644,Pirappakkavundanpatti,Tamil Nadu,10.710533,78.09865
647,Dharmappatti,Tamil Nadu,10.35983,78.42936
735,Dhavalavirampatti,Tamil Nadu,10.656217,78.27851700000001
307,Doddampatti,Tamil Nadu,10.650745,77.191199
335,Pallappatti,Tamil Nadu,9.875172000000001,77.736312
439,Mudalippatti,Tamil Nadu,11.015134,78.287315
543,Paraiyanpatti,Tamil Nadu,10.274497,78.740713
305,Ergampatti,Tamil Nadu,10.82565,77.38733
473,Erramanaickenpatti,Tamil Nadu,10.49413,77.58568000000001
513,Vaiyasippatti,Tamil Nadu,10.087291,78.076546
454,Rakkiyampatti,Tamil Nadu,11.577943,77.89380200000001
585,Erumaipatti,Tamil Nadu,10.081489999999999,78.47371
446,Erumaippatti,Tamil Nadu,11.146709,78.28996
219,Ettilappanaickenpatti,Tamil Nadu,9.06219,78.0227
334,Kunampatti,Tamil Nadu,12.351481,78.497897
409,Rosanappatti,Tamil Nadu,9.978297,77.574703
387,Gengaperampatti,Tamil Nadu,12.30683,78.543352
388,Thurinjipatti,Tamil Nadu,12.28683,78.51619000000001
400,Pallivasalpatti,Tamil Nadu,9.23616,78.137557
325,Rayappanpatti,Tamil Nadu,9.772385,77.337721
421,Thoppapatti,Tamil Nadu,11.42794,78.24643
493,Kallarpatti,Tamil Nadu,11.67788,77.94435
54,Ikkaraibooluvampatti,Tamil Nadu,10.95779,76.79383
362,Kondampatti,Tamil Nadu,12.25308,78.55466
666,Ellaikkalappatti,Tamil Nadu,10.632566,78.478987
730,Sangakavundanpatti,Tamil Nadu,10.502142999999998,78.469566
499,Inathukanpatti,Tamil Nadu,10.697280000000001,79.10455999999999
620,Pichchattevanpatti,Tamil Nadu,10.584858,78.638885
326,Pudappatti,Tamil Nadu,12.181658,78.51780500000001
483,Vellalappatti,Tamil Nadu,11.750455,78.102632
303,Chinnamodalipatti,Tamil Nadu,12.335001,78.142771
165,Kammalapatti,Tamil Nadu,10.852319999999999,77.24846
343,Vadamalaippatti,Tamil Nadu,12.335152,78.36981800000001
528,Ellaippatti,Tamil Nadu,10.550513,77.801895
331,Jinkalakadirampatti,Tamil Nadu,12.289576,78.34141
697,Jothampatti,Tamil Nadu,10.29975,78.13604000000001
304,Jottampatti,Tamil Nadu,10.598906,77.35491800000001
562,Andikapatti,Tamil Nadu,9.990242,78.231328
333,Vettrappatti,Tamil Nadu,12.122981,78.50341
597,K.Pichampatti,Tamil Nadu,10.81878,78.10477
438,K.Puliyampatti,Tamil Nadu,11.155339999999999,78.10918000000001
535,Meyyappatti,Tamil Nadu,10.152957,78.603988
676,Pandukaranpatti,Tamil Nadu,10.470897,78.63606800000001
476,Kullamanayakkanpatti,Tamil Nadu,11.407666,78.197703
344,Pedappanpatti,Tamil Nadu,12.36485,78.3627
83,Siliampatti,Tamil Nadu,11.297659,77.574487
352,Pallippatti,Tamil Nadu,12.158717,78.427849
337,Kalangaraipatti,Tamil Nadu,9.13597,77.73923
686,Achchukkadupatti,Tamil Nadu,10.417361,78.620378
530,Kuttilinayakkanpatti,Tamil Nadu,10.511847999999999,77.76164399999999
52,Kalapatti,Tamil Nadu,11.07809,77.03755
599,Salikkaraippatti,Tamil Nadu,10.751296,78.17139300000001
463,Vannarpatti,Tamil Nadu,10.498491,77.517027
667,Chinnandaiyapatti,Tamil Nadu,10.65222,78.41761600000001
587,Kattanippatti,Tamil Nadu,9.997179,78.434973
233,Akhilanakottappatti,Tamil Nadu,11.856892,78.375036
526,Avandippatti,Tamil Nadu,10.034837,78.657036
503,Cholaganpatti,Tamil Nadu,10.543451,78.98016899999999
695,Singilikkampatti,Tamil Nadu,10.611055,77.969995
514,Kallivelippatti,Tamil Nadu,10.049760000000001,78.044874
430,Toppalampatti,Tamil Nadu,10.976861,78.479844
693,Eramchettipatti,Tamil Nadu,10.377088,78.112481
111,Lakkumanaickenpatti,Tamil Nadu,10.89438,77.66798
338,Sevalpatti,Tamil Nadu,9.334439999999999,77.76890999999999
376,Kanavaypatti,Tamil Nadu,10.185708,77.73468000000001
664,Talaiyarippatti,Tamil Nadu,10.266628,78.144125
405,Kanavaipatti,Tamil Nadu,10.000010000000001,77.617
356,Nallamuthanpatti,Tamil Nadu,9.24483,77.94516999999999
457,Pappachettippatti,Tamil Nadu,11.823585000000001,78.03700400000001
714,Sangilippatti,Tamil Nadu,10.423319000000001,78.320639
532,Kullaviranpatti,Tamil Nadu,10.523667999999999,77.70845600000001
320,Manappatti,Tamil Nadu,9.922458,78.006765
475,Lakkayampatti,Tamil Nadu,11.361310000000001,78.140582
395,Karaiampatti,Tamil Nadu,11.45752,78.36583
719,Karaipatti,Tamil Nadu,10.43431,78.41251
482,Karikkapatti,Tamil Nadu,11.68551,77.89133000000001
705,Seruvarampatti,Tamil Nadu,10.348424000000001,78.455607
502,Mudalipatti,Tamil Nadu,10.5843,79.16969
498,Panjakalipatti,Tamil Nadu,11.7631,78.01313
570,Karuthapuliyampatti,Tamil Nadu,10.0313,78.3389
678,Krishnampatti,Tamil Nadu,10.374915,77.857277
318,Kasinayagampatti,Tamil Nadu,12.45899,78.5399
495,Kasuvireddipatti,Tamil Nadu,11.74048,77.99686
711,Ariyakkonpatti,Tamil Nadu,10.505034,78.578074
56,Kattampatti,Tamil Nadu,10.81712,77.01804
577,Kattanippatti,Tamil Nadu,10.027167,78.470896
394,Damodarampatti,Tamil Nadu,9.470211,78.29211
555,Nandampatti,Tamil Nadu,10.68149,78.900739
341,Thalampatti,Tamil Nadu,12.259677,78.380204
279,Kattavirichchampatti,Tamil Nadu,12.12232,78.58337
450,Kavurkkalpatti,Tamil Nadu,11.651760000000001,78.33312
441,Vadippatti,Tamil Nadu,10.450667999999999,77.427479
491,Sevvapatti,Tamil Nadu,10.485885000000001,79.136214
594,Kayampatti,Tamil Nadu,10.13665,78.42178
510,Tennathirayanpatti,Tamil Nadu,10.44087,78.85584
470,Kejalnaickanpatti,Tamil Nadu,11.28196,78.2353
6,Kempatti,Tamil Nadu,12.66231,77.72702
589,Chinna Karpurampatti,Tamil Nadu,10.152569999999999,78.309557
560,Chinna Vallalappatti,Tamil Nadu,10.06353,78.25994399999999
131,Sinippelattupatti,Tamil Nadu,10.344012,77.695982
12,Kuttiyanunpatti,Tamil Nadu,12.873362,78.853523
332,Soriyampatti,Tamil Nadu,12.07976,78.47882
386,Kodangipatti,Tamil Nadu,9.99433,77.43337
593,Muravakilavanpatti,Tamil Nadu,10.126049,78.399905
700,Chokkanadapatti,Tamil Nadu,10.437257,78.510561
365,Salamarathupatti,Tamil Nadu,12.28829,78.43444000000001
435,Tavuttuppatti,Tamil Nadu,11.117784,78.542913
384,Kemmampatti,Tamil Nadu,11.746812,77.745664
464,Chinna Kallappatti,Tamil Nadu,11.702171,78.169658
665,Kombaipatti,Tamil Nadu,10.238719999999999,78.1213
471,Lakkamanayakkanpatti,Tamil Nadu,11.222586999999999,78.225492
278,Kattimuttananpatti,Tamil Nadu,9.202287,78.326008
426,Koneripatti,Tamil Nadu,11.55204,77.76229000000001
572,Kongampatti,Tamil Nadu,10.09698,78.44063
566,Muniyandipatti,Tamil Nadu,9.920102,78.431454
558,Vellamalaippatti,Tamil Nadu,10.256884,78.38303499999999
403,Pallappatti,Tamil Nadu,9.915875999999999,77.59626
580,Tandavanpatti,Tamil Nadu,9.930099,78.32826899999999
708,Sirangattupatti,Tamil Nadu,10.36117,78.26911
537,Kulathupatti,Tamil Nadu,10.20594,78.74497
690,Karivippatti,Tamil Nadu,10.378935,78.495687
511,Kulavaipatti,Tamil Nadu,10.44345,78.91815
496,Kulavaippatti,Tamil Nadu,10.289885,78.918358
618,Saralaipatti,Tamil Nadu,10.67607,78.614187
607,Melappatti,Tamil Nadu,10.342556,77.90805
411,Kannittevanpatti,Tamil Nadu,9.381496,77.629145
452,Kudattuppatti,Tamil Nadu,11.717299,78.31779499999999
613,Chinna Mulippatti,Tamil Nadu,10.599728,78.73643100000001
713,Dalavaypatti,Tamil Nadu,10.361952,78.368576
448,Mettuppatti,Tamil Nadu,11.108257,78.232479
353,Avalampatti,Tamil Nadu,12.100411,78.385851
567,Tirukkalapatti,Tamil Nadu,10.149021000000001,78.530547
135,Malaipatti,Tamil Nadu,8.93592,77.88847
584,Malampatti,Tamil Nadu,10.11852,78.46805
733,Tadampatti,Tamil Nadu,10.590533,78.38554
422,Pudupatti,Tamil Nadu,11.49756,78.27108
663,Naganpatti,Tamil Nadu,10.519886,77.93875600000001
230,Periyapatti,Tamil Nadu,12.093960000000001,78.68888000000001
522,Pudukkudiyampatti,Tamil Nadu,10.531891,78.890905
392,Vannipatti,Tamil Nadu,9.32885,78.16946
622,Terku Pichchampatti,Tamil Nadu,10.80551,78.217784
517,Elanappatti,Tamil Nadu,10.161956,78.69109499999999
626,Pannappatti,Tamil Nadu,10.303797,78.494979
374,Sandampatti,Tamil Nadu,12.345549,78.447538
534,Marayapatti,Tamil Nadu,10.404213,78.73507
472,Marurpatti,Tamil Nadu,11.28449,78.18516
363,Masarpatti,Tamil Nadu,9.28716,78.03712
516,Kandeduttanpatti,Tamil Nadu,10.338021000000001,78.608641
383,Perumalkovilpatti,Tamil Nadu,9.339447999999999,78.09788
520,Mekkaraippatti,Tamil Nadu,10.615862,79.014302
706,Urattuppatti,Tamil Nadu,10.271664,78.471763
84,Moongilpatti,Tamil Nadu,11.50809,77.53914
670,Viramalaipillaipatti,Tamil Nadu,10.442638,78.12061
518,Peralakavundanpatti,Tamil Nadu,10.812743,78.56975600000001
375,Mukkampatti,Tamil Nadu,12.330960000000001,78.42015
559,Sorukilipatti,Tamil Nadu,9.942914,78.279655
480,Kalattippatti,Tamil Nadu,9.949798,78.62248699999999
72,Mulaikaraipatti,Tamil Nadu,8.545406,77.767923
313,Ramaiyanpatti,Tamil Nadu,12.244663000000001,78.23173100000001
716,Musundapatti,Tamil Nadu,10.39512,78.45382
71,Sivandippatti,Tamil Nadu,8.642238,77.785247
521,Mottaiyanpatti,Tamil Nadu,10.51938,78.83189300000001
317,Nambippatti,Tamil Nadu,12.0085,78.45713
327,Nadupatti,Tamil Nadu,12.20139,78.59852
505,Namburampatti,Tamil Nadu,10.5691,79.08861
621,Vattayanayakkanpatti,Tamil Nadu,10.521194,78.22099399999999
324,Pichaithalaivanpatti,Tamil Nadu,9.21075,77.77365
614,Padipatti,Tamil Nadu,10.57692,78.7122
377,Nathampatti,Tamil Nadu,9.60115,77.72876
627,Vellaiyandipatti,Tamil Nadu,10.290669,78.556241
444,Peddanayakkanpatti,Tamil Nadu,10.488385000000001,77.477824
509,Nemmelippatti,Tamil Nadu,10.485304,78.962112
346,Gopalanayakkanpatti,Tamil Nadu,9.831062,77.43095
289,Oddupatti,Tamil Nadu,11.91461,78.3671
610,Oduvampatti,Tamil Nadu,10.586039999999999,78.855757
408,Pudukannarpatti,Tamil Nadu,9.465947,77.61937900000001
661,Uthuppatti,Tamil Nadu,10.69936,78.44883
420,Sekkarapatti,Tamil Nadu,11.92999,78.07326
612,Lakshmanpatti,Tamil Nadu,10.635287,78.779503
694,Ellappatti,Tamil Nadu,10.583128,77.989005
624,Pallappatti,Tamil Nadu,10.203405,78.198858
542,Ichchippatti,Tamil Nadu,10.705811,77.857843
260,Kolluppatti,Tamil Nadu,12.22644,78.086159
443,Pallipatti,Tamil Nadu,11.87027,77.9017
397,Kil Puliyampatti,Tamil Nadu,9.624222,78.07001600000001
508,Vagupatti,Tamil Nadu,10.439072999999999,78.771351
623,Vellapatti,Tamil Nadu,10.8159,78.27906
391,Karuppamuppanpatti,Tamil Nadu,10.106162,77.70828900000001
354,Papisettippatti,Tamil Nadu,12.059333,78.412164
672,Pappakkapatti,Tamil Nadu,10.84822,78.3711
662,Dharmattuppatti,Tamil Nadu,10.343547000000001,77.850133
371,Arasappatti,Tamil Nadu,9.655953,77.738259
378,Pattakkulam Sallipatti,Tamil Nadu,9.55378,77.72989
456,Puchchinayakkanpatti,Tamil Nadu,11.179542,78.23682
336,Selanayakkanpatti,Tamil Nadu,9.86495,77.67106
632,Mottayanpatti,Tamil Nadu,10.507355,78.235405
9,Valarapatti,Tamil Nadu,12.330671,79.361306
433,Nalliyampatti,Tamil Nadu,11.075039,78.562011
641,Akkarakkampatti,Tamil Nadu,10.796378,78.326026
467,Mettuttandavanpatti,Tamil Nadu,11.832908999999999,77.88345600000001
531,Bangaruchinnampatti,Tamil Nadu,10.568976,77.686775
316,Irulappatti,Tamil Nadu,11.945435,78.409947
696,Balakkavundanpatti,Tamil Nadu,10.330605,78.112741
416,Palaiyapuliyampatti,Tamil Nadu,11.328169,77.909459
314,Puliyampatti,Tamil Nadu,12.28559,78.28181
427,Sanyasippatti,Tamil Nadu,11.513591,77.724802
698,Mettuppatti,Tamil Nadu,10.538215,78.637048
315,Taludalappatti,Tamil Nadu,11.037581,78.71884399999999
141,Bedagarapatti,Tamil Nadu,12.404607,78.01275799999999
485,Saminayakkanpatti,Tamil Nadu,11.70234,78.08507
737,Appadippatti,Tamil Nadu,10.572414,78.432683
576,Saruvupatti,Tamil Nadu,10.041260000000001,78.416952
595,Rajanampatti,Tamil Nadu,10.094502,78.311356
323,Tammampatti,Tamil Nadu,11.441256,78.488697
619,Pallappatti,Tamil Nadu,10.701088,78.59756800000001
437,Sevindipatti,Tamil Nadu,11.03079,78.33272
656,Silvarpatti,Tamil Nadu,10.45941,77.89359
301,Mekala Chennampatti,Tamil Nadu,11.880189,77.720738
524,Sirukudalpatti,Tamil Nadu,10.144446,78.647633
710,Chittuvarpatti,Tamil Nadu,10.493238,78.12715899999999
368,Somampatti,Tamil Nadu,11.608758,78.417147
466,Sukkampatti,Tamil Nadu,11.7236,78.26765999999999
432,Ayettampatti,Tamil Nadu,10.99208,78.55321500000001
504,Sundampatti,Tamil Nadu,10.53277,79.04118000000001
373,Venkatattampatti,Tamil Nadu,12.266345,78.522672
715,T.Idayapatti,Tamil Nadu,10.41579,78.45036
361,Vadakkukoppuchithampatti,Tamil Nadu,9.4128,78.15133
674,Mukkanamalaippatti,Tamil Nadu,10.455257000000001,78.679046
646,Kariyakavundanpatti,Tamil Nadu,10.445635000000001,77.79470699999999
459,Vennamalaippatti,Tamil Nadu,10.984824,78.07605799999999
445,Thathanaickenpatti,Tamil Nadu,10.47552,77.43614000000001
551,Themmapatti,Tamil Nadu,10.101989999999999,78.6029
738,Kadaikkanpatti,Tamil Nadu,10.577876,78.485853
94,Therkupatti,Tamil Nadu,8.888919999999999,77.57642
729,Nalluranipatti,Tamil Nadu,10.529653999999999,78.478817
596,Thumbaipatti,Tamil Nadu,10.08639,78.35801
688,Tettuppatti,Tamil Nadu,10.560258000000001,78.01068199999999
734,Kavaraippatti,Tamil Nadu,10.640011,78.315567
434,Vadamalaipatti,Tamil Nadu,11.15455,78.46035
684,Vadakku Ammapatti,Tamil Nadu,10.537761,78.28253199999999
545,Sirampatti,Tamil Nadu,10.343949,78.792638
436,Kanganipatti,Tamil Nadu,11.150628,78.52167
712,Kinattuppatti,Tamil Nadu,10.676914,78.32350500000001
488,Tatagappatti,Tamil Nadu,11.639318,78.152488
211,Veppalai Muddampatti,Tamil Nadu,11.973416,78.171543
347,Virusampatti,Tamil Nadu,9.0623,78.21387
267,Mahi Karmnath Patti,Uttar Pradesh,26.249540000000003,83.25276
259,Harinath Patti,Uttar Pradesh,25.74059,82.64815
78,Sahulai Charpatti,Uttar Pradesh,25.961068,83.95915699999999
30,Saiyidnagar Banjar Patti,Uttar Pradesh,28.897574,78.974942
45,Mubarakpurpatti,Uttar Pradesh,27.233946000000003,79.522801
170,Agrapatti,Uttar Pradesh,25.613276000000003,82.139071
21,Aheyee Pashchim Patti,Uttar Pradesh,24.68131,83.23979
162,Chak Rupai Patti,Uttar Pradesh,26.517815999999996,82.73517199999999
191,Kaula Patti,Uttar Pradesh,26.108784,83.681203
139,Gangaram Patti,Uttar Pradesh,25.63419,83.74772
243,Payag Patti,Uttar Pradesh,26.17729,82.9206
241,Ajajipatti,Uttar Pradesh,25.251619,82.29840899999999
181,Khan Patti,Uttar Pradesh,25.41544,82.91032
287,Mukund Patti,Uttar Pradesh,25.23937,82.52917
249,Miranpatti,Uttar Pradesh,25.499046,82.089538
75,Akawas Patti,Uttar Pradesh,25.57868,83.29615
28,Pholra Patti,Uttar Pradesh,28.952790000000004,78.581862
223,Chistipatti,Uttar Pradesh,26.01162,83.38073
40,Muhammadpur Patti,Uttar Pradesh,27.341509999999996,79.22565999999999
17,Kheri Patti,Uttar Pradesh,29.38502,77.40929
285,Dhanipatti,Uttar Pradesh,25.163771,82.61131999999999
156,Andhra Patti,Uttar Pradesh,26.58976,83.11731
288,Anurudhpur Pachhimpatti,Uttar Pradesh,25.222817000000003,82.507487
193,Medi Patti,Uttar Pradesh,26.58323,83.98261
189,Bairagi Patti,Uttar Pradesh,26.70557,84.05166
169,Balak Patti,Uttar Pradesh,26.7703,83.94265
242,Bhupati Patti,Uttar Pradesh,25.65636,82.74539
92,Areldigar Patti,Uttar Pradesh,26.742459999999998,82.93857
254,Arjun Patti,Uttar Pradesh,26.03121,82.92408
239,Bansi Patti,Uttar Pradesh,25.4119,82.30745999999999
271,Jalalpur Jagnandan Patti,Uttar Pradesh,26.2351,83.03949
256,Bhojpatti,Uttar Pradesh,25.18019,82.34647
79,Jayanti Patti,Uttar Pradesh,24.95185,82.40111999999999
213,Sarauni Purab Patti,Uttar Pradesh,25.627129999999998,82.88859000000001
246,Purab Patti,Uttar Pradesh,26.12346,82.93755
194,Sita Patti,Uttar Pradesh,26.62983,83.95837
227,Babu Patti,Uttar Pradesh,25.780829999999998,82.02776
200,Babua Patti,Uttar Pradesh,25.71124,83.53603000000001
297,Madhorampatti,Uttar Pradesh,25.976826000000003,82.457388
38,Koilahapatti,Uttar Pradesh,27.883447999999998,79.82718100000001
294,Tiwaripatti,Uttar Pradesh,25.965559,82.27549
33,Lakshmipur Patti,Uttarakhand,29.207399,78.951833
123,Dharni Patti,Uttar Pradesh,27.094279999999998,83.91534
35,Baisapur Patti,Uttar Pradesh,26.997286,79.879714
43,Bhajera Malikpatti,Uttar Pradesh,27.212722999999997,79.635074
275,Wajid Patti,Uttar Pradesh,26.16282,83.30504
247,Kandhu Patti,Uttar Pradesh,26.137286,82.996276
76,Baliya Rai Patti,Uttar Pradesh,25.64411,83.19485
61,Kasim Patti,Uttar Pradesh,26.884956,82.781414
248,Netapatti,Uttar Pradesh,26.13853,83.3754
206,Patak Patti,Uttar Pradesh,26.035232999999998,81.987669
132,Dariyapatti,Uttar Pradesh,25.462528,83.48214200000001
257,Bando Patti,Uttar Pradesh,25.72133,82.686
202,Bangali Patti,Uttar Pradesh,25.74569,83.32186
261,Bangaonpatti,Uttar Pradesh,25.910263,82.509157
251,Hari Patti Or Hirapatti,Uttar Pradesh,25.42822,82.47623
221,Vijayan Patti,Uttar Pradesh,25.620720000000002,82.58769000000001
277,Chhitam Patti,Uttar Pradesh,26.07943,82.53316
296,Sipar Patti,Uttar Pradesh,26.322358,82.911361
188,Baradih Lawai Patti,Uttar Pradesh,26.011670000000002,83.7309
172,Maguri Patti,Uttar Pradesh,26.645220000000002,84.11348000000001
262,Barrre Patti,Uttar Pradesh,25.83332,82.53535
235,Gora Patti,Uttar Pradesh,25.5,82.50336999999999
231,Nirbhaipatti,Uttar Pradesh,25.786628,82.12921999999999
120,Partapipatti,Uttar Pradesh,25.284313,82.878649
42,Lala Patti,Uttar Pradesh,27.188034000000002,81.85681899999999
292,Bemudih Kishundeo Patti,Uttar Pradesh,26.281634999999998,82.940425
29,Jaitpur Patti,Uttar Pradesh,28.67643,78.79635
238,Kuwadevchand Patti,Uttar Pradesh,26.142220000000002,83.13571999999999
226,Bhogipatti,Uttar Pradesh,25.69932,82.81792
222,Premdharpatti,Uttar Pradesh,25.896457,82.030212
51,Husha Patti,Uttar Pradesh,27.54968,79.6092
37,Chauri Harseh Patti,Uttar Pradesh,27.11777,82.057917
268,Kubarshahpatti,Uttar Pradesh,26.12394,82.25874
185,Khachasare Patti,Uttar Pradesh,26.51453,82.35224000000001
167,Bhamapatti,Uttar Pradesh,26.3663,82.18144000000001
27,Kheliyapatti,Uttar Pradesh,28.56669,78.34599
293,Raichand Patti,Uttar Pradesh,26.030913,82.260825
255,Naraina Khemkaran Patti,Uttar Pradesh,25.19257,82.29511
168,Mahsin Patti,Uttar Pradesh,26.4219,83.2575
198,Bhojpatti,Uttar Pradesh,25.79939,83.22115
263,Pratappur Rupai Patti,Uttar Pradesh,26.34215,83.04449
199,Bhualpatti,Uttar Pradesh,26.871533000000003,84.11256800000001
244,Partabsinghpatti,Uttar Pradesh,25.417641,82.400024
190,Gurauliapatti,Uttar Pradesh,26.753057000000002,84.10419499999999
252,Bira Patti,Uttar Pradesh,25.43205,82.51275
97,Pipra Babu Patti,Uttar Pradesh,26.365109999999998,84.11446
161,Ashraf Patti,Uttar Pradesh,26.264029999999998,82.41599599999999
299,Bodhipatti,Uttar Pradesh,25.97617,82.367479
264,Darso Patti,Uttar Pradesh,26.073005,83.09173299999999
236,Dodil Patti,Uttar Pradesh,25.28586,82.37501
55,Jalalpur Jamalpatti,Uttar Pradesh,25.364715,81.62005699999999
201,Dubey Patti,Uttar Pradesh,25.16273,82.69868000000001
50,Chhachhonapatti,Uttar Pradesh,27.516242,79.480873
237,Loniya Patti,Uttar Pradesh,26.028010000000002,82.62408
112,Tammanpatti,Uttar Pradesh,25.13277,82.86081999999999
253,Rasulpur Kalipatti,Uttar Pradesh,25.738066,82.57965899999999
175,Chandan Patti,Uttar Pradesh,26.503740000000004,82.60159
192,Hiraj Patti,Uttar Pradesh,26.173157999999997,83.68147900000001
291,Chanduapatti,Uttar Pradesh,25.901301,82.167069
81,Chaubepatti,Uttar Pradesh,25.313565,83.151174
228,Khampur Dubepatti,Uttar Pradesh,25.780665,81.97212900000001
215,Chauridanu Patti,Uttar Pradesh,25.384179999999997,82.64585
269,Ghughurpatti,Uttar Pradesh,26.29025,83.09529
163,Dhilpatti,Uttar Pradesh,26.854967,84.003194
48,Pipra Patti,Uttar Pradesh,28.13758,79.50092
96,Khohia Patti,Uttar Pradesh,26.31745,83.60608
240,Khoja Patti,Uttar Pradesh,25.23099,82.42984
195,Sariya Mahanth Patti,Uttar Pradesh,26.683320000000002,84.00216
224,Uttar Patti,Uttar Pradesh,25.857879999999998,82.61268000000001
284,Madan Patti,Uttar Pradesh,25.16301,82.574
121,Wazid Patti,Uttar Pradesh,25.20461,83.01337
208,Bahauddinpatti,Uttar Pradesh,25.900895000000002,83.32723
286,Dewara Patti,Uttar Pradesh,26.3556,82.92413
203,Bhojapatti,Uttar Pradesh,25.367484,82.03856800000001
46,Jadopur Patti,Uttar Pradesh,28.39423,79.88673
173,Taran Patti,Uttar Pradesh,26.348916,82.35583299999999
196,Kirpapatti,Uttar Pradesh,26.709446999999997,84.01547099999999
36,Gadia Hardopatti,Uttar Pradesh,27.808259999999997,79.20488
100,Ramdaspatti,Uttar Pradesh,25.698107999999998,81.628373
274,Vishunpur Bhola Patti,Uttar Pradesh,25.99028,83.0415
41,Dhani Patti,Uttar Pradesh,27.067320000000002,81.95313
186,Malak Patti,Uttar Pradesh,26.458562,82.477752
295,Dharma Patti,Uttar Pradesh,26.30469,82.88433
49,Jatau Patti,Uttar Pradesh,28.494159999999997,79.49289
58,Raghupatti,Uttar Pradesh,25.242615,83.351454
207,Padum Patti,Uttar Pradesh,25.84082,83.35462
160,Koeri Patti,Uttar Pradesh,26.52839,84.01174
127,Barwapatti,Uttar Pradesh,26.814709999999998,83.796903
276,Firoj Patti,Uttar Pradesh,26.18691,83.28688000000001
217,Girdharpatti,Uttar Pradesh,25.094452,82.251896
24,Gobindapur Hardo Patti,Uttar Pradesh,27.3751,80.74781
290,Godho Patti,Uttar Pradesh,25.92219,82.20161
32,Kutubpurpatti,Uttar Pradesh,27.80994,78.66642
205,Kokil Patti,Uttar Pradesh,26.83565,84.13081
250,Haivat Patti,Uttar Pradesh,25.4568,82.1289
122,Mojahida Urf Baiju Patti,Uttar Pradesh,27.0202,84.01527
283,Shree Patti,Uttar Pradesh,25.183329999999998,82.53166
184,Haripur Patti,Uttar Pradesh,25.52825,82.27019
18,Mirzapur Patti,Uttar Pradesh,28.626829999999998,77.77471
107,Jamal Patti,Uttar Pradesh,26.14564,81.83525
31,Muse Patti,Uttar Pradesh,27.44068,81.53211999999999
266,Jamalpatti,Uttar Pradesh,25.777354000000003,82.22561
39,Jamnahi Hardo Patti,Uttar Pradesh,27.345084999999997,82.04831899999999
155,Maksudanpatti,Uttar Pradesh,25.476955,82.756125
171,Jogia Janubipatti,Uttar Pradesh,26.657663,84.06857600000001
157,Kondra Bhualpatti,Uttar Pradesh,26.645725,83.102786
154,Kola Patti,Uttar Pradesh,26.412679999999998,82.106096
234,Sispatti,Uttar Pradesh,26.189942000000002,82.85796500000001
210,Kesa Patti,Uttar Pradesh,26.076224,82.093971
87,Kamapatti,Uttar Pradesh,25.90691,81.47922
177,Karhia Hazari Patti,Uttar Pradesh,26.8417,83.89859
64,Netawar Patti,Uttar Pradesh,26.7889,82.30436
273,Makhan Patti,Uttar Pradesh,26.012104,83.016926
218,Keshav Patti,Uttar Pradesh,25.26886,82.18597
270,Keshopur Mahmood Patti,Uttar Pradesh,26.1455,83.25545
26,Kyotana Hardo Patti,Uttar Pradesh,27.628740000000004,81.08548
178,Khalasa Patti,Uttar Pradesh,26.12933,82.63676
182,Khalsa Wajirpatti,Uttar Pradesh,25.93113,83.59285
258,Kurra Patti,Uttar Pradesh,25.77099,82.6647
106,Usra Patti,Uttar Pradesh,25.98176,81.75323
187,Kishun Deo Patti,Uttar Pradesh,26.73302,84.03936
300,Lachhipatti,Uttar Pradesh,25.950086,82.386383
174,Lakhmi Patti,Uttar Pradesh,26.365644,82.274591
204,Shapur Khalwa Patti,Uttar Pradesh,26.805359999999997,84.10364
34,Tanda Afzal Man Patti,Uttar Pradesh,29.253742,78.755235
197,Pararanpatti,Uttar Pradesh,26.819879999999998,84.08244
183,Paramal Patti,Uttar Pradesh,25.558889999999998,82.72426
47,Basidpatti,Uttar Pradesh,26.65793,81.680009
265,Seva Patti,Uttar Pradesh,25.8336,82.21445
209,Raghoram Patti,Uttar Pradesh,25.492079999999998,82.58534
44,Siya Bari Patti,Uttar Pradesh,28.62395,79.76007
506,Tadapatti,Tamil Nadu,10.398442,78.94676899999999
547,Tiruvidayapatti,Tamil Nadu,10.304558,78.86511899999999
507,Terkuppatti,Tamil Nadu,10.407038,78.984815
550,Kuttakkaranpatti,Tamil Nadu,10.338756,78.83149399999999
398,Andikulappatti,Tamil Nadu,10.440423,79.06434
523,Kuttachchiudaiyanpatti,Tamil Nadu,10.513662,78.925837
554,Kumarappatti,Tamil Nadu,10.632038,78.89268299999999
453,Sandiyapatti,Tamil Nadu,10.754089,78.694372
609,Paraippatti,Tamil Nadu,10.610274,78.790566
553,Rajappatti,Tamil Nadu,10.683282,78.870786
615,Karuppadippatti,Tamil Nadu,10.518811,78.745358
720,Chitturilippatti,Tamil Nadu,10.629888000000001,78.525052
687,Anaippatti,Tamil Nadu,10.42393,78.64662299999999
723,Pakkudippatti,Tamil Nadu,10.556678,78.519494
673,Kuppattippatti,Tamil Nadu,10.503177,78.688903
699,Sattampatti,Tamil Nadu,10.530493,78.675393
728,Terku Mottappatti,Tamil Nadu,10.551635000000001,78.49495
740,Merku Sevalpatti,Tamil Nadu,10.573107,78.46615200000001
702,Kusavankalippatti,Tamil Nadu,10.315176,78.416514
549,Velankattuppatti,Tamil Nadu,10.301432,78.822937
536,Kopparampatti,Tamil Nadu,10.322273,78.691017
179,Misidi Patti,Uttar Pradesh,26.242384,82.65558
176,Banjarapatti,Uttar Pradesh,26.824303999999998,83.951398
53,Nilampatti,Tamil Nadu,11.138764,76.83415
138,Ghuskipatti,Bihar,26.446688,86.178784
575,Nadakanmoipatti,Tamil Nadu,10.207777,78.441989
563,Kilakkuppatti,Tamil Nadu,10.207968,78.406134
592,Aniyampatti,Tamil Nadu,10.156253999999999,78.438958
541,Mandippatti,Tamil Nadu,10.22408,78.619748
579,Mangudiyanpatti,Tamil Nadu,10.071981,78.526315
581,Vettangudipatti,Tamil Nadu,10.102592,78.519518
548,Pappanpatti,Tamil Nadu,10.203869000000001,78.560671
539,Pallippatti,Tamil Nadu,10.151557,78.723085
481,Tevarippatti,Tamil Nadu,9.934285000000001,78.591353
484,Marakkudipatti,Tamil Nadu,9.96959,78.701204
370,Kannarappatti,Tamil Nadu,9.415362,78.363837
281,Swamipatti,Tamil Nadu,9.340788,78.426312
280,Kammapatti,Tamil Nadu,9.284357,78.402836
60,Kolavipatti,Tamil Nadu,9.533308,78.537456
407,Mel Kodangipatti,Tamil Nadu,9.419115,77.664698
404,Koppanaikkanpatti,Tamil Nadu,9.469333,77.712721
412,Kiliyanpatti,Tamil Nadu,9.388556,77.71427299999999
591,Kambilippatti,Tamil Nadu,10.140628999999999,78.38647399999999
590,Mangalappatti,Tamil Nadu,10.119809,78.361515
571,Pallappatti,Tamil Nadu,9.999694,78.328521
339,Chettiyapatti,Tamil Nadu,9.977786,77.714602
410,Analppatti,Tamil Nadu,10.040436,77.542059
402,Ayyannattevanpatti,Tamil Nadu,10.032239,77.631323
345,Sakkammalpatti,Tamil Nadu,9.881821,77.493252
385,Mariyappatti,Tamil Nadu,9.96722,77.499827
381,Dharmattupatti,Tamil Nadu,9.989339,77.350607
406,Bodidasampatti,Tamil Nadu,9.968328999999999,77.633438
366,Lakshminayakkanpatti,Tamil Nadu,9.903742,77.311152
602,Kamanpatti,Tamil Nadu,10.257348,77.860196
606,Kendayampatti,Tamil Nadu,10.312685,77.871286
604,Chikkanampatti,Tamil Nadu,10.292544,77.910362
677,Alatturanpatti,Tamil Nadu,10.389182,77.840822
636,Mettuppatti,Tamil Nadu,10.315472,77.97583399999999
669,Ichchimarattuppatti,Tamil Nadu,10.327209,78.029739
652,Kudapparaippatti,Tamil Nadu,10.355242,77.959653
637,Ondivadanayakkanpatti,Tamil Nadu,10.475936,77.80781400000001
657,Chettiyapatti,Tamil Nadu,10.423983999999999,77.822819
651,Pallappatti,Tamil Nadu,10.462854,77.964176
628,Vadippatti,Tamil Nadu,10.434429,77.889077
655,Sukkalammanpatti,Tamil Nadu,10.451586,77.85249300000001
681,Mamakkaranpatti,Tamil Nadu,10.363622,78.07253100000001
649,Ottanaval Patti,Tamil Nadu,10.240762,78.165062
675,Mattanampatti,Tamil Nadu,10.531522,78.047049
565,Kallimarattuppatti,Tamil Nadu,10.780027,78.012286
638,Chinnakavundanpatti,Tamil Nadu,10.676075,78.022548
709,Kechchanipatti,Tamil Nadu,10.502476,78.077004
635,Toppuppatti,Tamil Nadu,10.581531,78.080898
634,Pallappatti,Tamil Nadu,10.625601,78.086093
633,Jappalappanayakkanpatti,Tamil Nadu,10.770077,78.12264300000001
683,Aramanaipatti,Tamil Nadu,10.426432,78.167819
691,Muniyampatti,Tamil Nadu,10.495833,78.01100699999999
640,Kuppanayakkanpatti,Tamil Nadu,10.696713,78.049509
648,Servaikkaranpatti,Tamil Nadu,10.439214999999999,78.06603299999999
679,Nattappatti,Tamil Nadu,10.539295,77.997393
689,Vellaiyappakavundanpatti,Tamil Nadu,10.631195,77.982677
703,Kodangichinnampatti,Tamil Nadu,10.472054,78.15436600000001
603,Kuttakkaranpatti,Tamil Nadu,10.677392999999999,78.137665
692,Kalanampatti,Tamil Nadu,10.449815,78.01030300000001
631,Kalattuppatti,Tamil Nadu,10.585385,77.932443
643,Vayirampatti,Tamil Nadu,10.748661,78.083377
682,Kinattuppatti,Tamil Nadu,10.479460000000001,78.182603
704,Semmadappatti,Tamil Nadu,10.512514999999999,78.16147
529,Muttinayakkanpatti,Tamil Nadu,10.527016999999999,77.82915
212,Mallipatti,Tamil Nadu,10.78468,77.649429
486,Chinnanayakkanpatti,Tamil Nadu,10.898530000000001,78.087836
451,Nallichinampatti,Tamil Nadu,10.782135,77.86861800000001
15,Gurralpatti,Tamil Nadu,11.550677,76.782368
16,Ettikalpatti,Tamil Nadu,11.383764999999999,76.602335
654,Pudukalluppatti,Tamil Nadu,10.734115,78.413177
671,Karumadampatti,Tamil Nadu,10.804648,78.397302
660,Urnayakkanpatti,Tamil Nadu,10.711428999999999,78.48355699999999
645,Kilappatti,Tamil Nadu,10.822512,78.471245
598,Keshappatti,Tamil Nadu,10.749705,78.546885
659,Vadakku Odayapatti,Tamil Nadu,10.804119,78.430964
642,Maripparaippatti,Tamil Nadu,10.766117,78.354232
582,Rattinattanpatti,Tamil Nadu,10.876711,78.429064
630,Virannampatti,Tamil Nadu,10.909923,78.323094
629,Kullarangampatti,Tamil Nadu,10.720765,78.3199
533,Sanduvarpatti,Tamil Nadu,10.642905,78.22001800000001
600,Saragampatti,Tamil Nadu,10.725527,78.195097
616,Kalunguppatti,Tamil Nadu,10.758251,78.247439
601,Karuvadunayakkanpatti,Tamil Nadu,10.697156,78.18612399999999
546,Chinnampatti,Tamil Nadu,10.846461,77.99266800000001
418,Chinna Ammapatti,Tamil Nadu,10.94543,77.876812
440,Mamarattuppatti,Tamil Nadu,11.023242999999999,78.253648
431,Kolakkudippatti,Tamil Nadu,10.997956,78.38316800000001
399,Kalavaipatti,Tamil Nadu,10.958785,78.656301
724,Toppakkavundanpatti,Tamil Nadu,10.630299,78.290601
725,Kambalinayakkanpatti,Tamil Nadu,10.480916,78.366796
685,Anagamkonappatti,Tamil Nadu,10.508051,78.299072
717,Anaikkaranpatti,Tamil Nadu,10.586504,78.29722
726,Tirukkarusolayampatti,Tamil Nadu,10.452937,78.369261
718,Mettuppatti,Tamil Nadu,10.409253,78.357591
722,Kalanivasalpatti,Tamil Nadu,10.514012,78.381858
731,Kalkottampatti,Tamil Nadu,10.616854,78.333303
22,Eruttukkaranpatti,Tamil Nadu,11.152322999999999,79.073447
573,Saralaippatti,Tamil Nadu,10.417755999999999,78.293601
574,Pangu Servaikkaranpatti,Tamil Nadu,10.409886,78.264593
569,Mallanayakkanpatti,Tamil Nadu,10.405592,78.22847800000001
564,Iluppaippatti,Tamil Nadu,10.315994,78.273724
424,Murtippatti,Tamil Nadu,11.217683000000001,78.028766
164,Erugampatti,Tamil Nadu,11.751095,78.673885
425,Nagichettippatti,Tamil Nadu,11.454042,77.85537
455,Vettuvapatti,Tamil Nadu,11.601738000000001,77.778847
23,Melmakkolpatti,Tamil Nadu,11.113731,79.332193
220,Gettupatti,Tamil Nadu,12.09729,78.01175
302,Chinnamottupatti,Tamil Nadu,12.292233999999999,78.208416
298,Yelangalpatti,Tamil Nadu,12.296683,78.126701
272,Periyakammiyampatti,Tamil Nadu,12.591579,78.56512099999999
413,Sulavandipatti,Tamil Nadu,11.238467,78.387674
414,Tatandipatti,Tamil Nadu,11.29303,78.402336
