Cluster,Placename,State,Lat,Long
184,Shorterville,AL,31.570169,-85.1013186
338,Oakville,AL,33.5745483,-86.6980439
347,McVille,AL,34.286204,-86.1277542
216,Pickensville,AL,33.227345,-88.2664225
198,Toulminville,AL,30.7188003,-88.0908335
319,Allenville,AL,32.490969,-87.6608407
335,Mooresville,AL,34.628425,-86.8802819
328,Burkville,AL,32.3281945,-86.5369197
279,Belleville,AL,31.429888199999997,-87.109144
215,Sumterville,AL,32.7118,-88.2389168
330,North Dadeville,AL,32.8576262,-85.7727363
180,Millville,AL,31.029346399999998,-85.7127108
148,Tattlersville,AL,31.7126588,-88.0563959
278,Honoraville,AL,31.8507084,-86.40607879999999
211,Sellersville,FL,30.9918485,-86.9280184
212,Freemanville,AL,31.071845899999996,-87.5208171
322,Curryville,GA,34.4436993,-85.0788365
332,Bentleyville,AL,32.956232899999996,-86.2602508
261,Littleville,AL,34.2514878,-87.5750236
177,Crossville,AL,33.7439976,-88.0022479
258,Simsville,AL,32.1045938,-85.87078580000001
334,Huntsville,AL,34.730368799999994,-86.5861037
296,Petersville,AL,34.8553645,-87.691695
339,Pulliamville,AL,33.441774800000005,-86.12219420000001
178,Eggville,MS,34.3309375,-88.56838359999999
318,Pondville,AL,32.9051252,-87.3111108
346,Morrisville,AL,33.7267671,-85.95719100000001
326,Plantersville,AL,32.656797499999996,-86.9244334
323,Rossville,GA,34.9831309,-85.2860676
149,Blackville,AR,35.4834154,-91.16484670000001
116,Douglasville,AR,34.714536700000004,-92.3598754
160,Annieville,AR,36.15506920000001,-91.24040809999998
100,Nashville,AR,33.945669200000005,-93.84712900000001
112,Branchville,AR,33.9023245,-91.88096800000001
111,Knoxville,AR,35.3820285,-93.3643479
113,Farmville,AR,33.5156672,-92.19041990000001
115,Mooresville,AR,35.0078664,-91.6948578
103,Porterville,LA,32.9459713,-93.4579505
169,Batesville,MO,36.6989448,-90.24621490000001
166,Riceville,AR,35.1231472,-90.2259286
161,Denieville,AR,35.8042428,-91.7237526
168,Tinkerville,MO,36.190622600000005,-89.9598124
102,Downsville,LA,32.6268108,-92.4143096
118,Conville,AR,36.2645128,-92.45293829999999
117,Colville,AR,36.258688299999996,-94.1946494
4,Fordville,AZ,32.7045131,-110.69426750000001
3,Cruzville,NM,33.8072758,-108.6653406
5,Cornville,AZ,34.7177989,-111.92154380000001
28,Hydesville,CA,40.5476338,-124.097272
45,Nashville,CA,38.5787952,-120.8452145
38,Mercuryville,CA,38.776017700000004,-122.82193810000001
44,Schellville,CA,38.246027000000005,-122.43970149999998
27,Keyesville,CA,35.625786100000006,-118.5109199
26,Tonyville,CA,36.2485614,-119.0906602
40,Bruceville,CA,38.335745700000004,-121.41717390000001
43,Somersville,CA,37.956867100000004,-121.86440159999998
37,Robertsville,CA,37.2632766,-121.87634270000001
47,Camptonville,CA,39.4518363,-121.04856559999999
46,Jonesville,CA,40.1123821,-121.4671946
35,Summerville,CA,41.0987505,-123.067815
39,Johnstonville,CA,40.3843408,-120.5874483
29,Dresslerville,NV,38.8979626,-119.71684199999999
21,Springville,CA,34.220560299999995,-119.0959378
6,Quartzville,CO,39.3449887,-106.0772416
7,Perryville,NM,36.536143599999996,-105.22750659999998
475,Amesville,CT,41.962871,-73.37595259999999
487,Chaffeeville,CT,41.7948205,-72.2084113
500,Armoryville,CT,41.3370415,-72.91204640000001
502,Mooreville,CT,41.90954,-73.0601078
530,Ballouville,CT,41.8767649,-71.8611827
507,Greenville,CT,41.5337093,-72.057299
501,Waterville,CT,41.5903748,-73.05094100000001
547,Wellsville,CT,41.5970391,-73.4148434
488,Floydville,CT,41.9287082,-72.779818
486,Windsorville,CT,41.890931,-72.5353647
395,Johnsonville,CT,41.4950447,-72.46657040000001
529,Perryville,MA,42.0250969,-71.88757209999999
559,Rushville,MD,39.0703859,-77.3274843
320,Selbyville,DE,38.4603917,-75.2207438
574,Masonicville,DE,39.720946000000005,-75.61353790000001
587,Strickersville,PA,39.734,-75.7929928
471,Brownsville,DE,38.9137247,-75.67965129999999
470,Canterville,DE,39.0279,-75.5508
56,Gardenville,FL,27.8464145,-82.3817597
97,Connersville,FL,29.275533000000003,-81.4759037
144,Newnansville,FL,29.8085756,-82.4767791
68,Brooksville,FL,28.555271899999997,-82.38787090000001
158,Pickettville,FL,30.3652386,-81.74148879999998
199,Chaserville,GA,31.217137400000002,-83.35738070000001
185,Bradfordville,FL,30.561309899999998,-84.2176763
154,Thomasville,GA,30.8365815,-83.9787808
316,Harrisonville,GA,33.1759544,-84.988549
297,Ayersville,GA,34.560932,-83.41322209999998
309,Murphyville,GA,33.9317704,-84.04213259999999
237,Grantville,GA,33.63540510000001,-83.02987320000001
157,Hebardville,GA,31.241050199999997,-82.3679074
200,Paceville,GA,31.781573600000005,-82.8273659
221,Midville,GA,32.8190456,-82.23484549999999
311,Barnesville,GA,33.054570899999995,-84.1557496
307,Mechanicsville,GA,33.738995700000004,-84.3985382
305,Carsonville,GA,32.713194699999995,-84.28963890000001
293,Boneville,GA,33.4334717,-82.438738
303,Barrettsville,GA,34.3398172,-84.1568598
312,Worthville,GA,33.389840899999996,-83.9212964
324,Archville,TN,35.1328534,-84.52548540000001
313,Duresville,GA,32.8601383,-83.57851099999999
298,Moffitsville,SC,34.289829499999996,-82.71096659999999
294,Winterville,GA,33.9670589,-83.2782101
196,Woodville,NC,35.191753600000006,-83.8826809
156,Tatumsville,GA,32.0374316,-81.1148343
310,Whistleville,GA,33.9937195,-83.78295159999999
304,Draneville,GA,32.2107112,-84.487139
209,Gloverville,SC,33.5259704,-81.8301117
104,Marquisville,IA,41.6566554,-93.600773
32,Westreville,SD,42.924161100000006,-97.0233806
137,Howardville,IA,43.190806099999996,-92.7124132
133,Unionville,IA,40.818348799999995,-92.6954705
182,Sageville,IA,42.5527782,-90.7090161
107,Russellville,IA,40.7828099,-91.6454392
179,Forestville,IA,42.5966517,-91.528481
175,Ferryville,WI,43.3505324,-91.10207390000001
101,Hawleyville,IA,40.7766559,-94.93636629999999
16,Keuterville,ID,46.034045899999995,-116.4415348
10,Centerville,ID,43.9126714,-115.89233529999998
20,Pottsville,ID,47.4665977,-115.70626809999999
13,Lewisville,ID,43.695744299999994,-112.01052630000001
275,Okawville,IL,38.4342164,-89.5503676
239,Mackville,IL,39.8064218,-88.47589079999999
218,Jacksonville,IL,39.733936,-90.2290098
174,Baileyville,IL,42.1972454,-89.5934478
277,Summersville,IL,38.3278269,-88.8670074
173,Bartonville,IL,40.6503158,-89.6520455
205,Reynoldsville,IL,37.3672721,-89.3950888
284,Carterville,IL,37.7600501,-89.07729909999999
190,Harrisonville,IL,41.2872542,-88.30478559999999
170,Myersville,IL,40.2658697,-87.64057659999999
249,Pattonville,MO,38.7364402,-90.40678359999998
248,Taylorville,IL,39.548935,-89.294533
250,Wilsonville,IL,39.07087979999999,-89.85620909999999
193,Keeneyville,IL,41.967528200000004,-88.1203496
372,Stewartsville,IN,38.1847672,-87.8328061
281,Steeleville,IL,38.007273,-89.65843259999998
282,Kurreville,MO,37.4753302,-89.8214891
371,Crawfordsville,IL,38.8667116,-87.6694699
181,Jonesville,IL,41.3114237,-89.07147140000001
219,Griggsville,IL,39.708936200000004,-90.72457220000001
195,Yorkville,WI,42.7419627,-88.0267506
289,Thompsonville,IL,37.9175489,-88.76228359999999
290,Hartsville,IL,37.5358826,-88.4828225
183,Pitcherville,IL,42.3644571,-90.00179150000001
288,Grahamville,KY,37.1075543,-88.7800555
194,Carville,IL,41.8458667,-87.61727320000001
388,Shirkieville,IN,39.6003134,-87.498632
380,Haysville,IN,38.4856079,-86.91499959999999
406,Fortville,IN,39.9322625,-85.8480354
405,Rogersville,IN,40.0356016,-85.3294132
393,Tannersville,IN,39.095052700000004,-85.74747640000001
391,Batesville,IN,39.3000511,-85.222184
384,North Belleville,IN,39.6944905,-86.49444190000001
385,Graysville,IN,38.323123700000004,-85.80218670000001
400,Lyonsville,IN,39.652547999999996,-85.05385150000001
387,Donaldsonville,IN,39.52920820000001,-87.09890379999999
374,Boonville,IN,38.049213200000004,-87.2741723
382,Coveyville,IN,38.973382799999996,-86.4724935
308,Spencerville,IN,41.283105600000006,-84.9219092
381,Lettsville,IN,38.7186591,-87.1744563
333,Travisville,IN,40.6919908,-85.20802629999999
383,Crawfordsville,IN,40.0411536,-86.8744516
364,Groomsville,IN,40.3458706,-86.20277159999999
176,Holmesville,IN,41.59976279999999,-86.8811385
186,Lottaville,IN,41.50336970000001,-87.36475920000001
229,Williamsville,MI,41.8667145,-85.86416640000002
66,Jamesville,OK,35.755100399999996,-95.640537
51,Haysville,KS,37.5644615,-97.35226750000001
50,Skellyville,KS,37.675017700000005,-98.4503558
61,Macyville,KS,39.4816695,-97.81643050000001
81,Beckerville,KS,39.609719,-96.16389009999999
74,Cookville,KS,37.8203174,-95.592205
126,Zincville,OK,36.9914558,-94.808839
350,Berryville,TN,36.2214433,-86.62388490000001
373,Roseville,KY,37.7172753,-86.75498809999999
345,Scottsville,KY,36.7533781,-86.19054240000001
348,Sadlersville,TN,36.6100445,-87.11805749999999
397,Wilsonville,KY,38.1272884,-85.4068997
375,Haysville,KY,37.903399799999995,-86.24247220000001
378,West Danville,KY,37.64479910000001,-84.7902267
389,Munfordville,KY,37.2722751,-85.8910819
417,Brentsville,KY,38.237853799999996,-84.28965500000001
428,Powersville,KY,38.6567388,-84.1121531
354,Windyville,KY,37.3603283,-86.418868
415,Fearisville,KY,38.6256303,-83.5979715
379,South Campbellsville,KY,37.3333977,-85.3255177
286,Gilbertsville,KY,37.0245003,-88.2997557
427,Gardnersville,KY,38.7667341,-84.504384
396,Orville,KY,38.398402000000004,-84.9155059
264,Laytonsville,KY,36.90619,-87.3423
411,Downingsville,KY,38.6417336,-84.7132793
269,Cedarville,KY,37.325385700000005,-82.3273672
402,Kiddville,KY,37.959802200000006,-83.9929787
370,Chandlerville,KY,37.934813500000004,-82.8134943
287,Cooksville,KY,36.6122794,-88.52337920000001
240,Touristville,KY,36.9256295,-84.76160990000001
336,Richville,TN,36.562281799999994,-85.6058056
413,Lucasville,OH,38.879518,-82.9968419
242,Booneville,KY,37.4761991,-83.6749145
89,McDonoghville,LA,29.925760200000003,-90.0461823
92,Cocoville,LA,31.1029656,-92.064013
95,Easleyville,LA,30.9287911,-90.68759859999999
57,Shankleville,TX,30.970196899999998,-93.70684399999999
96,Donaldsonville,LA,30.101032300000004,-90.99287729999999
91,Coopersville,LA,30.009369699999997,-91.80900600000001
87,Wildsville,LA,31.6157261,-91.7840152
58,Henryville,LA,31.547947600000004,-92.9651599
93,Kingsville,LA,31.3624033,-92.4115254
88,Houltonville,LA,30.406860700000003,-90.1423005
90,Leonville,LA,30.470474499999998,-91.97845079999999
433,Houghtonville,MA,42.7125816,-73.10760379999999
540,Jamesville,MA,42.229260100000005,-71.84868309999999
533,Unionville,MA,42.35842529999999,-71.83840579999999
503,Curtisville,MA,42.0223234,-70.917542
418,South Danville,NH,42.901199,-71.1261706
512,Mechanicsville,MA,41.7237133,-71.1489338
515,Carterville,MA,42.3884261,-71.64534570000001
514,Somerville,MA,42.3875968,-71.0994968
496,Lyonsville,MA,42.6723062,-72.71537009999999
495,Knightville,MA,42.2834221,-72.8662082
491,Eaglesville,MA,42.550087700000006,-72.27036140000001
492,Tenneyville,MA,42.1514827,-72.31341450000001
493,Waterville,MA,42.6750863,-72.06758020000001
541,Saundersville,MA,42.181484000000005,-71.70423520000001
516,Lokerville,MA,42.2889848,-71.3967269
536,Harrisville,RI,41.9656539,-71.67451120000001
522,Woodville,RI,41.8623219,-71.4458917
340,Ellisville,MA,41.84454960000001,-70.5416967
341,Centerville,MA,41.6487214,-70.3480787
342,Eastville,MA,41.461223100000005,-70.57863940000001
566,Crownsville,MD,39.0284438,-76.6013536
558,Smithville,MD,39.0709421,-76.9877542
569,Dickeyville,MD,39.3189954,-76.7035823
524,Chaneyville,MD,38.691784600000005,-76.63996170000001
466,Urieville,MD,39.2834435,-76.0191114
560,Unionville,MD,39.474824,-77.1855375
564,Rohrersville,MD,39.4334336,-77.6627688
561,Flohrville,MD,39.392047999999996,-76.9652569
551,Glenville,MD,39.6101076,-76.21578819999999
360,Ridgeville,WV,39.3484321,-78.990583
571,Pierceville,PA,39.7542693,-76.7796966
329,Harrisville,MD,38.4776211,-76.1888319
562,Boydville,WV,39.44871,-77.9733315
546,Oraville,MD,38.417902500000004,-76.6941297
321,Savageville,VA,37.6809644,-75.7568744
462,Centreville,MD,39.0417785,-76.0663334
69,Smithville,ME,44.5370223,-67.95722559999999
65,Suckerville,ME,43.9261861,-70.3936658
72,Brooksville,ME,44.3467446,-68.6836378
67,Brownville,ME,45.30699570000001,-69.03337370000001
71,South Montville,ME,44.3745186,-69.2669873
54,Crouseville,ME,46.7550419,-68.09642020000001
246,Andersonville,MI,42.730028999999995,-83.49244279999999
201,Cutlerville,MI,42.840862200000004,-85.663638
243,Belleville,MI,42.2047619,-83.4852133
162,Deckerville,MI,43.526686100000006,-82.7352105
202,Williamsville,MI,42.4389241,-84.0966204
247,Otisville,MI,43.1661367,-83.52439759999999
36,Dodgeville,MI,47.0940942,-88.58123499999999
235,Fisherville,MI,43.6041922,-84.10887290000001
41,Cedarville,MI,45.9980732,-84.3630872
53,Hermansville,MI,45.711075,-87.60207
42,Peeksville,WI,46.0980083,-90.5301735
203,Petrieville,MI,42.5355925,-84.6213686
145,Nellsville,MI,44.335849200000006,-84.8133632
214,Snyderville,MI,42.8366971,-82.6713088
73,Burnsville,MN,44.7677424,-93.27772259999999
52,Collegeville,MN,45.5944091,-94.36305259999999
83,Centerville,WI,44.0699626,-91.45125809999999
48,Ortonville,MN,45.3046871,-96.4447788
49,Roseville,ND,47.4402634,-97.38897929999999
12,Parkville,MN,47.5310375,-92.5790709
120,Marionville,MO,37.0031121,-93.63742140000001
108,Fayetteville,MO,38.881121500000006,-93.75632900000001
165,Cronanville,TN,36.4345082,-89.4772974
134,Kaseyville,MO,39.624474799999994,-92.66324420000001
114,Cookville,MO,37.6489316,-92.2098865
125,Carterville,MO,37.1492253,-94.4430032
159,Hawkinsville,TN,35.908406299999996,-89.28395929999999
132,Connelsville,MO,40.277528000000004,-92.7001975
129,Claysville,MO,39.3944494,-94.2141105
128,Eversonville,MO,39.9089083,-93.3599327
122,Holtville,MO,36.9145006,-92.2640486
119,Martinsville,MO,40.338608799999996,-94.161621
130,Wilsonville,MO,37.6011614,-90.62317790000002
109,Whitakerville,MO,38.2139152,-93.3710371
131,Cherryville,MO,37.8519898,-91.2768068
234,Hopkinsville,MO,39.1742117,-91.1056978
124,Summerville,MO,38.860594,-92.21101750000001
121,Willowville,MO,37.818092799999995,-93.9777178
135,Shelbyville,MO,39.8058724,-92.0415622
123,Frankville,MO,36.6972824,-91.80570340000001
140,Old Greenville,MO,37.1008852,-90.4548357
86,West Poplarville,MS,30.8343532,-89.5714549
217,Mashulaville,MS,33.086793300000004,-88.7442171
142,Orangeville,MS,32.4718087,-90.4795402
136,Leeville,MS,31.394060999999997,-89.2564491
141,Berryville,MS,32.7487462,-90.16619809999999
138,Harrisville,MS,31.9723781,-90.0778615
127,Stephenville,MS,33.5481719,-90.67175909999999
139,Earlyville,MS,33.0770735,-89.70980290000001
167,Evansville,MS,34.627047499999996,-90.2159277
146,Teckville,MS,34.506493,-89.66286290000001
8,Cartersville,MT,46.2994424,-106.46752520000001
14,Centerville,MT,47.059686,-110.64577150000001
19,Leadville,MT,46.3143732,-112.5430827
280,Ansonville,NC,35.104594299999995,-80.10922590000001
204,Autryville,NC,34.9979453,-78.64251440000001
254,Lawsonville,NC,36.3929148,-79.5636382
150,Barnesville,NC,34.4087766,-79.04669940000001
283,Footville,NC,36.060691,-80.7020093
207,Ormondsville,NC,35.4721066,-77.5458026
206,Forestville,NC,35.96154,-78.5180563
262,Whaleyville,VA,36.5882076,-76.68467679999999
292,Huntersville,NC,35.410694,-80.8428504
291,Goodsonville,NC,35.480411700000005,-81.20619090000001
106,Winsteadville,NC,35.4646105,-76.63576390000001
300,Hancockville,SC,34.917630700000004,-81.6262088
223,Weaverville,NC,35.6970547,-82.56068509999999
263,Old Weeksville,NC,36.2065472,-76.1740972
222,Kellerville,NC,36.245402399999996,-81.89761490000001
85,Hightsville,NC,34.269613899999996,-77.9316542
224,Micaville,NC,35.9095609,-82.2131793
208,Hallsville,NC,34.907388,-77.83886899999999
110,Shookville,NC,35.1462061,-83.2226492
22,Litchville,ND,46.6535903,-98.19426159999999
1,Granville,ND,48.2677874,-100.84264379999999
55,Brownville,NE,40.397779299999996,-95.6580455
15,Eddyville,NE,41.0113969,-99.6242755
2,Brownsville,SD,44.275262700000006,-103.69436230000001
64,Chickville,NH,43.7300765,-71.15617940000001
253,West Danville,VT,44.409501500000005,-72.1950993
576,Bakersville,NJ,40.2748305,-74.7062708
526,Bushville,NY,41.3725941,-74.5698828
568,Smithville,NJ,39.9859455,-74.74849420000001
498,Oakville,NJ,39.3620599,-74.7565527
556,Martinsville,NJ,40.6012136,-74.5590452
545,Karrsville,NJ,40.8092657,-74.9321144
591,Mechanicsville,PA,40.3439948,-75.07461500000001
553,Pleasantville,NJ,39.5445598,-75.0490645
573,Burkesville,NJ,40.160668,-74.42098349999999
563,West Osbornsville,NJ,40.0437277,-74.1198614
588,Riegelsville,NJ,40.594545000000004,-75.1871195
554,Eltingville,NY,40.5453831,-74.1656988
555,Yorkville,NY,40.7788889,-73.9541667
567,Westcotville,NJ,39.8262248,-75.1154527
521,Montville,NJ,40.914820899999995,-74.383763
577,Wertsville,NJ,40.449827,-74.7976631
499,Smithville,NJ,39.4940064,-74.4570947
11,Kanarraville,UT,37.5388676,-113.1841166
30,Sodaville,NV,38.341037,-118.1028953
325,Truthville,NY,43.4503482,-73.3248319
525,Lyonsville,NY,41.848704100000006,-74.2120911
482,Holmesville,NY,42.5128527,-75.4012874
494,Hicksville,NY,40.7684331,-73.5251253
550,Van Cortlandtville,NY,41.3148161,-73.90374859999999
549,Archville,NY,41.1217626,-73.86124659999999
497,Leesville,NY,42.7970184,-74.6468092
461,Arkville,NY,42.1478659,-74.6198771
252,Ashville,NY,42.096446,-79.37560440000001
504,Minaville,NY,42.8859079,-74.2165189
412,Jacksonville,NY,43.2150679,-76.4213247
548,Swartoutville,NY,41.563426799999995,-73.84902340000001
474,Mechanicville,NY,42.9028547,-73.6873405
505,Batchellerville,NY,43.211739,-74.0817962
377,Giddingsville,NY,43.778399799999995,-76.0354779
476,Upper Barbourville,NY,42.1600833,-75.3554537
273,Dansville,NY,42.5609,-77.696106
270,Williamsville,NY,42.963947,-78.73780909999999
266,Haydenville,NY,42.1114544,-78.3750179
485,Talcottville,NY,43.5334024,-75.36517420000001
483,Morrisville,NY,42.898679200000004,-75.6401825
197,Teboville,NY,44.8067159,-74.2443358
271,Millville,NY,43.207558500000005,-78.32474520000001
241,Shortsville,NY,42.955897,-77.22081340000001
407,Hollowville,NY,42.205366,-73.69123409999999
479,Fayetteville,NY,43.029788700000005,-76.00436429999999
511,Hurleyville,NY,41.735646,-74.6743277
251,Clintonville,NY,44.4656034,-73.58263690000001
478,Jenksville,NY,42.269796,-76.2432652
484,Cassville,NY,42.9459036,-75.2543302
315,Northville,NY,40.9700994,-72.61898190000001
465,Centerville,NY,42.0150871,-75.13183459999999
513,Manorville,NY,42.1423117,-74.03596999999999
481,Chaseville,NY,42.5406326,-74.8562666
480,Clarksville,NY,42.5759119,-73.9640169
477,North Colesville,NY,42.241188,-75.72157890000001
265,McGrawville,NY,42.3492323,-78.2275126
314,Sayville,NY,40.7359317,-73.0820556
376,Dutcherville,NY,43.288958,-75.9571392
327,Emeryville,NY,44.2950614,-75.36743259999999
147,Pottersville,NY,43.731176500000004,-73.81929609999999
508,Abrahamsville,PA,41.764255,-75.1235031
446,Jacksonville,NY,42.50840529999999,-76.61494559999998
267,Whitesville,NY,42.0378463,-77.7624938
268,Kibbeville,PA,41.9772886,-78.0663948
236,Sandfordville,NY,44.73200070000001,-74.8993625
355,Reminderville,OH,41.345887899999994,-81.3951112
220,Monroeville,OH,41.24422020000001,-82.69629259999999
448,Kirbyville,OH,39.1264529,-83.9771536
429,Laceyville,OH,40.3222887,-81.1317684
449,Dyesville,OH,39.128130600000006,-82.2298707
351,Footville,OH,41.6617217,-80.9781495
424,Wheatville,OH,39.68810870000001,-84.576062
419,Smithville,OH,40.862278,-81.86180490000001
442,Kenricksville,OH,39.5511708,-84.1654922
447,Sharpsville,OH,39.2575622,-83.7490907
420,Mohicanville,OH,40.728113799999996,-82.19126729999999
426,Belleville,WV,39.124244399999995,-81.7354088
295,Ottoville,OH,40.9322722,-84.33883829999999
453,Tylersville,OH,39.357557799999995,-84.4213312
440,Unionville,OH,40.8553375,-80.73729909999999
410,Proctorville,OH,38.4370282,-82.3770959
394,Greenville,OH,40.1028264,-84.6330115
441,Gunnerville,OH,39.5836722,-83.7627021
460,Maysville,OH,39.896178799999994,-82.03402729999999
408,Hallsville,OH,39.4439524,-82.8271182
437,Chaseville,OH,39.8861833,-81.4640092
431,Conesville,OH,40.1839598,-81.89096529999999
452,O'Bryonsville,OH,39.132281899999995,-84.46105290000001
456,Saint Clairsville,OH,40.0806266,-80.9000916
404,Jacksonville,OH,39.9586708,-83.86465279999999
244,Millersville,OH,41.311997,-83.2813124
458,Neelysville,OH,39.627016499999996,-81.7776333
454,Lennyville,WV,40.6014532,-80.6309064
403,Kiousville,OH,39.7972831,-83.29463790000001
457,Yorkville,OH,40.1545159,-80.7103583
451,Jeffersonville,OH,40.347846600000004,-80.616463
285,Espyville,OH,40.5970024,-83.2551955
362,Kingsville,OH,41.890887299999996,-80.676192
455,Salineville,OH,40.6225623,-80.83786090000001
416,Lawrenceville,OH,40.650061,-81.4442832
459,Straitsville,OH,39.5947914,-82.2457046
245,Deweyville,OH,41.1317187,-83.81993790000001
357,Shawville,OH,41.3756025,-82.0187542
386,Conneautville,PA,41.757833000000005,-80.36784240000001
414,Royersville,OH,38.6106351,-82.67710759999999
425,Gasville,OH,39.5289626,-81.31789429999999
62,Collinsville,TX,33.5614982,-96.9111138
63,McKiddyville,OK,35.0875725,-97.2119708
59,Batesville,TX,33.6084424,-95.1118902
31,Hopville,OR,44.8031758,-123.1328747
17,Cableville,OR,44.856809600000005,-118.2691085
33,Cedarville,WA,46.858431700000004,-123.28237140000002
582,Kesslersville,PA,40.787041200000004,-75.24295620000001
589,Fivepointville,PA,40.182872499999995,-76.0510551
535,Belleville,PA,40.6050706,-77.7255502
527,Amesville,PA,40.8308927,-78.40029709999999
467,Whiskerville,PA,41.075617799999996,-79.8525528
532,Beechersville,PA,39.9173158,-77.2894289
259,Snedekerville,PA,41.8947964,-76.80051170000002
570,Plainville,PA,40.2659251,-76.5752463
534,Circle Ville,PA,40.7892279,-77.9061135
599,Guthsville,PA,40.619262799999994,-75.5862975
468,Woodville,PA,40.3820137,-80.09061070000001
583,Snydersville,PA,40.9584265,-75.2915713
469,Richeyville,PA,40.0534063,-80.00199649999999
597,Gabelsville,PA,40.3370403,-75.6554647
593,Seemsville,PA,40.7223185,-75.45823809999999
472,Silverville,PA,40.7045096,-79.72282729999999
578,New Bridgeville,PA,39.91260020000001,-76.48857579999999
438,Lewisville,PA,40.510622399999995,-79.3211493
531,Cumminsville,PA,40.1209225,-77.31581729999999
584,South Coatesville,PA,39.9742729,-75.8199462
506,Tylersville,PA,40.9906235,-77.42498520000001
444,Heathville,PA,41.089787,-79.1805939
552,Frackville,PA,40.7839774,-76.2302211
463,Jamisonville,PA,40.9439527,-79.92449930000001
572,Flintville,PA,40.3087033,-76.3294007
523,Fayetteville,PA,39.9112028,-77.5499888
464,Circleville,PA,40.3281251,-79.7372668
392,Tatesville,PA,40.0598037,-78.35723670000002
580,Centerville,PA,40.0603748,-76.390795
537,Dimmsville,PA,40.6059155,-77.1360944
443,East Plumville,PA,40.7950645,-79.16920340000001
422,Clappville,PA,41.696447,-79.79449770000001
590,Steelville,PA,39.904827399999995,-75.9935604
436,Hepburnville,PA,41.30479879999999,-77.066913
509,Hollisterville,PA,41.3911956,-75.4385165
421,Hooversville,PA,40.1470217,-78.9119686
445,Taylorsville,PA,40.711176,-78.9764207
596,Greisemersville,PA,40.3545379,-75.7563037
592,Hoppenville,PA,40.3784336,-75.46017950000001
423,East Titusville,PA,41.622003899999996,-79.6422736
518,Wallsville,PA,41.5756336,-75.7115795
575,Waterville,PA,39.880112200000006,-75.3704691
579,Feltonville,PA,40.0217787,-75.1257311
586,Newportville,PA,40.1237213,-74.89988819999999
538,Singersville,PA,40.3773093,-76.911641
557,Thomasville,PA,39.9287093,-76.8505282
543,Martzville,PA,41.068696,-76.2668802
520,Brushville,PA,41.8100751,-76.1877083
517,Swoyersville,PA,41.2917475,-75.8746407
594,Steinsville,PA,40.65759310000001,-75.8551988
528,Milnesville,PA,40.9903617,-75.9827028
519,Kaiserville,PA,41.611743,-75.9821447
272,Shortsville,PA,41.8661832,-77.3605344
595,Virginville,PA,40.523982700000005,-75.87298050000001
539,Danville,PA,40.96342,-76.6127329
581,Smithville,PA,39.926489399999994,-76.25217959999999
544,Welliversville,PA,41.097863399999994,-76.4757801
598,Old Zionsville,PA,40.486486799999994,-75.5201841
473,Lower Hillville,PA,41.024507899999996,-79.5897688
317,Eldredsville,PA,41.5445199,-76.632173
585,Johnsville,PA,40.1909421,-75.0685042
439,Guitonville,PA,41.4758961,-79.2583764
510,Locustville,RI,41.510099600000004,-71.7120116
238,Bascomville,SC,34.6990311,-80.976469
151,Timmonsville,SC,34.1348782,-79.9397885
172,Ashleyville,SC,32.7932321,-79.9845345
171,Stallsville,SC,32.996559999999995,-80.18203759999999
301,West Greenville,SC,34.8431733,-82.4295679
152,Fraserville,SC,33.4429458,-79.13115400000001
153,Grahamville,SC,33.8215604,-78.910862
155,Barkerville,SC,32.7057316,-80.9367744
302,Hillsville,SC,34.6626266,-81.9664867
299,Smithville,SC,34.1934523,-82.2701243
143,Summerville,SC,34.209036700000006,-81.30954129999999
210,Milledgeville,TN,35.3728554,-88.3675416
164,Kerrville,TN,35.38147360000001,-89.8589738
231,Knoxville,TN,35.96063839999999,-83.9207392
276,Springville,TN,36.2492237,-88.1530946
228,Altonville,TN,36.3981482,-83.12350190000001
225,Shakesville,VA,36.609552,-82.13902009999998
344,Readyville,TN,35.8281225,-86.1747135
230,Friendsville,TN,35.7603575,-84.1357453
274,Chaseville,TN,35.8772854,-88.1130929
337,Stiversville,TN,35.4422976,-87.0422286
343,Booneville,TN,35.2742459,-86.464438
232,Fraterville,TN,36.1967456,-84.1721455
331,Oliveville,TN,35.9756197,-85.56108959999999
227,Broylesville,TN,36.2139938,-82.6026484
163,Canadaville,TN,35.1523112,-89.59369029999999
349,Rudderville,TN,35.8406203,-86.7411094
226,Crockettsville,TN,35.8453712,-83.38516120000001
99,Berryville,TX,32.0884931,-95.4719003
77,Bleiblerville,TX,30.008000199999998,-96.4474689
60,Salesville,TX,32.9123458,-98.0880988
23,Rangerville,TX,26.089799199999998,-97.7486046
79,Leesville,TX,29.4069038,-97.74499899999999
94,Hallsville,TX,32.504316100000004,-94.5740934
75,Zunkerville,TX,28.7091507,-97.9916701
78,Coxville,TX,30.4015927,-97.67917220000001
76,Zipperlandville,TX,31.0687934,-97.0552692
9,Heckville,TX,33.754805,-101.6651658
70,Pittsville,TX,30.063829600000002,-95.2429887
98,Hagerville,TX,31.3446262,-95.08132540000001
80,Meyersville,TX,28.928316,-97.31249150000001
18,Wellsville,UT,41.6385432,-111.93383419999999
24,Marriott-Slaterville,UT,41.25161129999999,-112.0254973
25,Taylorsville,UT,40.667724799999995,-111.93882579999999
358,Jetersville,VA,37.29431829999999,-78.0941667
353,Claraville,VA,37.917353999999996,-76.4455064
365,Earlysville,VA,38.157634200000004,-78.48278959999999
352,Tallysville,VA,37.5245898,-77.0752478
359,Andersonville,VA,37.4673691,-78.5688927
356,Taylorsville,VA,37.8270854,-77.45914920000001
565,Hughesville,VA,39.0998284,-77.6597145
361,Rhoadesville,VA,38.2734655,-77.9283297
306,Forksville,VA,36.7523664,-78.0461083
213,Staffordsville,VA,37.2415116,-80.7167346
233,Peaksville,VA,37.4090279,-79.545312
542,Hurleyville,VA,38.6428985,-77.763326
260,Yorkville,VA,37.1509779,-76.4280031
366,Marksville,VA,38.5751224,-78.4794526
369,Sangerville,VA,38.3887366,-79.0833657
368,Mechanicsville,VA,38.6678948,-78.7878003
490,Whitesville,VT,43.3917393,-72.5942598
256,Jonesville,VT,44.383942700000006,-72.9376223
257,Websterville,VT,44.1606176,-72.46954759999998
255,Talcville,VT,43.8586763,-72.8053845
489,Houghtonville,VT,43.1984095,-72.64731540000001
450,Richville,VT,43.1559097,-73.0517708
34,Perrinville,WA,47.8287076,-122.34152150000001
191,Dheinsville,WI,43.2500054,-88.1428698
84,Downsville,WI,44.7746852,-91.9321186
187,Greenville,WI,44.3002628,-88.5364954
105,Saxeville,WI,44.1760899,-89.11456059999999
82,Nasonville,WI,44.5988521,-90.2584668
192,Cherneyville,WI,44.4288838,-87.734813
189,Klevenville,WI,43.0244409,-89.66790019999999
188,Stebbinsville,WI,42.844448799999995,-89.1731704
399,Orville,WV,37.8142723,-81.8920651
432,Smithville,WV,39.553138700000005,-80.1195187
398,Spurlockville,WV,38.1262075,-82.02096440000001
434,New Moatsville,WV,39.2175984,-79.9378543
430,Deanville,WV,39.0548159,-80.4648132
401,Gandeeville,WV,38.7050906,-81.410399
435,Daysville,WV,38.960656,-80.1609141
390,Sistersville,WV,39.564242,-80.99594040000001
367,Mullensville,WV,37.5773348,-81.5587175
363,Masseyville,WV,37.8381665,-81.45149570000001
409,Wattsville,WV,38.4959358,-80.8609347
